name,city,dist,address,latitude,longitude
農村公園,板橋區,江翠里,吳鳳路50巷46號與雙十路3段交叉口,25.030237,121.471097
石雕公園,板橋區,江翠里,吳鳳路50巷(農村公園旁),25.029705,121.469765
八德公園,板橋區,忠翠里,雙十路二段與萬板路交叉口,25.025339,121.476989
四維公園,板橋區,陽明里,陽明街166號(新埔國小旁),25.025637,121.463641
玫瑰公園,板橋區,德翠里,綠堤街(市立聯合醫院板橋院區旁),25.025005,121.454759
國光公園,板橋區,中正里,中正路375巷48號(國光國小旁),25.020728,121.452756
資訊公園,板橋區,柏翠里,文化路與長江路口(華江橋頭),25.034674,121.476277
中山公園,板橋區,華江里,莊敬路179號,25.023086,121.471563
華江公園,板橋區,莊敬里,民生路二段與縣民大道交叉口,25.01931,121.471456
莊敬公園,板橋區,莊敬里,民生路二段120號(公園大鎮對面),25.019972,121.470802
環河公園,板橋區,香雅里,南雅西路二段301巷41弄(國光國小後面),25.017328,121.450906
華中公園,板橋區,浮洲里,僑中一街124巷底(四汴頭抽水站旁),25.01929,121.446655
永安公園,板橋區,永安里,雙十路一段25號,25.024356,121.477575
永豐公園,板橋區,雙玉里,永豐街124號,25.021024,121.476971
民生公園,板橋區,東丘里,民生路一段30號(板橋憲兵隊旁),25.013546,121.475976
介壽公園,板橋區,深丘里,館前東路、公園街、實踐路三角地帶(板橋地政事務所對面),25.00845,121.462714
和平公園,板橋區,廣德里,重慶路355號,24.998067,121.464484
忠孝公園,板橋區,仁愛里,國慶路149巷21弄16號,24.997207,121.460045
仁愛公園,板橋區,仁愛里,國慶路51號(忠孝公園旁),24.996371,121.460007
華德公園,板橋區,華德里,四川路二段245巷125號(信義國小對面),24.992597,121.453275
南雅公園,板橋區,華興里,南雅南路2段1之1號（光華商職對面）,25.004043,121.454768
廣福公園,板橋區,廣福里,廣權路五權公園旁(干誠路底),24.991446,121.462699
五權公園,板橋區,五權里,廣權路130號,24.992843,121.46525
重慶公園,板橋區,重慶里,重慶路擎天雙星旁,25.000192,121.463593
信義公園,板橋區,信義里,信義路150巷43-1號,24.991942,121.457472
崑崙公園,板橋區,崑崙里,大觀路三段240號,24.992834,121.429121
溪北公園,板橋區,堂春里,篤行路二段133號(沙崙國小對面),24.989418,121.431195
溪洲公園,板橋區,溪洲里,溪崑二街113號,24.988203,121.426243
華東公園,板橋區,華東里,華東路(華東停車場及湳仔溝旁),24.996224,121.448738
音樂公園,板橋區,"龍翠里,福翠里",大同街70號,25.027519,121.4805
公兒二公園,板橋區,福丘里,民權路和中山路交叉口,25.011375,121.4630698
台北紙廠簡易公園,板橋區,復興里,大觀路二段28號,25.002495,121.445972
光復簡易公園,板橋區,光復里,光環路1段7號光復國中右側,25.01805,121.483604
福德公園,板橋區,深丘里,區運路與新站路口,25.011565,121468056
六海園,板橋區,聯翠里,文化路與民生路口,25.02379,121.468071
親民公園,板橋區,中山里,大觀路二段265巷3弄53號,24.999258,121.444735
華陽公園,板橋區,華東里,南雅南路2段4巷、34巷與華東路交界點,24.996594,121.448881
大觀公園,板橋區,大觀里,僑中二街12巷旁,25.010686,121.446794
埔墘公園,板橋區,長壽里,光復路一段9號光復國中斜對面,25.015759,121.481537
大豐公園,板橋區,崑崙里,溪崑國中後面,24.999546,121.432531
浮洲運動公園,板橋區,華中里,僑中一街124巷與80巷交會處,25.01487,121.448812
萬坪公園,板橋區,新民里,文化路與民權路交叉口,25.013129,121.461153
溪頭公園,板橋區,溪頭里,溪頭街與華江一路間,25.033014,121.46731
稚匯公園,板橋區,溪頭里,華江一路與華江五路交叉口,25.035436,121.47282
時光公園,板橋區,柏翠里,華江橋旁（往板橋方向臨環河西路）,25.036651,121.479499
華江123木頭園,板橋區,柏翠里,華江一路與華江二路交叉口,25.035987,121.475339
懷石公園,板橋區,懷翠里,環河西路四段699巷與田單北街交叉口,25.031003,121.481236
望月公園,板橋區,宏翠里,新海路與溪頭街交叉口,25.029511,121.457609
藝香公園,板橋區,中正里,板城路與藝文二街及香社一路口,25.021973,121.450535
雙社公園,板橋區,香社里,板城路與香社一路及香社二路口,25.020355,121.44984
文丘公園,板橋區,中正里,環河西路與藝文一街口,25.023451,121.449947
公九公園(浮洲都市計畫區),板橋區,華東里,華東路(遠揚加州社區對面),24.997735,121.451095
馥華公園,板橋區,僑中里,僑中二街118號前,25.006452,121.445402
仁化綠地,板橋區,文翠里,文化路2段,25.03164,121.474093
幸福綠地,板橋區,幸福里,幸福路70巷底,25.020658,121.460496
府中綠地,板橋區,流芳里,東門街2巷36號旁,25.007582,121.457747
海山綠地,板橋區,九如里,民享街116巷3號旁,25.015618,121.478185
湳仔綠地,板橋區,湳興里,湳子一橋旁,25.009379,121.449903
光仁綠地,板橋區,雙玉里,中山路309巷底,25.021016,121.476938
板城綠地,板橋區,湳興里,板城路大觀橋旁,25.009288,121.451104
滿平綠地,板橋區,溪洲里,板林路與滿平二街口,24.98626,121.42511
民族綠地,板橋區,福丘里,民族路(加油站對面),25.0087,121.465665
綠二綠地,板橋區,中正里,中正路與新海橋交叉口左側26公尺,25.029044,121.45661
綠三綠地,板橋區,中正里,中正路與新海橋入口處左側１８公尺,25.028652,121.456238
綠四綠地,板橋區,中正里,中正路與新月一街交叉口左前方41公尺,25.025662,121.454002
國泰綠地,板橋區,福祿里,國泰街75巷45號前,25.004799,121.46823
海山國小旁綠地,板橋區,民族里,民族路151巷旁,25.008554,121.469207
雙十人行廣場,板橋區,忠翠里,文化路二段182巷7弄 ,25.028904,121.473452
遠東通訊園區,板橋區,鄉雲里,220新北市板橋區遠東路1號,24.99900114,121.4568503
湳仔溝綠地,板橋區,香雅里,湳仔溝,25.016384,121.4497
市定古蹟「台北放送局板橋放送所」,板橋區,國泰里,新北市板橋區民族路130巷67號,25.0074,121.464716
湳仔溝大排,板橋區,浮洲里、中山里、南興里,板城路至環河路,25.007737,121.451382
林本源園邸(花園),板橋區,流芳里,新北市板橋區西門街9號,25.01215,121.454727
板橋第二運動場區三角公園,板橋區,社後里,板橋區民權路117號,25.014767,121.458041
板橋第二運動場區社後公園,板橋區,社後里,板橋區民權路117號,25.014728,121.458073
板橋第二運動場區板信公園,板橋區,社後里,板橋區民權路117號,25.013712,121.458697
尋夢園地,板橋區,漢生里,文化路及漢生東路交叉口,25.01726,121.464398
富貴綠地,板橋區,富貴里,長壽街與光環路口,25.017853,121.482331
江子翠河口景觀河濱公園,板橋區,null,河川區域,25.03714408,121.4710516
江翠礫間水岸公園(蝴蝶公園),板橋區,江翠里,河川區域,25.025667,121.485167
綠光河岸公園,板橋區,網溪里,河川區域,25.01112,121.30583
西盛河濱公園,板橋區,瓊林里,河川區域,25.023639,121.443889
華江自行車教育園區(板橋華江寵物公園),板橋區,華江里,河川區域,25.035694,121.482083
浮洲藝術河濱公園,板橋區,福州里,河川區域,24.996639,121.438556
板橋環保公園,板橋區,浮洲里,河川區域,24.990333,121.438861
浮洲人工濕地,板橋區,浮洲里,河川區域,25,121.438611
新海三期人工濕地,板橋區,中正里,河川區域,25.024056,121.4485
新海二期人工濕地,板橋區,中正里,河川區域,25.029833,121.454194
新海一期人工濕地,板橋區,中正里,河川區域,25.029722,121.454694
華江人工濕地,板橋區,江翠里,河川區域,25.038944,121.475722
聲寶東南側廣場,板橋區,長安里,中山路1段206巷,25.01378,121.47114
崑崙活力廣場,板橋區,崑崙里,沙崙街9號,24.99378,121.43287
站前廣場,板橋區,新民里,文化路與新府路交叉口,25.014951,121.462825
光復賞鳥河濱公園,板橋區,光復里,河川區域,25.023444,121.4875
新北綠家園(埔墘段41-1地號等),板橋區,富貴里,新北市板橋區三民路二段29巷31弄15號南側,25.017705,121.48172
板橋動物之家寵物廣場,板橋區,null,新北市板橋區板城路28-1號,24.995439,121.448383
柏壽公園,板橋區,留侯里,新北市板橋區西門街69號(接雲寺前),25.008751,121.453772
板橋435藝文特區,板橋區,中正里,新北市板橋區中正路435號,25.0232493,121.4519263
埤墘公園,板橋區,埤墘里,板橋區萬板路82巷旁,25.023224,121.473763
馥華園美捐贈公園,板橋區,浮洲里,大觀路1段38巷口,25.0062,121.44472
環河公園旁綠地,板橋區,香雅里,板橋區南雅西路2段301巷41弄內,25.017328,121.450906
雙玉綠地,板橋區,雙玉里,新北市板橋區中山路二段309巷,25.01939,121.478405
玉光綠地,板橋區,玉光里,新北市板橋區縣民大道三段42號東北側,25.019049,121.472087
成都街60號旁廣場,板橋區,福德里,成都街60號旁,25.00538,121.46318
中山段919-1地號綠地,板橋區,民族里,板橋區民族路247巷7弄口,25.0087,121.47054
民族段915-2號綠地,板橋區,國泰里,新北市板橋區實踐路93巷43弄13號,25.00595682,121.466061
大華街182巷5號對面公園,板橋區,鄉雲里,大華街182巷5號對面,25.004338,121.4604218
溪崑國中旁綠地,板橋區,崑崙里,新北市板橋區莊崑路後段,24.99849519,121.4326531
埔墘綠地,板橋區,長壽里,本市板橋區三民路二段95巷31號旁,25.01649136,121.4812047
文化路2段182巷1弄南側人行廣場,板橋區,忠翠里,文化路2段182巷1弄南側,25.02890116,121.4720676
浮洲橋寵物公園,板橋區,浮洲里,板橋大漢溪右岸浮洲橋旁,24.993225,121.439622
浮洲高鐵橋下廊道廣場,板橋區,僑中里、歡園里,新北市板橋區大觀路一段38巷與大觀路二段174巷交叉口,25.004446,121.44239
國光段145及707地號綠地,板橋區,中正里,新北市板橋區中正路379巷17號對面,121.452947,25.022212
重慶路及縣民大道行人徒步區,板橋區,鄉雲里、福丘里,新北市板橋區縣民大道一段與重慶路交叉口,25.008713,121.459742
板橋大庭2585,板橋區,公館里,新北市板橋區漢生西路89巷5弄12號旁,121.461003,25.019382
府中廣場,板橋區,挹秀里,府中路、府後街及文化路交接處,25.00925574,121.4587845
民族公園,板橋區,深丘里,板橋區館前東路156巷前,25.00796198,121.4644471
浮洲遊戲場,板橋區,聚安里,234新北市永和區,25.01980305,121.5171361
浮州河濱運動公園,板橋區,null,220新北市板橋區僑中一街80巷,25.01546473,121.4488572
大漢橋下廣場,板橋區,宏翠里、溪頭里,民生路三段大漢橋下(橋墩編號P27-P29),25.03149287,121.4635981
江子翠抽水站綠地,板橋區,振義里,新北市板橋區萬安街92號旁,25.02400536,121.4839941
慈愛公園,三重區,慈愛里,仁美街108巷13號,25.080998,121.484948
五華公園,三重區,五華里,仁義街228巷12號,25.084047,121.494058
慈祐公園,三重區,慈祐里,仁愛街425巷9-1號,25.081623,121.491247
永盛公園,三重區,永盛里,車路頭街133號,25.076035,121.484715
永福公園,三重區,永福里,力行路二段162巷55號,25.076698,121.481438
慈化公園,三重區,慈化里,溪尾街327號,25.084554,121.488551
五常公園,三重區,五常里,五華街7巷30號,25.08079,121.496026
永豐公園,三重區,永豐里,永福街197巷6-1號,25.074408,121.478752
慈生公園,三重區,慈生里,三和路四段191巷78號,25.080132,121.48507
碧華公園,三重區,碧華里,溪尾街303號(東區圖書館)對面,25.083716,121.487499
廣一,三重區,溪美里,自強路四段84號,25.079653,121.490149
廣二,三重區,溪美里,自強路四段55號,25.078876,121.490998
親水公園,三重區,富貴里,吉祥街、富貴街交叉口,25.09074,121.49022
大山公園,三重區,富貴里,三賢街61號對面,25.088472,121.489121
太陽公園,三重區,碧華里,集英街和三賢路交叉口,25.08632,121.485744
自然公園(公3),三重區,富貴里,五華街、集賢路交叉口,25.089402,121.486787
進安公園,三重區,富貴里,仁義街底(五華國小旁),25.086583,121.493831
集賢環保公園,三重區,富貴里,集賢環保公園,25.090355,121.487288
仁義公園(公1、公2),三重區,五常里,仁義街26巷、37巷(高速公路旁),25.077258,121.498252
元信公園,三重區,五常里,元信一街,25.078296,121.496933
長青綠廊,三重區,五常里,仁義街,25.080081,121.497818
仁義廣場,三重區,五常里,元信3街,25.080694,121.49742
力行廣場,三重區,永福里,永福街10巷,25.076796,121.481234
永德公園,三重區,永德里,後竹圍街117巷6號,25.072788,121.488096
小永德公園,三重區,培德里,新北市三重區大智街159號對面綠地,25.07229,121.489674
厚德公園,三重區,厚德里,三和路三段一段170巷49號,25.072859,121.491086
大和平公園,三重區,立德里,忠孝路二段32號,25.070783,121.486425
小和平公園,三重區,培德里,忠孝路二段35號,25.071365,121.485743
後竹圍公園,三重區,永德里,自強路三段42巷11號,25.072721,121.485983
六合公園,三重區,六合里,自強路二段50巷22號,25.069235,121.487913
六張公園,三重區,福安里,六張街66號,25.069739,121.493608
三張公園,三重區,六合里,大智街188號,25.07041,121.490172
正義公園,三重區,雙園里,雙園街1號,25.068535,121.497476
三德公園,三重區,順德里,龍門路274巷36號,25.075355,121.500778
龍濱公園,三重區,龍濱里,秀江街28號,25.072981,121.50237
龍門公園,三重區,崇德里,仁孝街62號,25.074455,121.497931
介壽公園,三重區,尚德里,三和路三段99號〈高速公路匝道〉,25.072475,121.494229
大同公園,三重區,民生里,三重區大同北路186號,25.0663418,121.490773
信義公園,三重區,錦通里,文化北路、信義西街交叉口,25.0647565,121.498581
中山藝術,三重區,中山里,新北大道、重新路交叉口,25.0607692,121.4884178
大智公園,三重區,中山里,大同北路95號對面,25.063267,121.494516
開元公園,三重區,開元里,開元街1號,25.066096,121.503998
三民公園,三重區,田中里,忠孝路三段40巷51號,25.065531,121.483024
福田公園,三重區,福田里,三民街256號,25.067437,121.479627
聯邦公園,三重區,田心里,中華路125號,25.06403,121.483702
過圳公園,三重區,過田里,過圳街19號〈公所後面〉,25.060179,121.488221
興華公園,三重區,光田里,中華路5號,25.0602617,121.4844145
重陽公園,三重區,重明里,重陽路一段60巷101號,25.0577875,121.4834988
重新公園,三重區,福德里,重新路4段254-1號重新橋下,25.053113,121.48545
忠孝公園,三重區,二重里,忠孝路3段127巷口,25.063215,121.479579
同仁公園,三重區,二重里,大有街1-5號同仁宮對面,25.0659553,121.4757462
二重公園,三重區,二重里,頂崁街210巷28弄,25.066567,121.475178
大有公園,三重區,大有里,疏洪東路榖保家商後側,25.068237,121.470644
新北綠家園(永德段914),三重區,永發里,中正北路315巷6弄68號旁,25.072825,121.475959
德厚公園,三重區,德厚里,重新路5段283號對面,25.0491386,121.4787985
神農公園,三重區,五谷里,五谷王北街先嗇宮旁,25.0528054,121.4729882
谷王公園,三重區,谷王里,五谷王北街146號後側,25.0533406,121.47631
頂崁公園,三重區,谷王里,興德路旁,25.0548467,121.4741608
光復公園,三重區,中興里,光復路1段146號旁,25.0482308,121.4697643
群光公園,三重區,頂崁里,神農街頂文路交界,25.0566718,121.471776
同安公園,三重區,福利里,中央南路、福德南路交叉口,25.0594608,121.5016511
光興公園,三重區,光輝里,正義南路62號之1旁,25.0590567,121.498967
同安公園,三重區,同慶里,正義南路、同安東街交叉口,25.0574426,121.4989617
菜寮公園,三重區,菜寮里,中寮街57巷18號,25.0579178,121.492854
玫瑰公園,三重區,光明里,集美街112巷,25.054274,121.489917
港墘公園,三重區,清和里、福利里、光輝里、同慶里、,福德南路,25.0602429,121.5022492
機場捷運綠地,三重區, 成功里,環河南路環河南路222號附近,25.0567518,121.4939595
溪美大排公園,三重區,富貴里,集賢路與如意街交叉,25.089544,121.487639
三重環保公園,三重區,德厚里,河川區域,25.0435,121.474083
新北綠家園集智綠地(富貴段467),三重區,碧華里,五華街集智街,25.086836,121.487647
文小綠地,三重區,五常里,元富二街、元信二街,25.07899,121.496089
原住民主題園區,三重區,順德里,河川區域,25.061389,121.478056
疏洪追風公園,三重區,德順里,河川區域無住址,25.073986,121.460721
疏洪中央公園,三重區,五長里,河川區域,25.068028,121.464583
疏洪圳邊公園,三重區,五長里,河川區域無住址,25.089611,121.450556
鴨鴨遊戲場,三重區,null,河川區域,25.04942,121.49178
疏洪親水公園,三重區,五長里,河川區域,25.066639,121.468722
疏洪荷花公園,三重區,五長里,河川區域,25.065639,121.475861
幸福水漾公園,三重區,五長里,河川區域,25.060898,121.478613
二重疏洪運動公園,三重區,五長里,河川區域,25.049833,121.482333
樂遊天地,三重區,五常里,河川區域,25.061,121.476139
瀑布滑草場,三重區,重明里,河川區域,25.05992613,121.4798192
新北綠家園(中興段796-1),三重區,null,重新路5段609巷,25.04506712,121.4680063
二重公園,三重區,二重里,疏洪東路二段,25.066168,121.475333
中民段804-1,三重區,平和里,新北市三重區光興街128號,25.05956,121.494943
三重456、462,三重區,成功里,本市三重區環河南路及成功二街交口西側,121.487387,25.047944
三重寵物公園,三重區,龍濱里,三重區淡水河畔龍門陸橋旁,25.072287,121.5044
洛陽公園,三重區,田心里,241新北市三重區洛陽街49巷,25.063078,121.481398
三重仁興1038-1,三重區,溪美里,新北市三重區溪尾街27巷南側,121.493651,25.076087
三重大同南1026,三重區,忠孝里,新北市三重區大同南路78巷23號旁,121.497139,25.059565
神農百草公園,三重區,五谷里,三重區五谷王北街77號(先嗇宮)對面,25.050425,121.475524
永德900,三重區,永豐里,新北市三重區力行路二段76巷21號,121.480793,25.073636
熊猴森樂園,三重區,null,河川區域,25.05668617,121.4815627
鴨鴨公園,三重區,null,河川區域,25.04894237,121.4908327
婚紗廣場,三重區,null,河川區域,25.05482848,121.4783506
溪美河濱公園,三重區,null,河川區域,25.09191,121.49205
清穗公園,中和區,清穗里、自強里,新北市中和區華順街二巷內民德停車場後方及民德路、華順街口,24.999364,121.467054
華福公園,中和區,明德里、壽德里,新北市中和區華順街105號對面,24.997055,121.465119
明德公園,中和區,明德里,新北市中和區民德路208號對面及274號對面(二區),24.996469,121.467941
安邦公園,中和區,連城里,新北市中和區連勝街與安邦街口,24.996873,121.496226
自強公園,中和區,自強里,新北市中和區莒光路、國光街口,25.000136,121.471437
員山公園(第二期),中和區,積穗里、嘉新里,新北市中和區員山路455巷內,25.004151,121.480102
嘉穗公園,中和區,嘉穗里,新北市中和區民利街9巷內,24.998718,121.480655
景新公園,中和區,景南里,中和區景新街467巷50弄三介廟旁,24.988393,121.515704
中興公園,中和區,中興里,中和區中興街263巷74號對面,24.988171,121.500614
復興公園,中和區,復興里,新北市中和區復興路280巷內,24.991559,121.502329
秀山公園,中和區,秀福里,新北市中和區自立路15巷內,24.995828,121.52354
中和公園(823公園),中和區,安樂里、安平里,中安街、永貞路、安樂路及安平路間,25.001988,121.51389
廟美綠林小徑,中和區,福和里,新北市中和區中山路2段181巷旁、廣福街112巷間,25.001413,121.50208
金山板南公園,中和區,復興里,新北市中和區板南路(南山路及中興街間),24.992605,121.501567
泰隆公園,中和區,中原里,新北市中和區橋和路、福祥路口,25.00794,121.498129
民樂人行廣場,中和區,安穗里,新北市中和區民樂路17號中和郵局後方,25.001723,121.482565
華新人行廣場,中和區,正南里,新北市中和區興南路2段79巷內,24.984521,121.506828
民享藝文特區,中和區,民有里,新北市中和區自治街、民治街間,25.003568,121.475932
元隆公園,中和區,中原里,新北市中和區立言街與板南路口附近,25.007379,121.484941
壽德公園,中和區,壽德里,新北市民德路與壽德街口(二區),24.994101,121.466701
福美公園,中和區,佳和里,新北市中和區莊敬街49巷20弄,25.0060839,121.5015682
瓦s溝沿線綠帶,中和區,漳和、佳和、瓦h、泰安、枋寮里,新北市中和區勝利路至水源路127巷間水利地(南工路32巷底),25.005779,121.505664
廟仔尾溝加蓋綠帶,中和區,福祥里、佳和里,新北市中和區中山路二段174巷至莊敬橋間綠帶,25.003128,121.50111
南山溝加蓋綠帶,中和區,福南里,新北市中和區南山路到興南路二段74巷間綠帶,24.984638,121.505276
圓通綠廊,中和區,力行里,新北市中和區連勝街至中正路間綠帶 ,24.99475,121.49719
中和大排旁簡易公園,中和區,福真里,新北市中和區中山路二段322巷內,25.003632,121.49449
中坑公園,中和區,灰h里,新北市中和區員山路及圓通路交接路口,24.98527,121.483868
興南路二段261巷口綠帶,中和區,內南里,新北市中和區興南路二段261巷口,24.981472,121.502556
華中橋四面邊坡綠帶,中和區,福真里、福善里、中原里,新北市中和區華中橋下,25.006352,121.495292
板南抽水站旁綠帶,中和區,德行里、中興里,新北市中和區板南路中正路口,24.993075,121.499209
花曆公園,中和區,中原里,新北市中和區中原街旁 ,25.011585,121.484965
樟樹公園,中和區,中原里,新北市中和區環河西路三段近永福宮 ,25.007271,121.494258
光之公園,中和區,中原里,新北市中和區中原東街與中原五街之間 ,25.011896,121.487066
風之公園,中和區,中原里,新北市中和區中原街與中原五街之間 ,25.010167,121.488233
綠之公園,中和區,中原里,新北市中和區中原東街與中原六街之間 ,25.012929,121.48588
水之公園,中和區,中原里,新北市中和區中原街與中原西街 ,25.013136,121.484264
員勝公園,中和區,員富里,新北市中和區中正路二段與員山路交叉口,25.01064,121.478712
碧河公園,中和區,碧河里,新北市中和區健康路與建八路口及連城路174巷,24.998013,121.492509
民有公園,中和區,員富里、民有里,新北市中和區中山路三段環球購物中心後方,25.008452,121.474344
山北公園,中和區,福美里,新北市中和區莊敬街49巷29弄及33巷36弄之間,25.006335,121.501581
錦和運動公園,中和區,錦中里,新北市中和區錦和路350號,24.993299,121.488309
立人街26號前綠化點,中和區,秀水里、秀明里,中和區立人街26號,24.994021,121.518043
民生里新北綠家園,中和區,民生里,中和區民生街93號旁,25.004569,121.468379
南山820-4,中和區,景文里,中和區景安路132巷與明義街11巷口,24.994434,121.503704
德穗綠家園(莒光44),中和區,德穗里,中和區莒光路78號後面,25.002937,121.471833
福祥公園,中和區,福祥里,福祥路90巷與莊敬路31巷至莊敬路交叉口,25.005791,121.500005
員山公園(第一期),中和區,積穗里、嘉新里,新北市警察局中和第二交通分隊旁,25.002227,121.477899
華中河濱公園(恐龍公園),中和區,華中里,河川區域,25.009306,121.494944
秀峰公園,中和區,秀峰里,新北市中和區景德街5號,24.991097,121.51896
佳和公園,中和區,佳和里,新北市中和區中山路二段64巷7弄,25.004679,121.502684
嘉新公園,中和區,嘉新里,中和區民安街178號,24.999956,121.4777058
中和動物之家寵物廣場,中和區,null,新北市中和區興南路三段100號,24.976299,121.488565
中和烘爐地9,中和區,華新里,新北市中和區華新街143巷106弄底,121.506622,24.978335
仁愛公園,永和區,中溪里，保順里,仁愛路、永平路、保安路、保生路間,25.0113818,121.5036243
保福社區公園,永和區,保福里,保福路三段2號之1,25.015634,121.508566
中正橋頭小公園,永和區,網溪里,中正橋頭,25.016573,121.516273
竹林路91巷公園,永和區,上林里,竹林路91巷,25.01263,121.521097
公一公園,永和區,保順里,保生路55號旁,25.011631,121.504641
民族社區公園,永和區,民族里,民有街25巷,24.996578,121.517531
雙和里社區公園,永和區,雙和里,雙和街37巷與中和街305巷交叉口,25.002031,121.508649
正興公園,永和區,正興里,中興街10巷31號旁,25.011039,121.516736
永興公園,永和區,永興里,豫溪街57巷10弄11號右側（美聯社對面）,25.010855,121.517683
保生綠帶,永和區,新生里,新生路218 號附近(永和幼兒園保生分班前),25.012941,121.505203
秀朗廣場,永和區,店街里,中正路465巷,25.005882,121.51637
三角公園,永和區,秀和里,永元、永利、林森路,25.00287,121.522493
宜安綠帶,永和區,智光里,中正路、安樂路與中和區宜安路交叉路處,24.993523,121.512247
民治街早市公園,永和區,民治里,民治街60號對面(民治市場瓦窯溝旁),24.997982,121.517978
民享街黃昏市場公園,永和區,智光里,民享街23巷,24.995222,121.516204
國防帳務中心廣場,永和區,安和里,水源街41號,25.004034,121.510011
文化段226地號,永和區,河堤里,永和路二段425巷60號,25.017509,121.513701
文化段654-2地號,永和區,頂溪里,忠孝市民活動中心停車場入口對面(林得福立委服務處旁),25.016533,121.515339
民權段634-1地號,永和區,民族里,民族街178巷口,24.997143,121.517964
陽春公園,永和區,雙和里,中和路305巷與389巷交叉口,25.000881,121.506987
百獅公園,永和區,民族里,民有街92巷與25巷交叉口,24.996046,121.517231
民族街43巷公園,永和區,民族里,民族街27~43巷,24.99956,121.519856
大新社區公園,永和區,大新里,自強街6巷~8巷,25.007904,121.514525
中興社區公園,永和區,永興里,中興街68巷,25.011702,121.517529
水源社區公園,永和區,水源里,保平路177巷,25.005021,121.509756
民治社區公園,永和區,民治里,智光街22巷,24.9992252,121.5181237
復興里社區公園,永和區,復興里,永和路2段286巷,25.015538,121.516794
信義路17巷9弄綠帶,永和區,信義里,信義路17巷9弄8號,25.0113619,121.513864
永和國小旁綠美化據點,永和區,潭安里,中正路281號旁,25.001077,121.517474
光復街警察宿舍綠地,永和區,網溪里,光復街60巷32號旁,25.016931,121.51818
安樂段316地號,永和區,潭墘里,安樂路198巷2弄,25.001678,121.515934
永和營管中心,永和區,保順里,保順路8號,25.01155,121.503455
綠寶石河濱公園,永和區,網溪里,河川區域,25.0155,121.504944
福和運動公園(永福橋兒童遊戲場),永和區,福和里,河川區域,25.007528,121.527222
秀朗追風廣場,永和區,立德里,河川區域,24.993889,121.529667
竹林路39巷公園,永和區,上林里,竹林路39巷2號,25.014274,121.518051
新北綠家園(大新段631地號),永和區,大新里,自強街36巷2號,25.007622,121.516433
新北綠家園(永寧街135巷綠地,永和區,福和里,永寧街135巷2號,25.004599,121.518191
保生段764地號,永和區,保順里,仁愛路352巷,25.007987,121.500836
新北綠家園(得和段484地號,永和區,得和里,秀朗路一段196巷16弄12號,25.0103251,121.5145353
民治段242-2地號,永和區,民治里,民有街23巷,24.9971565,121.5174871
國光段456地號,永和區,豫溪里,國光路97號旁,25.009606,121.518086
新北綠家園(安樂段678、679、680地號),永和區,潭墘里,安樂路154巷1弄6號旁,25.000523,121.514684
新北綠家園(文化段940地號),永和區,頂溪里,文化路16巷5弄旁,25.015434,121.514671
永福段11、15、16、17、19-1及20-1地號,永和區,桂林里,竹林路91巷64號,25.013928,121.521698
綠光河岸公園,永和區,網溪里,正橋至永福橋下高灘地,25.019641,121.517136
福和段1406.1407.1407-1.1410.1411.1416地號,永和區,福和里,福和路245巷,25.00706,121.51816
保平路292巷(桂花巷),永和區,保平里,保平路292巷,25.00508,121.50768
國光段682、683、684、685地號,永和區,光明里,中正路654巷21號,25.00508,121.50768
永平段181地號,永和區,中溪里,永平路238巷12號旁,5.00508,121.50768
保福段1457-1地號,永和區,中溪里,仁愛路236號旁,25.01179,121.50832
大新段366地號(豫溪里香草園圃),永和區,豫溪里,永和區中正路609巷28號旁,25.008744,121.515884
國光段900、901、902、903地號,永和區,光明里,大新街71巷3號旁,25.00833859,121.5175302
大新段234地號,永和區,豫溪里,豫溪街52巷25號,25.008901,121.515759
仁愛段370地號,永和區,上溪里,仁愛路52巷1號前,25.013577,121.513818
水源段717-1地號,永和區,水源里,永貞路287巷2弄14號前,25.005596,121.510447
中正橋派出所旁小公園,永和區,頂溪里,永和路2段303號旁,25.0164408,121.5158996
西盛公園,新莊區,光正里,龍安路與西盛街口,25.017305,121.42748
四維公園,新莊區,南港里,四維路186巷旁,25.02142,121.421933
龍鳳公園,新莊區,龍鳳里/裕民里,龍安路丹鳳國中對面,25.021637,121.416719
萬安公園,新莊區,龍安里,龍安路龍安橋頭,25.019425,121.419817
後港公園,新莊區,後港里,建安街26巷4號旁,25.025791,121.428723
新泰公園,新莊區,忠孝里,公園一路112號旁,25.037514,121.445235
富國公園,新莊區,富國里,富國路與福營路口,25.026273,121.420495
龍福公園,新莊區,龍福里,中正路929巷23號對面,25.019998,121.411091
福營公園,新莊區,福營里,福營路29號旁,25.03254,121.437396
雙福公園,新莊區,福營里,後港一路(後港抽水站旁),25.027809,121.43019
瓊泰公園,新莊區,瓊林里,瓊泰路瓊泰橋旁,25.0294557,121.443009
後港新公園,新莊區,後德里,後港一路與民安路口,25.026004,121.424369
福營休閒廣場,新莊區,四維里/八德里,四維路福營行政中心旁,25.023945,121.424415
新樹公園,新莊區,西盛里,新樹路647號對面,25.003429,121.433004
福營綠廊,新莊區,福營里,中正路輔仁大學對面,25.032414,121.434001
水源地,新莊區,丹鳳里,新莊區壽山路115號斜對面,25.04068,121.399
青年公園,新莊區,丹鳳里,新莊區壽山路61號對面,25.032726,121.410387
長青公園,新莊區,思賢里,博愛路與長青街口,25.042493,121.456435
中港三角公園,新莊區,中和里,中華路與復興路口,25.043996,121.452951
新泰三角公園,新莊區,立功里,新泰路與中平路口,25.042687,121.444588
黃城公園,新莊區,中信里,中榮街與中信街口,25.05255,121.448539
興化公園,新莊區,福興里,五工二路興化國小旁,25.064817,121.460955
福壽公園,新莊區,信義里,福壽街昌明街路口,25.052028,121.457296
思賢公園,新莊區,仁愛里,自由街自信街路口,25.047252,121.456253
中平公園,新莊區,立基里,中平路文藝中心後方及新泰游泳池側邊,25.047207,121.44297
新莊公園,新莊區,立人里,中正路84號對面,25.037483,121.457254
榮和公園,新莊區,榮和里,環漢路新海橋下,25.033998,121.454166
碧江公園,新莊區,泰豐里,新泰路瓊林路口,25.032216,121.449862
興漢公園,新莊區,興漢里,碧江街82號慈惠堂前,25.032876,121.45143
建安公園,新莊區,建安里,後港一路130巷底,25.025358,121.430352
後德公園,新莊區,後德里,後港一路49巷底,25.02752,121.42479
昌平公園,新莊區,昌平里,新莊區富貴路、福壽街口,25.058054,121.45825
建福公園,新莊區,建福里,建福路49巷底,25.027841,121.426904
生命紀念公園,新莊區,丹鳳里,壽山路162之1號,292042,2769239
瓊泰河濱公園,新莊區,瓊林里,瓊泰路94巷17號旁,25.029741,121.443974
中港厝休閒廣場,新莊區,中華里,中港路352號旁,25.02476,121.27071
頭前運動公園,新莊區,頭前里,新莊區頭前路、頭成街口,25.05149,121.462399
福基公園,新莊區,福基里,新莊區福美街、福德三街口,25.058557,121.460874
福美公園,新莊區,頭前里,新莊區福美街、福德一街口,25.055379,121.461154
新泰綠地,新莊區,立泰里,中環路與新泰路口,25.045309,121.442583
化成公園,新莊區,化成里,新莊區頭成街/思源路128巷,25.047569,121.461568
西盛廣場（原名:大豐自辦市地重劃區廣場),新莊區,西盛里,新莊區樹新路277巷中華郵政對面,25.000706,121.431731
瓊林公園,新莊區,瓊林里,瓊林路104巷頭，台65橋下,25.027073,121.442379
快樂公園,新莊區,豐年里,瓊泰路103號對面,25.030217,121.444008
中港公園,新莊區,立基里,中平路82巷22號對面,25.044986,121.445574
雙鳳公園,新莊區,雙鳳里,雙鳳街56號旁,25.027236,121.413757
昌平綠地,新莊區,昌平里,新莊區中華路二段272號對面,25.053238,121.45315
環河三角綠地,新莊區,泰豐里,新莊區瓊林路與環河路口,25.028999,121.445794
愛鳥公園,新莊區,中隆里,新莊區新北大道五工六路口,25.061441,121.451231
福智1號廣場,新莊區,中隆里,五工六路、福慧路口東北,25.061489,121.451213
福智公園,新莊區,中隆里,新北大道三段、五工六路口東北,25.06117,121.452204
福慧都會公園,新莊區,福基里,新知三路、新知六路、新知八路、福慧路間,25.061676,121.456001
福聚公園,新莊區,福基里,新知一路、新知二路口東北,25.062686,121.462656
福祿1號公園,新莊區,福基里,新知一路、福慧路口東南,25.06335,121.464082
福祿2號公園,新莊區,福基里,新知一路、福慧路口西北,25.064047,121.463285
福祿3號公園,新莊區,福基里,化成路、福慧路口西北,25.06425,121.464395
福祿4號公園,新莊區,福基里,化成路、福慧路口東北,25.064221,121.465264
福祿5號公園,新莊區,福基里,化成路、福慧路口東南,25.063262,121.465171
福智2號廣場,新莊區,福基里,新知三路、新知八路西北側,25.061275,121.454099
福智3號廣場,新莊區,福基里,新知六路，新知三路口,25.060841,121.45749
五工1號廣場,新莊區,福基里,福慧路、五工路口北側,25.062816,121.459193
五工2號廣場,新莊區,福基里,福慧路、五工路口,25.062454,121.459634
建安里香草花園,新莊區,建安里,後港一路139-1號對面,25.027416,121.430191
丹鳳685、686新北綠家園,新莊區,雙鳳里,新北大道七段552巷底,25.028189,121.411581
丹鳳687-4新北綠家園,新莊區,雙鳳里,青山路一段48巷底,25.028317,121.410052
塭仔底濕地公園,新莊區,昌平里,新莊區中華路二段與富貴路交叉口,25.056856,121.453338
中港大排,新莊區,中華里、自強里、幸福里、昌平里、,新莊區中華路二段、三段,25.046557,121.453802
新莊體育園區,新莊區,立德里,新北市新莊區和興街66號,25.041752,121.450469
樂生療養院後方,新莊區,雙鳳里,新北市新莊區中正路794號南側,25.021,121.408572
樂生療養院愛樂園,新莊區,雙鳳里,新北市新莊區中正路794號南側,25.021,121.408572
文德社區公園(含新北綠家園),新莊區,文德里,思明街與環漢路交叉口,25.035037,121.45577
中原段68地號新北綠家園,新莊區,福基里,福美街128巷內,25.03297,121.27445
文德段519-1、532、533、534地號-新北綠家園,新莊區,榮和里,新北市新莊區新莊路214巷1號,25.035158,121.453075
中原段330地號代管綠地,新莊區,化成里,思源路128巷內,25.048462,121.461442
忠孝公園,新莊區,忠孝里,中正路342號旁,25.034693,121.444672
丹鳳687-3,新莊區,雙鳳里,新北市新莊區青山路1段48巷西側,121.408958,25.028304
福營新公園,新莊區,福營里,242新北市新莊區福營路282號後方,25.02806375,121.4234044
新莊區台65橋下兒童遊戲場,新莊區,null,河川區域,25.02315096,121.4425892
新莊寵物公園,新莊區,null,河川區域,25.02710439,121.4458909
中興公園,新店區,寶興里,中興路三段126號巷內,24.981296,121.545986
五峰公園,新店區,五峰里,中正路惠國市場對面,24.970286,121.543456
安康森林公園,新店區,德安里,新店區安康路二段151號旁斜坡上去,24.958307,121.51093
安康森林公園2,新店區,公崙里,新店區安康路二段147號旁公車站牌後方,24.959933,121.511987
安華公園,新店區,百忍里,中正路307巷口,24.973479,121.535493
馬公公園,新店區,五峰里,北新路一段92號,24.973256,121.532721
太平運動公園,新店區,太平里,精忠路101-1號旁邊,24.970286,121.543456
原野公園,新店區,張北里,德正街19巷內(北新國小)後,24.972439,121.544521
北新藝術廣場,新店區,新德里,北新路一段351號旁,24.970165,121.542094
青潭河濱公園,新店區,青潭里,北宜路二段64號邊，新烏路一路9-1號邊,25.01229,121.46557
安和景觀公園,新店區,安和里,新店區安民街248巷旁巷子,24.972752,121.518359
?公公園,新店區,新德里,中華路54及60巷間,24.970621,121.542285
天山公園,新店區,新和里,新店區永安街34號對面,24.987108,121.517267
大豐公園,新店區,大豐里,民族路大豐國小旁,24.977507,121.537582
交通公園,新店區,國豐里,民族路105號(大豐國小對面),24.976396,121.538768
小金門公園,新店區,明德里,民族路105號大豐國小對面,24.97702,121.538328
福民公園,新店區,福民里,福園街8之6號(圖書館旁),24.973256,121.532721
三民公園,新店區,中正里,三民路中正國小旁,24.971441,121.537765
中央八街底,新店區,中央里,中央八街底,24.979276,121.52461
裕隆公園(綠湖公園),新店區,寶興里,品牌路旁,24.979683,121.54641
十四張歷史公園,新店區,中山里,新店區斯馨二路與央北二路交叉口,24.978092,121.530041
中央鄰里公園,新店區,中央里,新店區央北一路南側綠帶,24.976917,121.530808
寶徠公園,新店區,寶興里,寶橋路85巷55號對面,24.977024,121.544651
安光公園,新店區,公崙里, 新北市新店區安光路75號,24.963844,121.513529
龜山河濱公園,新店區,龜山里,新烏路3段165巷,24.901099,121.552852
民權段323-1地號,新店區,大同里,新北市新店區大豐路16巷19號旁,24.980692,121.540191
寶元段497地號,新店區,寶安里,新店區民權東街,24.982887,121.543658
莊敬110,新店區,大鵬里,中正路694巷,24.990449,121.535019
建國716,新店區,建國里,中正路284巷,24.974689,121.538383
大鵬堤外公園,新店區,大鵬里,忠孝大鵬堤外便道旁,24.993011,121.534619
新店四十份公墓花樹葬區,新店區,雙坑里,新店區翠峰路102號,24.935414,121.580184
二叭子植物園園,新店區,雙城里,新店安坑雙城路內（安康路3段110號左轉雙城路）,24.938268,121.501983
陽光運動公園(新店陽光遊戲場),新店區,中山里,河川區域,24.976917,121.519944
秀朗親溪公園,新店區,秀朗里,河川區域,24.978889,121.530833
親情河濱公園,新店區,大鵬里,河川區域,24.965472,121.535472
新北綠家園(安德段32地號),新店區,安昌里,新北市新店區安德街148巷46號北側,24.960947,121.507663
新北綠家園(民安段870地號等),新店區,安昌里,新北市新店區安德街60巷26號西側,24.963344,121.511026
新店灣潭高灘園區,新店區,直潭里,河川區域無住址,24.56365,121.32285
新北綠家園(民安段624),新店區,公崙里,新北市新店區安民街3巷1號東北側,24.964513,121.51478
新店安康路二段康樂新村,新店區,德安里,新北市新店區安康路二段400-1號對面,24.955173,121.49699
碧潭風景區,新店區,新店里,碧潭風景區,24.955613,121.536611
央北重劃區公園(廣),新店區,中央里,新店區央北三路與斯馨二路交叉口小廣場,24.980495,121.529664
遊五公園,新店區,安和里,新北市新店區安民街269巷,24.97322,121.516353
新北綠家園新店區中華段1029地號基地,新店區,中華里,新店區三民路35巷,24.970312,121.537147
新北綠家園新店區竹林段1701地號基地,新店區,員潭里,新店區北宜路328巷西側,24.953716,121.561645
中央段979,新店區,中山里,新店區中央三街115號對面,24.976359,121.524522
安德段121,新店區,安昌里,新店區安德街60巷口,24.962011,121.510644
廣明323,新店區,廣明里,新北市新店區中興路一段32號旁,24.958495,121.538776
僑仁公園,新店區,小城里,新店區僑仁路跟僑信路交叉口,24.951368,121.499281
碧潭西岸公園,新店區,太平里,新北市新店區碧潭路14號附近,24.956653,121.534718
新店新和883,新店區,永平里,新北市新店區永平街83巷口,121.516327,24.985212
新店民權937-1,新店區,明德里,新北市新店區明德路64號旁,121.541604,24.979497
永平公園,新店區,永平里,新北市新店區永平路48號,121.51655,24.984316
新店文山865,新店區,文中里,新北市新店區北宜路一段109巷2號旁,121.540023,24.954816
新店廣明612,新店區,文中里,新北市新店區能仁街12號對面,121.540815,24.955516
新店安德345-1,新店區,安昌里,新北市新店區安德街71巷30號旁,121.511122,24.960787
廣明519文山735,新店區,文中里,新北市新店區北宜路一段105巷18號,121.540611,24.956157
灣潭兒童遊戲場,新店區,null,河川區域,24.95109688,121.5368319
寶僑412-1等,新店區,寶福里,新北市新店區寶興路41-1號對面,121.548865,24.97381
雲溪廣場,土城區,清溪里,青雲路183巷2號旁,24.982767,121.459908
延和廣場,土城區,延和里,延和路12巷旁,24.987321,121.464075
百喬廣場,土城區,永豐里、青山里,明德路一段70巷內,24.98062,121.464437
延壽親子廣場,土城區,延壽里,延壽路75巷27弄旁,24.99174,121.469349
希望之河,土城區,貨饒里,裕民路裕生路口,24.988468,121.448738
青山廣場,土城區,清水里,青雲、明德路交叉口,24.97816,121.459756
清水社區公園,土城區,永富里、永豐里,清水路延吉街交叉口,24.984443,121.462901
仁愛公園,土城區,清水里,仁愛路16號旁,24.980634,121.460401
永豐社區公園,土城區,永豐里,清水路278巷28弄內,24.98262,121.46246
立雲廣場,土城區,清溪里,清水路235巷,24.984241,121.460485
青雲廣場,土城區,青雲里,新北市土城區清水路141巷18號,24.982974,121.45907
大清水公園,土城區,廷寮里,清水高中對面,24.980924,121.466364
清和社區公園,土城區,清和里,明德路一段青山路口,24.977827,121.461298
延和社區公園,土城區,平和里、延祿里,延和路250巷(延和段49地號),24.990535,121.469085
青山公園,土城區,青山里,明德路一段195巷底,24.978284,121.464287
仁德公園,土城區,員信里,金城路一段127巷,24.974302,121.443957
金城公園,土城區,員信里,金城路一段127巷,24.973543,121.444394
裕民廣場,土城區,學府里,裕民路171巷4號,24.985202,121.453568
柑林廣場,土城區,柑林里,金城路二段242巷內,24.982564,121.457268
員林社區公園,土城區,員林里,員林街12巷對面,24.977959,121.443378
員和公園,土城區,員林里,中央路二段61巷旁,24.978189,121.444093
員福社區公園,土城區,員福里,員福街員福橋旁,24.980276,121.438652
員仁社區公園,土城區,員仁里,福仁街與慶利街交叉口,24.974126,121.439007
裕生廣場,土城區,裕生里、日新里,裕生路裕生停車場旁,24.984755,121.44605
學成社區公園,土城區,學成里,學成路91巷旁,24.98833,121.451032
明德公園,土城區,柑林里,靈恩寺旁,24.976498,121.456773
日和公園,土城區,日和里,中華路一段229號旁,24.98342,121.442019
沛陂公園,土城區,沛陂里,民族路22巷5號旁,24.963807,121.419763
頂新公園,土城區,頂新里,頂埔國小後方,24.953962,121.41445
頂福活動中心對面小公園,土城區,頂福里,中州路頂福活動中心對面,24.958077,121.414957
祖田兒童遊戲公園,土城區,祖田里,溪頭路81號旁,24.952249,121.410572
桐花公園,土城區,大安里,承天路153號旁9清濂茶館承天路149號旁),24.95751,121.444272
永寧廣場,土城區,永寧里,土城國中對面,24.962314,121.430406
原住民生態公園,土城區,永寧里,永寧路底,24.953632,121.429537
頂埔永福公園,土城區,頂埔里,頂埔祖師廟後方,24.957421,121.418217
承安公園,土城區,大安里,忠承路55號對面,24.965976,121.439073
線形公園(捷運機場),土城區,貨饒里,中央路一段與板橋市交界,24.992537,121.448921
海山捷運廣場,土城區,樂利、裕生、明德、日和,樂利街16號,24.983085,121.448335
永寧捷運廣場,土城區,大安里,中央路三段與承天路口,24.965992,121.435841
南區C公園(公兒18),土城區,明德里,斬龍二街與學士路口,24.98006,121.45011
南區E公園(公7),土城區,員林里,斬龍二街與學士路口,24.976766,121.447933
紫藤廊道(南區D公園)公兒16、綠6,土城區,明德里,學土路至學府路二段,24.979289,121.448742
紫藤廊道(南區D公園)公兒17,土城區,明德里,斬龍二街與學府路二段口,24.979774,121.448735
南區E公園(公兒22),土城區,員林里,斬龍二街與學府路二段口,24.97646,121.44747
南區E公園(綠三),土城區,員林里,金城路二段土城醫院對面,24.97573,121.4467
綠5,土城區,柑林里,清水路旁,24.97475,121.45762
南區B公園(公兒19),土城區,柑林里,青仁路與青隆街口,24.97911,121.45641
南區B公園(公9),土城區,青雲里,青仁路與青隆街口,24.97883,121.45608
南區B公園(公9),土城區,青雲里,青仁路與青隆街口,24.97833,121.45555
南區a公園(公兒20),土城區,青雲里,青和街與明德路二段口,24.977293,121.457534
綠地兼排水溝使用,土城區,青雲里,青和街高速公路下方,24.974598,121.45747
運公二公園(公四),土城區,頂埔里,中央路4段67巷及高速公路路口,24.9553,121.42021
運公一公園(公六),土城區,頂埔里,中央路4段87巷,24.95673,121.41874
運公一公園(綠一),土城區,頂埔里,中央路4段67巷,24.95748,121.4212
運公一公園(綠二),土城區,頂埔里,中央路4段67巷,24.95644,121.41936
運公一公園(綠三),土城區,頂埔里,中央路4段67巷,24.95673,121.41919
南區B公園(綠4),土城區,柑林里,23653新北市土城區青福街,24.97968,121.45685
南區A公園(綠國3北、南側),土城區,青雲里,236新北市土城區青雲路322巷48號,24.97429,121.45742
頂福永福公園,土城區,頂埔里,236新北市土城區中央路四段67巷6號,24.95771,121.41839
承和公園(永和段195-4等3筆),土城區,大安里,新北市土城區承天路4巷1-1號,24.964528,121.435407
斬龍山遺址文化公園,土城區,員林里,面臨金城路二段，背倚學士路,24.9773484,121.4486083
馬祖田河濱公園,土城區,廣興里,河川區域,24.953167,121.409
土城環保公園,土城區,員福里,河川區域,4.958472,121.411139
城林人工濕地,土城區,員福里,河川區域,24.975222,121.432083
新北綠家園土城區大安段742地號基地(工業區變更回饋),土城區,大安里,新北市土城區忠義路75巷西南側,24.965145,121.440182
青山公園(第2期),土城區,青山里,明德路一段195巷底,24.978284,121.464287
中央公園,土城區,日和里,236新北市土城區中央路一段325-1號,24.982819,121.443905
頂埔公一公園(公1),土城區,大安里,236新北市土城區員安路,24.970246,121.434013
頂福104-17,土城區,頂福里,新北市土城區中洲路37巷西側,121.413128,24.957814
土城綜合體育場,土城區,中正里,新北市土城區裕民路193-1號,24.984894,121.455543
慶利公園,土城區,員仁里,中央路二段慶利街口,24.973354,121.440541
青山公園(3期),土城區,青山里,土城區明德路一段221巷內,24.977673,121.464254
長安公園,蘆洲區,忠義里,蘆洲區長安街與長安街108巷交叉口,25.08113,121.46193
永康公園,蘆洲區,永康里,蘆洲區長安街204號,25.08482,121.45854
永平公園,蘆洲區,永樂里,蘆洲區永平街1號旁,25.09,121.45894
長安廣場,蘆洲區,忠義里,蘆洲區長安街100號,25.0815,121.46126
成功廣場,蘆洲區,永康里,蘆洲區長安街222號,25.08521,121.45837
永平廣場,蘆洲區,永樂里,蘆洲區永平街1號旁,25.09056,121.45882
九芎公園,蘆洲區,九芎里,蘆洲區九芎街與和平路121巷交叉口,25.07934,121.46629
三角公園,蘆洲區,溪漧里,蘆洲區中山一、二路交叉路口,25.0868908,121.4715241
仁愛廣場,蘆洲區,水湳里,蘆洲區水湳街76號,25.09032,121.47071
鷺江廣場,蘆洲區,鷺江里,蘆洲區民族路33巷,25.0857567,121.47794
三民公園,蘆洲區,南港里,蘆洲區三民路611號旁,25.09443,121.45971
尼加拉瓜公園,蘆洲區,仁義里,蘆洲區集賢路269巷與重陽街交叉口,25.08408,121.48144
三蘆公園,蘆洲區,玉清里,蘆洲區永安北路二段76巷底,25.08476,121.48385
柳堤公園,蘆洲區,正義里,光榮路及長樂路交叉路口,25.08823,121.46238
中原公園,蘆洲區,光明里,蘆洲區長興路50巷與長興路交叉口,25.084382,121.46412
正義公園,蘆洲區,正義里,蘆洲區中原路20巷與中原路交叉口,25.08361,121.46023
彩虹兒童公園,蘆洲區,正義里,蘆洲區光榮路120巷及光明路交叉口,25.08848,121.46492
大地兒童公園,蘆洲區,正義里,蘆洲區永樂街27巷與永樂街交叉口,25.08803,121.458343
重陽公園,蘆洲區,樓厝里,蘆洲區重陽街與集賢路221巷,25.08614,121.48336
仁愛公園,蘆洲區,水湳里,蘆洲區水湳街76號旁,25.09031,121.47032
中路兒童公園,蘆洲區,中華里,蘆洲區光華路73巷26號,25.0819,121.4682
中山廣場,蘆洲區,仁復里,蘆洲區中央路與中央路9巷、37巷、74巷交叉口,25.08234,121.47265
捷運公園,蘆洲區,保新里,長榮路口以南至中正路與三民路交叉口,25.09214,121.46303
環河公園,蘆洲區,正義里,蘆洲區長榮路口以北至環堤大道,25.0946,121.4604
蘆洲公園,蘆洲區,鷺江里,蘆州區三民路95號對面(蘆洲區公所對面),25.08489,121.47457
溪墘公園,蘆洲區,溪墘里,蘆洲區信義路65號,25.07973,121.47608
綠美化據點3(重陽段31),蘆洲區,樓厝里,蘆洲區集賢路207巷,25.08684,121.48354
永安兒童公園,蘆洲區,恆德里,蘆洲區永安北路2段與重陽1街交叉口,25.08194,121.48204
綠美化據點4(民權段180),蘆洲區,水河里,蘆洲區民族路422巷114弄31號旁,25.0951,121.47253
綠美化據點2(重陽段125),蘆洲區,仁義里,蘆洲區永安北路二段58巷與重陽街交叉口,25.08442,121.48176
綠美化據點1(重陽段174),蘆洲區,恆德里,蘆洲區永安北路二段27巷與永安北路二段交叉口,25.08188,121.48212
綠美化據點5(中原段103),蘆洲區,正義里,蘆洲區光榮路120巷22弄30號旁,25.0871,121.46471
鴨母港溝大排,蘆洲區,永安里、延平里、長安里、永康里,蘆洲區永安南路二段2號至300號,25.076355,121.468279
中路公園擴建,蘆洲區,中華里,蘆洲區光華路87巷底,25.082616,121.467607
兒五樓厝公園,蘆洲區,樓厝里,蘆洲區民族路236巷34弄,25.08878,121.48092
九三親子公園,蘆洲區,恆德里,蘆洲區三民路26巷40號旁,25.083307,121.47834
淡水河畔公園,蘆洲區,正義里,河川區域無住址,25.092139,121.492083
兒四公園,蘆洲區,水河里,蘆洲區民族路327巷及民族路255巷交叉口,25.08897,121.47572
新北綠家園蘆洲區中原段105地號基地,蘆洲區,中原里,新北市蘆洲區光榮路120巷22弄口,25.086874,121.464196
綠美化據點6(光華1551),蘆洲區,永安里,蘆洲區永安南路二段與九芎街71巷交叉口,25.077657,127.46614
綠美化據點7(光華1418),蘆洲區,永安里,蘆洲區永安南路二段與九芎街交叉口,25.078264,121.464413
綠美化據點8(光華1230),蘆洲區,延平里,蘆洲區長安街49巷8弄底,25.079133,121.46233
蘆洲蘆堤寵物公園,蘆洲區,成功里,新北市蘆洲區環堤大道,25.086954,121.454689
兒九公園,蘆洲區,溪墘里,蘆洲區信義路與民生街交叉口,25.079521,121.476379
兒一環保公園,蘆洲區,水湳里,蘆洲區仁愛街77巷底,25.093032,121.470686
公五公園,蘆洲區,樓厝里,蘆洲區復興路258巷及民族路236巷交界處,25.08860396,121.4805342
中山公園,樹林區,三興里,新北市樹林區龍興街59巷11號,25.014091,121.402129
三龍公園,樹林區,三龍里,新北市樹林區三龍街14巷20號,25.017387,121.410031
潭底公園,樹林區,潭底里,新北市樹林區保安街一段285號,24.995863,121.418646
大同公園,樹林區,和平里,新北市樹林區太平路33巷8號,24.983344,121.419768
長壽親子公園,樹林區,樹福里,新北市樹林區樹德街35號,24.992049,121.421738
鎮前親子公園,樹林區,東陽里,新北市樹林區鎮前街東陽街1號,24.982045,121.412376
民生親子公園,樹林區,保安里,新北市樹林區保安街一段14巷,24.993154,121.428392
和平親子公園,樹林區,樹東里,新北市樹林區樹中街63號,24.98523,121.421709
山仔腳公園,樹林區,中山里,新北市樹林區地政街8巷10弄2號,24.971414,121.393857
民權公園,樹林區,北園里,新北市樹林區民權街68號,24.961305,121.400187
光華公園,樹林區,?寮里,新北市樹林區保安街二段206號,25.005208,121.413442
兒三公園,樹林區,南園里,新北市樹林區學成路712號,24.945911,121.382562
萬坪公園（景觀休憩公園）,樹林區,南園里,新北市樹林區佳園路三段、學府路口,24.950592,121.385413
?寮公園,樹林區,?寮里,新北市樹林區保安街二段三多國中旁,25.00699,121.412843
森林公園,樹林區,柑園里,新北市樹林區大雅路學勤路口,24.94847,121.379806
鹿角溪公園一期,樹林區,中山里,新北市樹林區中洲街51巷14號,24.971747,121.396124
太元公園,樹林區,大同里,新北市樹林區太元街2巷,24.981047,121.416529
東昇公園,樹林區,東昇里,新北市樹林區育林國小旁,24.984908,121.414721
樹林後站廣場,樹林區,樹福里,新北市樹林區後站街,24.991258,121.423618
山佳車站廣場,樹林區,中山里,新北市樹林區中山路三段、佳園路一段口,24.972405,121.392766
新北綠家園,樹林區,樹南里,中山路一段306巷,24.98661776,121.4190773
山佳綠地,樹林區,山佳里,樹林區新興街3號,24.974009,121.400759
新北市武器公園,樹林區,三多里,樹林區忠義街25號,25.013535,121.409033
樹林體育園區,樹林區,樹東里,新北市樹林區水源街81號,24.98071,121.426298
鹿角溪公園二期,樹林區,中山里,中山路三段155巷14弄,24.9726292,121.3955853
柑園河濱公園,樹林區,柑園里,河川區域,24.968139,121.391972
鹿角溪人工濕地,樹林區,樹林里,河川區域,24.972944,121.420389
打鳥埤人工濕地,樹林區,南園里,河川區域,24.978639,121.436083
新北綠家園(樹新路59號綠地),樹林區,保安里,新北市樹林區樹新路67號西南側,24.995056,121.427231
鹿角溪原住民主題公園(樹林原住民主題公園),樹林區,柑園里,河川區域無住址,24.970056,121.411833
山佳鐵道公園,樹林區,中山里,新北市樹林區中山里山佳街,24.973147,121.394825
鹿角溪公園(第3期),樹林區,中山里,中山路三段155巷14弄,24.9726292,121.3955853
新北綠家園樹林區樹德段1002地號等基地,樹林區,樹興里,樹林區文化街112巷,24.989958,121.416666
新北綠家園樹林區樹德段1046地號等基地,樹林區,樹興里,樹林區文化街與大安路交叉口東南側,24.989442,121.416074
樹德段323,樹林區,樹德里,樹林區樹人街39巷底,24.993955,121.420272
山佳公兒5,樹林區,中山里,樹林區佳園路一段72巷及育德街口,24.9696862,121.3904493
鹿角溪公園第4期,樹林區,中山里,新北市樹林區中洲街51巷14號,24.971747,121.396124
公15,樹林區,彭福里,樹林區四維路與國凱街交叉口,24.979993,121.421835
三龍1030,樹林區,三龍里,新北市樹林區三俊街73巷,121.415235,25.01655
彭福公園,樹林區,彭福里,新北市樹林區國凱街65號旁,291735.619,2763823.096
育德公園,樹林區,中山里,育德街與佳園路一段72巷交叉口,24.969554,121.390312
文林段1566 1567 1568地號綠家園,樹林區,潭底里,樹林區第六停車場旁,24.997193,121.424671
樹林樹德段562地號,樹林區,樹德里,新北市樹林區樹德街及啟智街交叉口,121.420331,24.992299
彭興親子公園,樹林區,彭興里,環漢路5段與東豐街口,24.9733873,121.4190743
山佳生態河濱公園,樹林區,null,河川區域,24.96897571,121.3920152
復興公園,汐止區,復興里,復興路與龍安路口,25.063944,121.656056
康福公園,汐止區,康福里,福德一路86巷,25.068771,121.637347
茄興公園,汐止區,茄苳里,茄興街上新台五路旁,25.066553,121.674343
康誥坑公園,汐止區,白雲里,水源路二段42巷口,25.057278,121.6555
湖興公園,汐止區,湖興里,伯爵五代自由女神旁,25.076028,121.639361
北峰公園,汐止區,北峰里,中興路與明峰街口,25.069917,121.628222
民權公園,汐止區,橫科里,民權街一段與橫科路口,25.050167,121.619861
東勢公園,汐止區,東勢里,東勢街與芳園街口,25.040028,121.625556
汐止公園,汐止區,義民里,大同路二段451號旁,25.068,121.659806
原住民族公園,汐止區,山光里,樟樹二路與山光路口,25.071139,121.641694
姜子寮公園,汐止區,東山里,姜子寮路底,25.062472,121.710389
保長公園,汐止區,保長里,保長路45巷旁,25.079639,121.674194
林森公園,汐止區,東室里,林森街132巷,25.039972,121.624917
橫科公園,汐止區,橫科里,新北市汐止區橫科路(民權公園對面),25.050556,121.619833
原興廣場,汐止區,中興里,新北市汐止區福德二路與原興路口,25.065472,121.632694
連興廣場,汐止區,復興里,新北市汐止區龍安路底(龍安路32號附近),25.063556,121.654167
厚德綠地,汐止區,厚德里,樟樹一路145巷,25.067956,121.641721
水尾灣公園,汐止區,鄉長里,河川區域,25.068694,121.647583
星光橋,汐止區,無,新北市汐止區鄉長路一段,25.076666,121.66231
星座公園,汐止區,鄉長里,新北市汐止區星光橋北側河濱公園內,25.079083,121.666056
白雲公園,汐止區,福山里,福山街62巷底,25.046811,121.61769
汐止南陽大橋段高灘地,汐止區,鄉長里,河川區域無住址,25.055667,121.629722
汐止城中公園,汐止區,禮門里,河川區域無住址,25.073667,121.660306
新北綠家園(金龍段683),汐止區,湖光里,新北市汐止區康寧街591巷,25.070536,121.635624
汐止車站小廣場,汐止區,汐止車站小廣場,汐止車站小廣場,25.069138,121.662795
新金龍公園,汐止區,金龍,湖前街31巷、康寧街459巷,25.069361,121.631477
新峰842-1,汐止區,秀峰里,新北市立秀峰高中後方,121.660687,25.06716
汐止中正1365,汐止區,禮門里,新北市汐止區大同路二段394號南側,121.65883,25.066385
水返腳公園,汐止區,禮門里,汐止區大同路二段與公園路交會處,25.06811119,121.6589036
汐止智興945,汐止區,自強里,新北市汐止區復興路68巷1號旁,121.656916,25.062152
建成公園遊戲場,汐止區,建成里,221新北市汐止區建成路160巷63號,25.0746052,121.6609152
星際遊戲場,汐止區,鄉長里,221新北市汐止區長江街180號,25.07886759,121.66485
三號公園,鶯歌區,同慶里,新北市鶯歌區尖山埔路轉育英街（陶瓷老街後方，近建國路口）,24.953348,121.347293
鳳鳴公園,鶯歌區,鳳鳴里,新北市鶯歌區鳳鳴街（鳳鳴國小旁）,24.967519,121.335081
西鶯公園,鶯歌區,西鶯里,新北市鶯歌區中山路198號（加油站後方）,24.957806,121.347056
地標公園,鶯歌區,建國里,新北市鶯歌區永明街與國華路口,24.955928,121.342355
尖山公園,鶯歌區,尖山里,新北市鶯歌區尖山路137巷內,24.947035,121.346144
北鶯公園,鶯歌區,北鶯里,新北市鶯歌區成功街20巷內,24.957415,121.359801
永昌公園,鶯歌區,永昌里,新北市鶯歌區尖山埔路接尖山埔路二段，近中正二路平交道口。,24.948894,121.340723
尖二公園,鶯歌區,尖山里,新北市鶯歌區尖山路166巷旁,24.948489,121.34595
永吉公園,鶯歌區,永吉里,新北市鶯歌區鶯桃路296巷,24.960833,121.334543
昌福公園,鶯歌區,永昌里,新北市鶯歌區鶯桃路182巷96弄,24.956443,121.339617
公兒五公園,鶯歌區,二橋里,新北市鶯歌區公園街11號,24.939323,121.338112
二橋綠家園,鶯歌區,二橋里,新北市鶯歌區高職西街及中正三路口,24.941991,121.338833
新北市三鶯水資源回收中心,鶯歌區,東鶯里,新北市鶯歌區館前路360號,24.954851,121.360402
陶瓷藝術園區,鶯歌區,南靖里,文化路200號,24.948937,121.350882
三鶯藝術村,鶯歌區,東鶯里,館前路300號,24.953578,121.358218
鳳祥公園,鶯歌區,鳳祥里,新北市鶯歌區鶯桃路413巷,24.962986,121.330308
鳳福公園,鶯歌區,鳳福里,新北市鶯歌區鳳福路及鳳鳴路交叉口（鳳福市民活動中心旁）,24.975028,121.329724
山水步道公園,鶯歌區,二甲里,河川區域,24.930111,121.338917
古鐘樓公園,鶯歌區,東鶯里,新北市鶯歌區文化路323號旁巷內(鶯歌福德宮後方),24.952614,121.354312
鳳鳴公兒二(機器人公園),鶯歌區,鳳鳴,新北市鶯歌區鳳鳴路與鳳福路交叉口,24.966183,121.334311
逗逗龍公園,鶯歌區,鳳鳴里,新北市鶯歌區龍五路及鳳五路口,24.970685,121.331775
尖福公園,鶯歌區,尖山里,新北市鶯歌區高職東街19巷,24.9418978,121.3404827
新鳳公園,鶯歌區,鳳福里,新北市鶯歌區鳳鳴郵局對面,24.973168,121.324553
南靖陶藝河濱公園,鶯歌區,南靖里,239新北市鶯歌區環河路173-1號,24.94040451,121.3483109
中山公園,三峽區,鳶山里,中山路文化路口、仁愛街,24.935146,121.3661
大同公園,三峽區,介壽里,光明路75巷內,24.928189,121.377905
介壽公園,三峽區,介壽里,新北市三峽區永安街9巷5號(圖書館旁),24.929705,121.376735
龍埔公園,三峽區,龍埔里,國光街中段,24.939081,121.374529
龍恩公園,三峽區,龍恩里,學成路、國際一街底,24.941466,121.370004
遠雄海洋公園,三峽區,龍學里,學勤路、大義路口,24.947254,121.376153
藍染公園,三峽區,三峽里,仁愛街47號旁,24.93283,121.368505
三角圓環公園,三峽區,礁溪里,介壽路、中正路口,24.931511,121.37615
醒心公園,三峽區,嘉添里,白雞路醒心橋旁,24.910419,121.391355
溪北河濱公園,三峽區,溪北里,介壽路三段101之2號旁,24.939229,121.394742
成福河濱公園,三峽區,成福里,成福路成福國小對面,24.923621,121.427548
礁溪人行廣場,三峽區,礁溪里,中華路、光明路間,24.931023,121.374136
鳶山運動公園,三峽區,永館里,新北市立圖書館三峽北大分館,24.932479,121.367766
龍學公園,三峽區,龍學里,學成路、大德路口,24.943743,121.37723
橫溪簡易公園,三峽區,溪北里,橫溪路120巷內,24.934976,121.398126
大埔運動公園,三峽區,大埔里,中園街185號對面,24.921751,121.36689
溪東社區公園,三峽區,溪東里,溪東路218巷口,24.931901,121.407644
長福公園,三峽區,礁溪里,光明路3巷,24.932739,121.373065
中正公園,三峽區,中正里,永安街95巷,24.927983,121.373956
溪北社區公園,三峽區,溪北里,橫溪路、溪北街口,24.93553,121.397834
轉運站預定地,三峽區,龍學里,學成路、大義路口,24.944881,121.378225
阿泗坑櫻花公園,三峽區,介壽里,阿泗坑溪旁,24.927092,121.380184
太空公園,三峽區,龍埔里,國光街38巷、三樹路1巷交叉口,24.93789938,121.3754603
國光新北綠家園,三峽區,龍埔里,國光街與國成街口,24.939184,121.372399
三鶯棒壘球場運動公園遊戲場,三峽區,null,新北市三峽區三鶯路（近三鶯壘球場）,24.93554756,121.350546
運動公園,淡水區,竿蓁里,竿蓁里中正東路一段3巷底,25.166331,121.451151
百齡公園,淡水區,竿蓁里,竿蓁里中正東路一段3巷西側(欣芝天然瓦斯對面),25.164962,121.450124
衛教公園,淡水區,中興里,淡水區協元里淡水區衛生所旁,25.172473,121.441025
竹圍公園(竹圍民生公園),淡水區,民生里,淡水區民生里民生路67號前,25.138216,121.463167
觀潮廣場,淡水區,新生里,淡水區中正路298號(淡水藝術工坊)對面,25.171962,121.436678
文中四壘球場及多功能社區公園,淡水區,沙崙里,淡水區沙崙路181巷旁,25.185156,121.423132
中山北路一段帶狀公園,淡水區,新興里,淡水區中山北路一段(水碓派出所與新春街口間),25.180795,121.444547
安樂伯公園,淡水區,竿蓁里,淡水區中正東路(竿蓁一街與平遠街間),25.166712,121.447976
和平公園,淡水區,油車里,淡水區中正路一段6巷〈淡水高爾夫球場前〉,25.178058,121.430033
文中八運動園區,淡水區,北投里,淡水區中山北路一段(新春街口對面),25.180205,121.445894
中興(1）口袋公園,淡水區,中興里,淡水區原德路73巷27號旁,25.17283,121.442395
協元(1)口袋公園,淡水區,協元里,淡水區新生街30巷64號前、65號後(含建設街一巷一號前),25.172984,121.4394
大庄(1)口袋公園,淡水區,大庄里,淡水區沙崙路與淡海路交接路口（淡水都市計畫(市五用地)）,25.181826,121.422585
油車(1)口袋公園,淡水區,油車里,淡水區中正路一段蘇府王爺廟右側,25.176108,121.426782
油車(3)口袋公園,淡水區,大庄里,淡水區沙崙路、中正路交叉路口起沙崙路至沙崙路216巷兩側綠帶(含果嶺大道),25.183501,121.42393
油車(4)口袋公園,淡水區,油車里,淡水區沙崙路社福大樓左側空地,25.18647,121.427453
協元(2)口袋公園,淡水區,協元里,淡水區重建街1巷1弄旁空地,25.173561,121.439581
賢孝社區公園,淡水區,賢孝里,淡水區淡金路5段20號對面,25.225308,121.443111
藝術穿堂,淡水區,新生里,淡水區中正路274號旁,25.171705,121.438294
兒童遊樂場(淡水新市鎮兒童公園),淡水區,崁頂里,淡水區中山北路2段189巷內,25.18472,121.442488
公8公園,淡水區,崁頂里,淡水區中山北路二段381巷內(淡水區公所新行政大樓後方對面),25.186762,121.441979
木下淨涯週邊開放空間,淡水區,民安里,淡水區中正路260號旁,25.17145,121.439037
馬偕銅像三角公園,淡水區,民安里,淡水區中正路與建設街交接路口,25.171412,121.439801
福德公園,淡水區,福德里,淡水區自強路118巷底,25.132089,121.465128
淡水老街廣場,淡水區,草東里,淡水區中正路路口(捷運站往中正路方向),25.16915,121.444307
公7公園,淡水區,崁頂里,淡水區沙崙路與濱海路2段交叉口,25.191256,121.433353
公22公園,淡水區,崁頂里,淡水區新市5路2段上(鄰旁為太子廟與崁頂社區),25.199991,121.431568
公23公園,淡水區,崁頂里,淡水區後州路一段與新市5路2段和新市3路(對面為家天下社區),25.198923,121.42963
滬尾砲臺公園,淡水區,大庄里,淡水區中正路一段22巷內,25.186938,121.431056
新民公園,淡水區,新民里,淡水區新興國小斜對面,25.178978,121.43944
米粉埔公園,淡水區,八勢里,淡水區中正東路一段161巷內,25.145563,121.461162
竹圍民權公園,淡水區,民權里,民族路與民族路112巷路口,25.135251,121.462225
竹圍段894-7公園,淡水區,民權里,淡水區民權路187巷旁(水紀元社區後方),25.13306,121.459959
馬偕段151-2地號 ,淡水區,八勢里,淡水區民權路一段3巷內,25.14339,121.462103
新北市忠烈祠(非公園),淡水區,油車里,新北市淡水區中正路1段6巷31號,25.179209,121.428256
原英商嘉士洋行倉庫(園區土地),淡水區,幸福里,新北市淡水區鼻頭街22號,25.166188,121.446984
淡水海關碼頭園區,淡水區,文化里,新北市淡水區中正路259號,25.175414,121.431667
金色水岸河濱公園,淡水區,草東里,河川區域,25.168905,121.441507
馬偕段151-2公園 ,淡水區,八勢里,民權路一段3巷內,25.14339,121.462103
新北綠家園(沙崙222-4),淡水區,大庄里,淡海路182巷口,25.184815,121.420425
北投子溪兩側綠帶,淡水區,北投里,福德宮後方廣場、中山北路1段285巷口綠帶,25.182298,121.444905
新北綠家園(中正段573),淡水區,新生里,淡水郵局正對面,25.171995,121.437787
海天段433地號公園,淡水區,八勢里,淡水區中正東路與八勢一街口,25.155831,121.459551
正德442,淡水區,水碓里,新北市淡水區大勇街20號旁,121.442244,25.175246
中正461,淡水區,民安里,新北市淡水區中正路230-1號旁,121.439218,25.170559
米蘭556,淡水區,竿蓁里,新北市淡水區坪頂路51巷口,121.457925,25.162664
紅毛城765,淡水區,文化里,新北市淡水區真理街6-4號對面,121.437424,25.173628
淡海73,淡水區,崁頂里,淡水區新市二路二段及沙崙路一段交口西南側,121.429523,25.194442
新市鎮寵物公園(淡水寵物微型公園),淡水區,崁頂里,新北市淡水區新市二路二段,25.194613,121.4296
濱海網球場,淡水區,崁頂里,濱海路三段與崁頂五路交界,25.194197,121.420147
北投新市公園,淡水區,北投里,新市一路三段101巷17弄32號對面,25.183718,121.444988
新濱公園,淡水區,崁頂里,淡水區新市二路及濱海路交叉口,25.19789967,121.4208886
中興929等,淡水區,中興里,新北市淡水區水源街一段47巷2號旁,121.443962,25.172629
吉安公園,瑞芳區,吉安里,新北市政府消防局第六大隊瑞亭分隊旁,25.108949,121.8086913
吉慶公園,瑞芳區,吉慶里,吉慶里吉安宮右側附近,25.102812,121.762633
安德公園,瑞芳區,東和里,東和里安德宮旁,25.1078196,121.7995643
瑞芳公園,瑞芳區,柑坪里,102線道瑞柑陸橋前平交道(瑞福宮)附近,25.109135,121.820362
榮興公園,瑞芳區,深澳里,台2線71.5公里左側,25.120878,121.8230306
蝙蝠洞公園,瑞芳區,海濱里,台2線75公里處附近,25.126082,121.831566
濱二路公園,瑞芳區,海濱里,海濱里中油加油站後斜方,25.1215289,121.8286
上天河濱公園,瑞芳區,上天里,河川區域,25.10001669,121.7603777
酋長岩公園,瑞芳區,深澳里,海巡署深澳漁港安檢所旁,25.01229,121.46557
爪峰河濱公園,瑞芳區,爪峰里,台2丁線瑞芳橋右側附近,25.0833739,121.840933
瑞芳區立棒球場,瑞芳區,新峰里,新柑橋右側橋台附近,25.1064067,121.818629
傑魚河濱公園,瑞芳區,傑魚里,靜安路四段94號旁巷道進入,25.1102875,121.7932591
頌德公園,瑞芳區,頌德里,輕便路,25.1084966,121.8402357
大社公園,瑞芳區,瑞濱里,建基路一段50巷旁,25.1274907,121.8173628
龍山里休閒廣場,瑞芳區,龍山里,逢甲路225號斜對面,25.1117448,121.8028251
東和里抽水站公園,瑞芳區,東和里,東和抽水站旁,25.1068669,121.8031213
瓜山公園,瑞芳區,瓜山里,保民堂後方,25.1060023,121.853732
大寮派出所休閒場所,瑞芳區,傑魚里,大寮派出所後方,25.1067925,121.7874879
武丹坑休閒場所,瑞芳區,新山里,武丹坑旁,25.108782,121.851786
蝙蝠橋旁小公園 ,瑞芳區,海濱里,海濱里蝙蝠橋旁,25.125691,121.832685
新北市立黃金博物館,瑞芳區,銅山里,新北市瑞芳區金光路8號,25.108368,121.856733
瑞芳運動公園,瑞芳區,新峰里,瑞芳區員山子路、蛇子形路、明燈路一段45巷路口,25.10263,121.82182
瑞芳區高灘地園區,瑞芳區,上天里,河川區域無住址,25.099512,121.76187
建成公園,瑞芳區,龍興里,瑞芳區中正路,25.10706158,121.8086356
廣停三公園,五股區,成功里,新五路3段與新城五路口,25.091681,121.44786
水碓景觀公園,五股區,水碓里,新北市五股區水碓二路接外寮路,25.073715,121.42909
石德公園,五股區,水碓里,新北市五股區水碓路與水碓一路交叉,25.072412,121.431823
獅子頭景觀公園,五股區,集福里,新北市五股區孝義路,25.107749,121.452551
成州公園,五股區,成州里,新北市五股區西雲路435巷底,25.098082,121.449017
民義公園,五股區,民義里,新北市五股區五福路五福橋旁,25.088206,121.434546
坑口公園,五股區,五股里,新北市五股區工商路85巷及成泰路2段91巷交叉,25.084529,121.437566
二支郵局對面公園,五股區,五股里,新北市五股區中興路4段48巷19號對面,25.083589,121.43864
朝陽公園,五股區,水碓里,新北市五股區明德路12巷.自強路87巷,25.072065,121.433334
德音兒童休憩公園,五股區,德音里,新北市五股區蓬萊路6巷.成泰路2段235巷交叉處,25.080509,121.435779
自然湧泉公園,五股區,德音里,新北市五股區成泰路1段189巷底,25.07876,121.434105
成德公園,五股區,成德里,新北市五股區成泰路四段與成州八路交叉口,25.105224,121.453094
洲子洋公園,五股區,成功里 成州里,新北市五股區成泰路與洲子路交岔口,25.094861,121.44854
芳洲公園,五股區,成泰里,新北市五股區芳洲二路與芳洲五路交岔口,25.086905,121.444956
新五公園,五股區,成泰里,新北市五股區新五路與中興路交岔口,25.083323,121.441601
綠六綠地,五股區,五福里,新北市五股區成泰路二段195巷口.五洲橋旁,25.086409,121.439521
成德人行廣場,五股區,成德里,新北市五股區成泰路三段成州派出所旁,25.10128,121.451674
五股防災體健公園,五股區,成德里,新北市五股區成泰路三段與成州八路交叉,25.104542,121.453427
御史路小公園,五股區,成泰里,新北市五股區御史路1巷105號旁,25.091901,121.441092
綠地,五股區,成泰里,新五路與新城一路間,25.087354,121.443049
綠地,五股區,成泰里,新五路與芳洲二路(芳洲七路),25.0877,121.445196
綠地,五股區,成泰里,新五路與芳洲二路間,25.086786,121.444008
綠地,五股區,成泰里,新城八路與新城六路間,25.091407,121.445779
綠地,五股區,成泰里,成泰路與新城八路間,25.091749,121.445295
綠地,五股區,成泰里,新五路與新城六路間,25.091161,121.446159
綠地,五股區,成泰里,芳洲路與芳洲一路間,25.084723,121.443504
綠地,五股區,水碓里,水碓一路,25.0724094,121.4317171
德音休閒廣場,五股區,德音里,蓬萊路10號旁,25.079714,121.434985
福德新北綠家園,五股區,福德里,登林路近成泰路一段,25.068909,121.435013
成功運動公園,五股區,成功里,西雲路100巷,25.093103,121.445171
疏洪蘆堤公園,五股區,無,null,25.085045,121.454528
疏洪生態公園,五股區,無,新北市五股區一號越堤道,25.098049,121.456537
水碓新北綠家園,五股區,水碓里,明德路12巷旁,25.071732,121.433428
成泰新北綠家園,五股區,五股里,新北市五股區成泰路三段6之1號西側,25.087177,121.44105
竹郵樂,五股區,更寮里,新北市五股區中興路三段北側,25.081064,121.445917
環保藝術公園,五股區,更寮里,新北市五股區中興路2段192巷進入(寵物公園),25.08401645,121.4438056
新冪境公園,五股區,更寮里,五股區中興路3段201號旁,25.078235,121.44156
心環原公園,五股區,更寮里,新北市五股區中興路2段192巷進入,25.0840327,121.4460017
五股夏綠地5區,五股區,更寮里,新北市五股區中興路三段西北側(192巷小公園),121.441997,25.082236
五股夏綠地6區,五股區,更寮里,新北市五股區中興路四段1之6號西側(加油站進去),121.441188,25.078874
抽水站旁綠地,五股區,更寮里,新北市五股區中興路三段2巷10號北側,121.447729,25.084383
天乙公園,五股區,集賢里,新北市五股區天乙路81號對面,25.104914,121.448035
登林999-11,五股區,德泰里,新北市泰山區明志路一段19巷5弄,121.436404,25.06568
微風運河,五股區,null,248新北市五股區,25.09596311,121.458757
五股獅子頭山水匯集廣場,五股區,集福里,新北市五股區成泰路四段22巷底旁臨河側,25.11200773,121.457813
黎明公園,泰山區,黎明里,泰林路黎明路口,25.063495,121.420919
義學坑自然公園,泰山區,明志里,明志路西側山區,25.049275,121.423699
文程廣場,泰山區,義仁里,明志路2段文程路口,25.050452,121.427955
後山公園,泰山區,同榮里與山腳里,明志路一段(公所後方),25.06018,121.431077
山腳公園,泰山區,山腳里,忠孝街19巷3弄旁河堤邊,25.06623,121.426184
三角公園,泰山區,黎明里,泰林路三段大轉彎處,25.073401,121.402904
貴子兒童公園,泰山區,貴子里,明志路3段74巷,25.041937,121.423561
貴和兒童公園,泰山區,貴和里,明志路三段(飛指部對面),25.034707,121.421846
辭修公園,泰山區,同榮里,辭修路底,25.05734,121.427557
楓樹腳公園,泰山區,楓樹里,楓江路26巷,25.061484,121.435053
同興公園,泰山區,同興里,仁義路、仁愛路口,25.055372,121.431905
和平公園,泰山區,楓樹里,和平街27巷旁,25.064582,121.435116
全興公園,泰山區,同興里,全興路7巷對面,25.058664,121.431788
福泰公園,泰山區,福興里,全興路25巷口,25.058861,121.433038
福興公園,泰山區,福興里,福興三街、泰林路口,25.058296,121.434612
仁愛公園,泰山區,福興里,仁德路(加油站斜對面),25.056933,121.435023
文史影像公園,泰山區,同榮里,明志路一段352巷底,25.059403,121.429761
楓樹河濱公園,泰山區,楓樹里,和平街底,25.065714,121.43614
崩崁腳公園,泰山區,大科里,大科路與大科一路口,25.056232,121.402613
黎明步道花園,泰山區,黎明里,泰林路2段542巷進入大窠溪旁,25.0643443,121.422602
未命名,泰山區,義仁里,信華五街旁,25.043777,121.439744
應化大排生態園區,泰山區,明志里,應化街內,25.044694,121.423283
泰山捷運公園,泰山區,義仁里,泰林路與文程路路口,25.050054,121.439648
黎明步道花園,泰山區,黎明里,黎明步道花園旁,25.063658,121.421597
泰山區半山雅路簡易綠美化據點,泰山區,黎明里,泰山區半山雅路,25.067033,121.431524
泰山區中山578-2地號簡易綠美化,泰山區,貴子里及貴和里,泰山區明志路三段204巷,25.038248,121.421861
仁德公園,泰山區,全興里,全興路與仁德路交叉口,25.056681,121.433663
新明里簡易綠美化,泰山區,新明里,新北市泰山區民國街內,25.042872,121.425861
貴子里簡易綠美化,泰山區,貴子里,新北市泰山區明志路三段42巷底,25.042711,121.423835
新北綠家園泰山區同榮段587地號基地,泰山區,義學里,泰山區明志路136巷18弄,25.052091,121.426786
泰山體育園區,泰山區,同榮里,公園路54號,25.055079,121.427966
南林生態公園,泰山區,大科里,新北市泰山區南林路底,25.049563,121.417209
大窠1470,泰山區,大科里,新北市泰山區大科一路301巷口,121.404482,25.055145
公鄰46,林口區,東林里,中正路與泰林路三段路口(東林托兒所下方),25.07705,121.398421
麗林福德公園,林口區,麗林里,公園路與文化一路一段15巷路口,25.069485,121.368768
麗園公園,林口區,麗園里,麗園路與麗園路52巷口,25.069401,121.373409
婦幼公園,林口區,東勢里,文化一路一段與麗園一街9巷之間,25.072364,121.377333
四維公園,林口區,西林里,四維路與佳林路口,25.07517,121.381102
林口社區運動公園(小熊公園),林口區,仁愛里,仁愛路二段、文化一路一段、公園路及仁愛一路之間,25.07426721,121.3757002
自強公園,林口區,東林里,中正路、中山路及粉寮路一段交接處,25.078196,121.397036
扶輪公園,林口區,南勢里,文化二路一段、忠孝路及文化三路一段路口,25.073033,121.368414
湖南公園,林口區,湖南里,民權路165號(湖南市民活動中心)旁,25.084378,121.374312
大崙公園,林口區,南勢里,南勢二街,25.077207,121.359469
井泉公園,林口區,南勢里,南勢二街85巷與南勢四街82巷之間 ,25.069983,121.355903
松柏公園,林口區,中湖里,松柏路,25.091015,121.379321
文林公園,林口區,湖南里,文林二街與文林三街之間,25.08727,121.375596
翰林公園,林口區,湖南里,民權路與文林六街62巷轉角之間,25.081481,121.372406
力行公園,林口區,南勢里,民族路、文化北路一段526巷及文化北路一段542巷路口,25.077828,121.368901
立德公園,林口區,南勢里,民族路與仁愛二路口,25.07647,121.367369
立言公園,林口區,南勢里,忠孝一路與三民路口,25.07317977,121.3625379
立功公園,林口區,南勢里,三民路轉角與文化北路一段60巷轉角之間,25.06776998,121.35835
宗北公園,林口區,中湖里,中北二街轉角與民享路轉角之間,25.088109,121.384567
一品公園,林口區,中湖里,中華一路與民享路口、中北三街,25.083846,121.382824
東湖公園,林口區,西林里,東湖路75巷與東湖路93巷之間,25.07236,121.384761
隆林公園,林口區,西林里,隆林街,25.075361,121.387868
仁愛公園,林口區,林口里,仁愛路一段211巷轉角處、足夢公園旁,25.074507,121.397124
興林公園,林口區,西林里,興林一街,25.072839,121.392076
富貴森林公園,林口區,湖南里,富貴路內,25.08214,121.377574
南勢公園,林口區,南勢里,忠孝一路與南勢二街路口(南勢國小旁),25.073996,121.358824
新寮公園,林口區,林口里,仁愛路一段83巷轉角,25.070217,121.396874
樂活公園,林口區,麗園里、東勢里,忠孝路(崇林國中後),25.066847,121.376205
東明公園,林口區,西林里,興林一街、興林路195巷及興林一街86巷之間,25.072217,121.390502
公鄰43,林口區,東林里,自強五街旁,25.076523,121.398659
樹林口公園,林口區,林口里,中山路與中原街路口附近,25.078374,121.393245
仁愛籃球場,林口區,仁愛里,忠孝路與公園路口,25.071288,121.369962
麗園籃球場,林口區,麗園里,忠孝路與忠孝路542巷口,25.067973,121.372937
東勢籃球場,林口區,東勢里,忠孝路與忠孝路622巷口,25.068206,121.378127
市17跳跳糖兒童遊戲場,林口區,西林里,興林路、興林一街及興林路151巷之間,25.0736732,121.3896417
足夢公園(文小18),林口區,林口里,仁愛路一段與粉寮路一段路口,25.07544419,121.3960709
新林段775-1地號小公園,林口區,西林里,興林路與東湖路口,25.073861,121.389089
東林街綠帶,林口區,東林里,東林街轉角,25.079757,121.394166
興林口公園,林口區,林口里,新北市林口區仁愛路一段378號(新北市林口區公所)旁,25.076833,121.389482
727地號公園,林口區,菁湖里,竹林路與竹林路412巷路口附近,25.08464461,121.3894979
南勢六街新北綠家園,林口區,南勢里,南勢六街轉角處,25.07243047,121.3543181
銅雕公園,林口區,林口里,中山路與中正路口,25.0775,121.397411
櫻花公園,林口區,湖南里,文化二路二段、中華一路及文化三路二段交接(林口國民運動中心旁),25.085452,121.380263
林口段597地號小公園,林口區,菁湖里,竹林路與林口路124巷路口,25.08232545,121.3894709
新林段775-1,林口區,西林里,新北市林口區興林路東湖路交叉口西南側,121.389112,25.073853
吉祥公園,林口區,湖南里,新北市林口區吉祥路,25.08050514,121.3760817
萬福公園,深坑區,萬福里,北深路3段158巷內,25.00441,121.60248
深坑兒童遊戲場,深坑區,深坑里,文化街及平埔街口,25.0016,121.61574
帝品苑旁兒童遊戲場,深坑區,萬順里,北深路三段155巷內,25.00213,121.60144
北深路155巷綠地,深坑區,萬順里,北深路三段155巷內,25.00318,121.60239
埔新274,深坑區,深坑里,新北市深坑區深坑里文化街17巷,25.00092,121.61994
土庫樂活廣場,深坑區,土庫里,新北市深坑區北深路一段83巷8弄36號,25.01005,121.63461
二格公園,石碇區,格頭里,北宜公路 23 公里處,24.956777,121.623978
兒三公園,三芝區,埔坪里,淡金路二段87巷內,25.259653,121.504844
兒一公園,三芝區,埔頭里,公正街上,25.257228,121.499413
兒二公園,三芝區,埔頭里,長勤街上,25.256345,121.50062
櫻花公園,三芝區,埔頭里,埔頭橋邊101線旁,25.251044,121.501457
福成社區公園,三芝區,埔頭里,公所前,25.258,121.500835
福德水車園區,三芝區,福德里,福德生態園區,25.247074,121.507602
芝蘭社區公園,三芝區,後厝里,後厝里淺水灣附近,25.253448,121.472449
智成公園,三芝區,錫板里,智成堂附近,25.257237,121.478647
海灣公園,三芝區,錫板里,錫板里大嘉好加油站附近,25.260139,121.475858
興華驛站,三芝區,興華里,興華國小旁,25.203906,121.502287
根德水車園區,三芝區,古庄里,根德水車園區,25.261194,121.489556
南勢崗公園,三芝區,錫板里,南勢崗往玉堂海釣場入口處,25.26239,121.479346
錫板段海尾小段19地號公園,三芝區,錫板里,台二線錫板公車站旁,25.258191,121.476695
自行車公園,三芝區,新庄里,三和市民活動中心旁,25.268775,121.50135
乾華濱海廣場,石門區,乾華里,新北市石門區阿里磅1-1號旁,25.293181,121.585005
石門洞遊憩區,石門區,尖鹿里,新北市石門區尖鹿里中央路37之2號(五龍宮)斜對面,25.295213,121.567952
新幸福公園,石門區,尖鹿里,新北市石門區中山路62之7號對面,121.5666739,25.290553
福安公園,石門區,尖鹿里,新北市石門區尖鹿里中山路70之5號前,25.291614,121.568152
魔法廣場,石門區,茂林里,新北市石門區茂林里坪林20號前,25.269029,121.593075
幸福雙心公園,石門區,富基里,台2線與老梅路、淡金公路交會處,25.28902305,121.5415353
北河公園,八里區,大崁里,新北市八里區忠孝路與忠八街路口,25.16096831,121.4202928
南山公園,八里區,大崁里,新北市八里區賢三街30號對面,25.15857256,121.4186447
文昌公園,八里區,埤頭里,新北市八里區中山路一段與文昌路口,25.1568586,121.410733
狀元公園,八里區,舊城里,新北市八里區文昌五街與狀元路口,25.15438655,121.4103385
片仔溝公園,八里區,舊城里,新北市八里區中華路二段258巷與中華路口,25.15021716,121.4057624
舊城公園,八里區,舊城里,新北市八里區中山路二段303巷底,25.14766811,121.4014849
商港一路綠地,八里區,訊塘里,新北市八里區中山路二段500巷與商港一路交叉街口,25.14767199,121.3969198
訊塘社區公園,八里區,訊塘里,新北市八里區商港路與中山路二段路口,25.14563487,121.3962236
十三行文化公園,八里區,埤頭里,博物館路(清潔隊旁),25.165252,121.413239
陽光廣場,八里區,頂罟里,八里區博物館路,25.157094,121.404155
水仙公園,八里區,訊塘里,新北市八里區商港路與商港三路口,25.14291453,121.3914704
商港公園,八里區,訊塘里,新北市八里區商港八路與商港一路口,25.15025761,121.3990851
訊庄埔公園,八里區,訊塘里,新北市八里區中山路三段及訊塘一路,25.14218497,121.3921133
公博一公園,八里區,頂罟里,八里大道與商港三路(公博一公園),25.15808295,121.4041783
八里區行政大樓,八里區,頂罟里,新北市八里區八里大道與中山路二段,25.15392496,121.4064933
頂罟活動中心綠地,八里區,舊城里,新北市八里區八里大道與中山路二段,25.15313161,121.4074393
大崁環保公園,八里區,大崁里,新北市八里區觀海大道29號對面,25.16015552,121.4298024
龍源公園,八里區,龍源里,新北市八里區龍形一街與龍形二街交叉處,25.13076958,121.4505452
訊塘廣場,八里區,訊塘里,新北市八里區訊塘一路與訊塘二路(廖添丁廟旁) ,25.14303389,121.3960018
商港三路綠帶,八里區,訊塘里,新北市八里區商港三路旁,25.1539997,121.4021531
商港五路綠帶,八里區,訊塘里,新北市八里區商港五路旁,25.15481687,121.399843
忠孝綠地,八里區,埤頭里,新北市八里區忠孝路302號對面,25.1613413,121.4187876
頂罟二路綠地,八里區,頂罟里,新北市八里區頂罟二路旁,25.15189939,121.40273
商港一路廣場,八里區,頂罟里,新北市八里區商港一路(中廣綠家園後),25.15286183,121.4038072
八里大道廣場,八里區,頂罟里,新北市八里區八里大道與中山路二段交叉處,25.15370112,121.4062611
環教中心左岸會館,八里區,大崁里,八里環教中心,25.16064748,121.4303789
下罟子漁港綠帶,八里區,下罟里,下罟子漁港旁,25.142398,121.381452
八里龍米公園,八里區,龍源里,龍米路及米倉公園,25.149167,121.405
新北考古公園,八里區,頂罟里,商港三路2號,121.403831,25.15657
米倉公園,八里區,米倉區,河川區域無住址,25.154611,121.440194
十三行文化公園-兒童遊戲場,八里區,頂罟里,新北市八里區博物館路及忠孝街口,25.16422486,121.412323
八里左岸公園,八里區,大崁里,河川區域無住址,25.160833,121.43
龍米河濱公園,八里區,null,河川區域,25.149792,121.443854
頂罟公園(中廣綠家園),八里區,頂罟里,新北市八里區中山路二段129巷對面,25.152277,121.40481
渡船頭公園,八里區,米倉里,新北市八里區龍米路二段201巷,25.157481,121.433849
八里婚紗廣場,八里區,null,249新北市八里區,25.16211461,121.427971
水興公公園(綠林城堡冒險趣遊戲場),八里區,大崁里,新北市八里區觀海大道100號（河濱公園內）,25.162397,121.4255376
十分瀑布公園,平溪區,南山里,新北市平溪區南山里乾坑10號,25.047868,121.78272
十分公園,平溪區,十分里,新北市平溪區十分街66巷1號,25.04219279,121.7756802
雙溪兒童公園,雙溪區,共和里,新北市雙溪區東榮街(雙溪國小對面),25.03277,121.867093
雙溪公園,雙溪區,雙溪里,新北市雙溪區雙溪里,337222.3162,2770098.923
三貂運動公園,雙溪區,三貂里,三貂里牡丹派出所旁，尪子崙坑路,335628,2772486
龍門公園,貢寮區,龍門里,新北市貢寮區龍門里鄰台2線旁,25.0039454,121.9583462
澳底公園,貢寮區,仁里里,新北市貢寮區仁愛路43號,25.054018,121.925433
環保公園,貢寮區,貢寮里,新北市貢寮區長泰路20號,25.02025714,121.9075296
中山溫泉公園,金山區,大同里,新北市金山區溫泉路2巷9號,25.221745,121.640422
豐漁里公園,金山區,豐漁里,新北市金山區豐漁里民生路172-1號,25.223068,121.6469856
運動休閒廣場,金山區,五湖里,新北市金山區五湖里南勢53號1F,25.221304,121.629054
公館崙公園,金山區,五湖里,新北市金山區龜子山路,25.213635,121.634144
犀牛綠地 ,金山區,五湖里,新北市金山區五湖里陽金公路旁,25.219215,121.620699
豐漁里綠地,金山區,豐漁里,新北市金山區豐漁里民生路巷號208對面,25.222414,121.647566
磺港綠地 ,金山區,磺港里,新北市金山區磺港里磺港路,25.22767,121.645102
虎豹獅象綠地,金山區,豐漁里,新北市金山區民生路(中山公園停車場斜對面),25.221025,121.642493
迴旋穿透綠地,金山區,大同里,新北市金山區民生路及公園路交叉口,25.221316,121.642816
飛撲綠地,金山區,清泉里,中山路與環金路口,25.21761,121.641668
流蘇公園,金山區,美田里,新北市金山區三民街與八德街交叉處,25.223078,121.634538
櫻花公園,金山區,大同里,新北市金山區和平里民生路67號後方,25.22007,121.640535
杜鵑公園,金山區,金美里,新北市金山區信義路,25.220101,121.636428
櫻花綠地,金山區,和平里,新北市金山區中山路８８號左後方公園,25.218593,121.641545
萬里觀光公園,萬里區,中幅里,中萬里加投段中幅子小段,25.173917,121.683306
獅子公園,萬里區,萬里里, 207台灣新北市萬里區北部濱海公路,25.174667,121.706056
野柳休閒公園,萬里區,野柳里,新北市萬里區野柳里港東路,25.204611,121.688222
瑪鋉公園,萬里區,萬里里,瑪鍊路60-1號對面 ,25.175583,121.690028
翡翠灣涼亭,萬里區,龜吼里,新北市207萬里區龜吼里,25.185182,121.685032
圓潭溪步道,萬里區,磺潭里,新北市207萬里區磺潭里,25.200581,121.646113
員潭溪廣場,萬里區,大鵬里,大鵬段13-2號,25.2216,121.64772
加投路涼亭,萬里區,大鵬里,大鵬里 207新北市萬里區,25.217744,121.645638
下社大鵬里下寮涼亭,萬里區,大鵬里,大鵬里 207新北市萬里區,25.215175,121.647866
螃蟹主題公園,萬里區,龜吼里,新北市萬里區龜吼里,25.205389,121.683583
瑪鋉運動公園,萬里區,萬里里,新北市萬里區獅頭路,25.17523,121.69022
萬里幸福廣場,萬里區,萬里里,207新北市萬里區獅頭路15-8號(周邊),25.180092,121.698894
烏來原住民主題公園,烏來區,烏來里,新北市烏來區西羅岸段 911地號,24.849375,121.549776
七虎公園,台北市,長安里,育仁路108號（薇閣小學旁）,25.13649941,121.5020599
七星公園,台北市,長安,光明路、中山路交叉口（新北投捷運站）,25.13661957,121.5030212
八仙公園,台北市,八仙,公館路423巷8弄,25.120286,121.502916
大豐公園,台北市,清江里,公館路13號旁,25.13194084,121.5037308
中央簡易公園,台北市,中央里,大興街與中央南路二段6巷口,25.12809944,121.4999237
中庸1號公園,台北市,中庸里,位於北投區中庸里雙全街50號對面,25.13804054,121.5012436
丹鳳公園,台北市,奇岩里,公館路255巷19弄旁,25.1264801,121.5109787
公館公園,台北市,奇岩里,奇岩新社區(公三),25.12799072,121.5064316
天狗庵遺址,台北市,溫泉,溫泉路73巷(天狗庵舊址),25.13592911,121.5066681
文化一號公園(施工中111/5~111/12),台北市,文化里,位於北投區文化里中央北路二段文化國小對面,25.136535,121.496462
文化二號公園(施工中111/5~111/12),台北市,文化里,位於北投區文化里中央北路一段228巷,25.13643074,121.4968414
文化三號公園,台北市,文化里,中央北路二段68巷進入(42巷11弄旁),25.13769913,121.4947128
北投258號綠地(承德4號),台北市,建民里,承德路六段與福國路交叉口，北投士林科技園區(綠4，區段徵收),25.1019,121.51245
北投二號公園,台北市,林泉里,中山路2號,25.13705,121.508221
北投公園,台北市,"長安里,林泉里,溫泉里",北投區中山路、光明路所圍範圍,25.13656044,121.5047302
北投社三層崎公園,台北市,秀山里,北投區秀山路50號旁,25.14574,121.491156
石牌公園,台北市,"尊賢里,吉利里",石牌路一段39巷內,25.11635971,121.5103607
立農公園,台北市,立農里,承德路七段378號,25.11878967,121.5035095
吉利公園,台北市,立農里,位於北投區立農里吉利街179號旁,25.11901093,121.5083695
同德公園,台北市,永欣里,位於北投區永欣里同德街27巷19號對面,25.12507057,121.5294495
地熱谷公園,台北市,林泉里,臺北市北投區中山路30-1號(中山路與溫泉路交口),25.13755989,121.5109787
行義公園,台北市,"永和里,永欣里",石牌路二段343巷8號,25.1253891,121.5252304
奇岩一號公園,台北市,奇岩里,臺北市北投區磺港路208號(奇岩新社區公一),25.128339,121.503698
奇岩二號公園,台北市,奇岩里,臺北市北投區216號(奇岩新社區公二),25.12649918,121.5036926
奇岩三號公園,台北市,奇岩里,奇岩新社區(公四),25.12598038,121.5052185
東華公園,台北市,東華里,東華街二段300巷19號對面,25.12183952,121.5070725
林泉公園,台北市,林泉,溫泉路168號旁,25.14133,121.51482
知行公園,台北市,關渡里,位於北投區關渡里知行路225巷,25.11973,121.4666519
長安公園,台北市,長安里,育仁路109號對面(薇閣國小旁),25.13555908,121.5001602
前山公園,台北市,湖山里,臺北市北投區建國街4號旁及紗帽路117號對面,25.15057652,121.5484437
建民公園,台北市,建民里,文林北路16巷7號對面,25.104744,121.519809
泉源47號公園,台北市,泉源里,泉源路80號對面山腳下,25.14209938,121.5124588
泉源48號公園,台北市,泉源里,北投珠海路120號附近,25.14193916,121.5071564
洲美(公4)公園,台北市,洲美里,洲美街122號,25.100089,121.506347
洲美蜆仔港公園,台北市,建民里,台北市士林區承德路六段329號,25.10099711,121.5111864
致遠公園,台北市,榮光里,位於北投區榮光里致遠一路二段自強市場旁,25.11127091,121.5150528
重三公園,台北市,稻香里,新興路與重三路交叉口(重三新村八期重劃)政校後勤區,25.14015961,121.4892883
振華公園,台北市,振華里,位於北投區振華里振華街24號對面,25.11516953,121.5188522
振興公園,台北市,榮華里,天母西路與磺溪交叉口,25.11821938,121.5230408
桂花公園,台北市,林泉,中山路5-7號(林泉里辦公處旁),25.13791084,121.5102234
桃源公園,台北市,桃源里,中央北路三段148巷底,25.13806915,121.4827576
健行公園,台北市,東華里,位於北投區東華里致遠三路147巷二弄內,25.1212101,121.5088272
崇仰公園,台北市,奇岩里,崇仰一路、公館路225巷底,25.12609,121.51106
清江一公園,台北市,清江里,位於北投區清江里崇仁路一段154號對面,25.1239109,121.5024796
清江二公園,台北市,清江里,位於北投區清江里崇仁路1段154號旁,25.12368012,121.5018921
軟橋公園,台北市,建民里,台北市北投區文林北路53巷51號,25.103102,121.517613
復興公園,台北市,中心里,北投中和街200號,25.1396904,121.5032272
開明公園,台北市,"中心里,開明",珠海路112號附近,25.14113045,121.5053177
陽明公園,台北市,湖山里,臺北市北投區湖山路二段,25.15901675,121.5390112
新興公園,台北市,稻香里,新興路145號旁(六期重劃),25.13934,121.48703
溫泉綠地,台北市,林泉,溫泉路137號旁,25.138933,121.512342
聖景一公園,台北市,關渡里,聖景路100號內,25.12045,121.46351
聖景二公園,台北市,關渡里,聖景路101號旁,25.12038,121.46381
聖景三公園,台北市,關渡里,聖景路100號內,25.12046,121.46382
榮光公園,台北市,榮光里,位於北投區榮光里石牌路1段石牌國中對面,25.11472,121.51429
榮富公園,台北市,榮華里,榮華三路及磺溪旁(過天母橋),25.1142292,121.5247269
榮華公園,台北市,榮華里,明德路150巷3弄,25.11054993,121.5219879
福星(公1)公園,台北市,福興里,文林北路255號,25.108828,121.512326
稻中公園,台北市,稻香里,中央北路二段334號旁(政校後勤區),25.13862991,121.4892807
稻香公園,台北市,稻香里,位於北投區稻香里新興路72號對面,25.14094925,121.4885788
線形公園-芝山明德段,台北市,裕民里,北投區線形公園東華街一段,25.1123725,121.51714
學園公園,台北市,一德里,學園路、藝術大學門口旁,25.1282692,121.4663467
磺港公園,台北市,清江里,磺港路大興街交口,25.130512,121.50446
豐年公園,台北市,豐年里,位於北投區豐年里中央北路大業路口,25.13600922,121.4966583
關渡公園,台北市,關渡里,知行路210巷底,25.11973,121.46369
觀海公園,台北市,關渡里,中央北路4段601巷附近,25.12358093,121.4634476
嗄嘮別公園,台北市,桃源里,中央北路三段、桃源國小東北側,25.14035034,121.4844208
大業綠地(北投163號),台北市,"中央里,大同里,八仙里,豐年里",大業路西側大度路口起延伸至大業路517巷旁田埂路,25.13624001,121.4905396
中和綠地,台北市,中和里,中和街363號附近,25.14188004,121.4988022
天溪綠地,台北市,永和,行義路58巷33號附近,25.13519,121.5301
文化綠地,台北市,文化里,大業路、永興路一段交叉口,25.137449,121.498406
北投106號綠地,台北市,裕民里,建明路165之1及明德路旁(石牌綠地系統),25.11108208,121.5209045
北投120號綠地,台北市,"立農里,八仙里",承德路七段400號前(公館路至磺港溪間),25.120132,121.501115
北投121號綠地,台北市,立賢里,承德路七段214號前東側,25.11664009,121.5049896
北投122號綠地,台北市,吉慶里,承德路七段168號旁前東側,25.11306953,121.5089264
北投123號綠地,台北市,"立農里,八仙里",承德路七段前西側(尊賢街267巷口對面起迄立農公園對面),25.117135,121.503849
北投124號綠地,台北市,"建民里,吉慶里,福興里,立賢里",承德路六段到承德路七段(福國路口起迄立賢西路口間)前西側,25.114865,121.506329
北投135號綠地,台北市,福興里,承德路七段上(32巷至石牌路一段間),25.11183929,121.5103073
北投138號綠地,台北市,立賢里,承德路七段右側，立賢路南側,25.11441994,121.502739
北投139號綠地,台北市,立賢里,承德路七段右側，立賢路北側,25.11502075,121.5031281
北投160號綠地,台北市,豐年里,大業路二段533-545號前,25.135316,121.496586
北投161號綠地 (田心仔綠地),台北市,豐年里,中央北路二段257巷東側，大業路525巷6弄旁,25.13513947,121.4949265
北投164號綠地,台北市,大同里,大業路東側，十信工高旁,25.13344955,121.4959793
北投165號綠地,台北市,大同里,大業路452巷,25.13175964,121.4962387
北投166號綠地,台北市,大同里,大業路東側,25.13051033,121.496872
北投167號綠地,台北市,中央里,大業路400號東側,25.128405,121.497707
北投168號綠地,台北市,八仙里,大業路50號東側,25.12437058,121.4991913
北投169號綠地,台北市,八仙里,大度路一段，承德路口南側,25.12072,121.499533
北投181號一德綠地,台北市,一德里,大度路三段，中央北路四段(萬善宮旁),25.12393951,121.4647675
北投182號綠地,台北市,一德里,大度路三段274號北側,25.12339973,121.4677277
北投183號綠地,台北市,一德里,大度路三段北側,25.12301064,121.4718628
北投185號綠地,台北市,關渡里,大度路三段南側(關渡派出所後),25.123425,121.464987
北投186號綠地,台北市,關渡里,大度路三段南側，知行路314號旁,25.12302971,121.4665299
北投187號綠地,台北市,關渡里,大度路三段南側,25.12290955,121.4682922
北投188號綠地,台北市,關渡里,大度路三段南側,25.12274933,121.4705582
北投191號綠地,台北市,"八仙里,一德里",大度路二段北側,25.12248993,121.4808426
北投192號綠地,台北市,八仙里,大度路二段南側,25.12208939,121.4809113
北投203號綠地,台北市,八仙里,公館路423巷11-17號前(區段徵收),25.12065,121.5031
北投257號綠地(承德3號),台北市,建民里,承德路六段上，北投士林科技園區(綠3，區段徵收),25.10442,121.512199
北投39號綠地,台北市,關渡里,聖景路140~150號前,25.121984,121.462777
北投62號綠地,台北市,"清江里,奇岩里",磺港路上(清江路177巷口至清江路113巷口),25.129382,121.503215
北投63號綠地,台北市,"清江里,奇岩里",磺港路上(三合橋旁至清江路177巷口),25.12759018,121.5033417
北投64號綠地,台北市,"清江里,奇岩里",磺港路上(崇仁路一段131巷口至三合橋旁),25.126383,121.503285
北投65號綠地,台北市,"清江里,奇岩里",磺港路上(崇仁路一段155巷口至131巷口),25.1246891,121.5030518
北投66號綠地,台北市,八仙里,磺港路上(崇仁路一段155巷口兩側),25.12373924,121.5029602
北投69號綠地,台北市,奇岩里,崇仰一路11號旁,25.12602043,121.5120392
北投90號綠地,台北市,振華里,石牌路二段臺北護理大學圍牆外(榮總對面),25.11861992,121.5203323
北投91號綠地,台北市,榮華里,石牌路二段上振興街口與天母西路口間(榮總急診入口處對面),25.11903,121.521637
北投92號綠地,台北市,永欣里,石牌路二段與天母西路、天母西路130巷間,25.11926079,121.5222778
北投98號綠地,台北市,"永明里,振華里",石牌路二段上(東華街二段起至裕民三路口),25.11565971,121.5155029
永和綠地,台北市,永和里,行義路98號附近,25.12791061,121.5279312
永欣綠地,台北市,永欣里,石牌路二段371巷3號,25.12384,121.52695
安明綠地,台北市,長安里,光明路157巷2弄1號(七虎公園旁),25.135616,121.502133
奇岩4號綠地,台北市,奇岩里,三合路一段，清江國小旁。,25.12603951,121.5055466
忠義公園,台北市,一德里,台北市北投區中央北路四段32號旁,25.1350193,121.4779205
承仙綠地,台北市,八仙里,承德路7段.公館路交會東北側,25.11968041,121.5026321
明德公園,台北市,榮華,東華街一段10號附近,25.10725975,121.5209808
林投坑(一)綠地,台北市,"桃源里,豐年里,一德里",中央北路二段257號後(貴子坑溪至北投捷運機場北側),25.13674927,121.4893723
林投坑(二)綠地,台北市,"桃源里,豐年里,一德里",中央北路二段257號後(貴子坑溪至北投捷運機場南側),25.13651085,121.4890976
湖山綠地,台北市,湖山里,台北市北投區湖山路一段,25.1517873,121.5438304
番仔厝綠地,台北市,"大同里,豐年里",大業路525巷及517巷之間,25.13413048,121.495903
磅空頂綠地,台北市,關渡里,大度路三段301巷28弄底，馬偕護校東側(原北投第二號公墓),25.12298012,121.4650726
櫻花崗公園,台北市,永欣里,石牌路二段與天母北路交叉口,25.12349,121.52616
北投3號廣場,台北市,大同里,北投路二段，捷運北投站前廣場(捷運局82年代辦重建),25.13195992,121.4978409
41號公園,台北市,翠山里,中社路雙溪國小對面,25.10709,121.5644
士林官邸公園,台北市,福林里,中山北路5段378巷以北/福林路.中山北路交叉口右側(士林官邸),25.09490013,121.5301514
天母公園,台北市,天母里,臺北市士林區中山北路7段141巷旁,25.1259089,121.530518
天和一號公園,台北市,天和里,天母東路69巷口,25.11844,121.53471
天和公園,台北市,天和里,臺北市士林區天母東路69巷前,25.11981964,121.533989
天壽公園,台北市,天壽里,中山北路六段405巷右側,25.1140282,121.5256861
天壽綠地,台北市,天壽里,中山北路六段405巷右側,25.1140282,121.5256861
天壽綠地,台北市,天壽里,中山北路六段405巷右側.,25.1140282,121.5256861
天福二號公園,台北市,天福里,天母東路8巷25-1號對面,25.11709023,121.5316086
外雙溪公園,台北市,臨溪里,至善路2段284巷19號,25.10127068,121.5523911
仰德一號公園,台北市,岩山里,仰德大道1段2-1號,25.10007095,121.5377808
仰德二號公園,台北市,岩山里,仰德大道1段2-2號,25.09999085,121.5382767
名山公園,台北市,名山里,至誠路一段215號旁(雨農橋附近),25.10154915,121.5323715
至善公園,台北市,福林里,臺北市士林區福林路、至善路口東北側,25.09819031,121.5382919
至誠公園,台北市,岩山里,至誠路1段24號對面,25.10108948,121.5366821
至德園公園,台北市,臨溪里,至善路2段113巷,25.09840012,121.546402
住六(公一)公園,台北市,公館里,臺北市陽明山住六(公一)重劃區  臺北市士林區富館街附近,25.13691396,121.5594925
住六(公二)公園,台北市,公館里,陽明山6-6重劃區(臺北市士林區草東街附近),25.13760535,121.5576499
克強公園,台北市,蘭興里,臺北市士林區磺溪街55巷,25.10798596,121.521967
志成公園,台北市,福志里,臺北市士林區中正路與志成街交叉口,25.09669,121.53086
忠誠公園,台北市,名山里,臺北市士林區中山北路六段與忠誠路一段交叉口,25.10342026,121.5257416
承德公園,台北市,福德里,大南路138號對面,25.08966065,121.5219803
明勝公園,台北市,明勝里,承德路4段6巷56號旁,25.079968,121.519187
東和公園,台北市,天和里,臺北市士林區中山北路7段114巷旁,25.1226002,121.5336861
社子公園,台北市,社園里,臺北市士林區永平街20巷11弄3號對面,25.09037018,121.5060272
社子島福安里堤防綠地,台北市,福安里,延平北路7段106巷52弄口蹄側(士林社子島福安里堤防綠地),25.09814157,121.4964373
芝山公園,台北市,名山里,至誠路一段、雨聲街交叉口,25.10236931,121.5317764
花卉試驗中心,台北市,陽明里,臺北市士林區仰德大道4段175巷32號,25.13501543,121.5444106
前港公園,台北市,前港里,臺北市士林區前港街與華齡街交叉口,25.0860629,121.5201556
美崙公園,台北市,福佳里,臺北市士林區美崙街152巷,25.09737968,121.5172195
原住民文化主題公園,台北市,臨溪里,臺北市士林區至善路2段221號旁,25.10157013,121.5507507
海光公園,台北市,富光里,臺北市士林區環河北路三段與葫蘆街交口,25.08185005,121.5078812
基河公園,台北市,承德里,基河路14號對面,25.08003998,121.5240173
基隆河沖洗溝加蓋綠地,台北市,承德里,"承德路,後港街間(基隆河沖洗溝加蓋綠地).",25.08404923,121.5231628
華聲公園,台北市,福佳里,華聲街20號對面,25.09597969,121.5224915
華齡公園,台北市,承德里,承德路，後港街間,25.08404923,121.5231628
新佳公園,台北市,福佳里,文昌路179巷12號對面,25.09863091,121.5194931
福中公園,台北市,福中里,福港街107巷百齡國小附近,25.08791924,121.518837
福志公園,台北市,福志里,臺北市士林區忠勇街40巷20弄底,25.09905052,121.5340576
福林公園,台北市,福林里,中山北路與福林路交叉口,25.0958004,121.5294724
福華公園,台北市,福華里,通河街325巷北側,25.0821799,121.5189218
福順公園,台北市,福順里,延平北路5段136巷內,25.08234978,121.5111313
翠山公園,台北市,翠山里,中央社區翠山街與中社路二段口,25.10845,121.56995
德仁公園,台北市,德華里,文林路714巷內,25.10265923,121.5214615
德行公園,台北市,德行里,德行西路30號仰德活動中心旁,25.10511017,121.5236511
線形公園-前街,台北市,舊佳里,中正路236巷與前街交叉口(淡水捷運高架下方),25.097214,121.524831
線形公園-後街,台北市,舊佳里,文林路594巷與後街交叉口(淡水捷運高架下方),25.097214,121.524831
衛理兒童遊戲場,台北市,臨溪里,至善路二段332巷旁,25.10232925,121.5533066
磺溪公園,台北市,蘭興里,德行西路93巷底,25.10487938,121.5206299
雙溪公園,台北市,福林里,福林路至善路口東南側,25.09803963,121.5359192
蘭雅一號公園,台北市,蘭興里,臺北市士林區忠誠路2段24號旁,25.1099324,121.5291121
蘭雅公園,台北市,三玉里,臺北市士林區忠誠路2段32巷旁,25.109744,121.529919
蘭興公園,台北市,蘭興里,臺北市士林區克強路10巷底,25.111029,121.525193
209號綠地,台北市,福林里,中山北路五段東側5米綠帶(原203號公園區段徵收),25.09259987,121.5280685
士林116號綠地,台北市,後港里,承德路五段,25.09646034,121.5136032
士林117號綠地,台北市,福佳里,承德路五段,25.09703064,121.5139008
士林118號綠地,台北市,福佳里,基隆河廢河道，中正路北側,25.0931797,121.5194626
士林120號綠地,台北市,福德里,基隆河廢河道，中正路南側,25.09305954,121.5204468
士林121號綠地,台北市,後港里,承德路五段,25.0922699,121.5158081
士林128號綠地,台北市,前港里,前港街10號前,25.08466911,121.5223465
士林130號綠地,台北市,社新里,延平北路六段271-1號,25.08959961,121.5025864
士林131號綠地,台北市,社園里,"永平街46巷1弄,3弄間",25.0907898,121.5055924
士林132號綠地,台北市,"社園里,社子里",延平北路六段110巷,25.0906601,121.5068207
士林136號綠地,台北市,葫東里,百齡橋西側引道三角綠地,25.08691025,121.51091
士林139號綠地,台北市,葫蘆里,延平北路五段257巷41號前,25.08486939,121.509407
士林151號綠地,台北市,臨溪里,自強隧道綠地,25.09576035,121.548439
士林156號綠地,台北市,臨溪里,至善國中邊,25.103392,121.554827
士林173號綠地 (蘭興1號綠地),台北市,蘭興里,中山北路六段士東路口,25.1128006,121.5261993
士林179號綠地,台北市,名山里,芝山公園石頭公廟綠地,25.10433006,121.5294266
士林197號綠地,台北市,公館里,永公路245巷34弄,25.136188,121.558964
士林198號綠地,台北市,菁山里,中庸一路205巷底,25.141013,121.55392
士林199號綠地,台北市,"公館里,菁山里",永公路245巷34弄西側,25.1405201,121.5584564
士林200號綠地,台北市,菁山里,永公路245巷34弄東側,25.13698006,121.5616684
士林201號綠地,台北市,新安里,永公路245巷34弄西側(往閻錫山墓園小路兩旁),25.13364029,121.560669
士林206綠地(番仔田綠地),台北市,臨溪里,故宮路15巷底,25.09795952,121.548027
士林207綠地(番仔田小綠地),台北市,臨溪里,故宮路41巷底,25.0967598,121.5483933
士林208號綠地,台北市,福林里,"福林路,泰北中學旁",25.09733009,121.5337677
士林4號綠地,台北市,陽明里,凱旋路與格致路交叉口,25.13688088,121.5462723
士林68號綠地,台北市,福林里,福林路、至善路交叉口綠地,25.0990696,121.5364304
士林73號綠地 (天美綠地),台北市,天玉里,天母西路95巷,25.1215992,121.5259705
士林75號綠地,台北市,天母里,天玉街圓環,25.123203,121.529441
士林76號綠地,台北市,"天母里,天山里",天母派出所前圓環 (中山北路6段底),25.124725,121.532776
士林79號綠地,台北市,天壽里,中山北路六段405巷21號前.,25.11557961,121.5267792
士林80天壽二號,台北市,天壽里,中山北路六段左側，士東國小對面,25.11326027,121.5264206
士林89號綠地,台北市,忠誠里,德行東路104巷口,25.10577011,121.5289307
天福綠地,台北市,天福里,天母東路22巷23號對面,25.11675072,121.532547
永倫綠地,台北市,永倫里,倫等街,25.09152031,121.5005264
至臨綠地,台北市,臨溪里,外雙溪至善路二段290號,25.10429001,121.555603
東吳綠地,台北市,福林里,臨溪路旁,25.09658051,121.5427475
添壽一號綠地,台北市,天壽里,天母西路32巷底,25.11673927,121.5269013
聖山綠地,台北市,聖山里,忠義街，德行東路190巷交叉口,25.1068306,121.5323486
福文公園,台北市,福林里,中山北路五段441號,25.09065056,121.5272293
福德綠地,台北市,福順里,重慶北路四段1巷，高速公路交流道旁,25.07950974,121.512291
士林3號廣場,台北市,德行里,忠誠路中山北路六段交叉口西側,25.10453033,121.5246124
士林4號廣場,台北市,福林里,福林路與雨農路交叉口,25.09605026,121.5319901
天母廣場,台北市,"天山里,天玉里",中山北路與天母東.西路交接處,25.11874962,121.5300827
天生廣場,台北市,天母里,中山北路七段219巷旁,25.12619019,121.53125
一江公園,台北市,中吉里,一江街31號對面,25.05327988,121.5312576
八二三砲戰紀念公園,台北市,劍潭里,圓山飯店東側,25.07679939,121.5267716
力行三號公園,台北市,劍潭里,"通北街146巷,力行新村附近",25.08543015,121.5366898
下埤公園,台北市,下埤里,民族東路512巷內,25.06701088,121.5422821
下塔悠公園,台北市,金泰里,樂群一路旁，基隆河截彎取直範圍內(平均地權基金),25.07692909,121.5595627
上塔悠公園,台北市,成功里,樂群一路旁，基隆河截彎取直範圍內(平均地權基金),25.07751083,121.552002
大佳社區公園,台北市,大佳里,濱江街154巷對面（高速公路旁）,25.07275009,121.5376587
大直公園,台北市,大直里,北安路621巷30號邊,25.08271027,121.5472794
中427公園,台北市,成功里,敬業三路與樂群二路交會口,25.0803299,121.5559921
中428公園,台北市,成功里,樂群二路30巷內,25.078447,121.553485
中429公園,台北市,成功里,樂群二路116巷旁,25.078469,121.555858
中430公園,台北市,金泰里,基湖路120巷30弄1至7號對面,25.07829094,121.5620804
中431公園,台北市,金泰里,基湖路151巷46弄對面,25.07740021,121.5652084
中山21號廣場,台北市,金泰里,"樂群二路旁,基隆河截彎取直範圍內",25.0807991,121.556282
中吉公園,台北市,中吉里,松江路170巷內,25.05636025,121.5318375
中安公園,台北市,中山里,中山北路2段65巷2弄內,25.05648994,121.5239868
中安公園 A,台北市,中山里,中山北路2段65巷2弄內,25.05648994,121.5239868
中原公園,台北市,中原里,吉林路144巷與中原街交口處,25.05581093,121.5285873
仁德公園,台北市,中原里,吉林路108巷吉林國小附近,25.0531807,121.5290833
四平公園,台北市,中央里,松江路123巷內,25.05323029,121.5345078
正守公園,台北市,正守里,長安東路一段56巷,25.048051,121.528745
民享公園,台北市,集英里,民生西路45巷9弄內,25.0592308,121.5211105
永安公園,台北市,永安里,北安路518巷14弄內,25.07912064,121.5452118
永直公園,台北市,成功里,北安路608巷14弄1號,25.08147049,121.5505295
永靜公園,台北市,集英里,中山北路二段128巷內,25.06155968,121.5217819
伊通公園,台北市,朱園里,松江路85巷內,25.05015945,121.5347672
吉林公園,台北市,興亞里,吉林路14巷內,25.05082512,121.5289307
合江公園,台北市,江山里,合江街73巷口,25.05866051,121.5394821
朱昌公園,台北市,朱馥里,合江街58巷口,25.05545998,121.5388184
朱厝崙公園,台北市,朱崙里,龍江路21巷內,25.0475502,121.5410614
朱崙公園,台北市,力行里,龍江路45巷內,25.04933929,121.541687
江寧公園,台北市,江寧里,龍江路286巷,25.06122971,121.5394135
自強公園,台北市,大直里,大直街124巷內,25.086019,121.548603
明水公園,台北市,永安里,北安路538巷1弄1號前,25.07881928,121.5480576
林森公園,台北市,康樂里,南京東路一段、林森北路右側,25.05233955,121.5258713
松江公園,台北市,興亞里,松江路90巷,25.05036926,121.5324631
松錦1號公園,台北市,中庄里,民生東路二段127巷,25.060117,121.532404
松錦2號公園,台北市,中庄里,民生東路二段115巷25弄,25.059608,121.532089
直安公園,台北市,大直里,北安路573巷內,25.08119965,121.5478516
花博公園美術園區,台北市,圓山里,中山北路以東，民族東路以北 (原民族公園),25.07060051,121.5239563
花博公園圓山園區,台北市,圓山里,捷運圓山站以東、兒育中心以南、爭豔館以北、中山北路以西,25.07156944,121.5206223
花博公園新生園區,台北市,新庄里,新生北路三段105號.民族東路松江路間,25.06856918,121.5305023
金泰公園,台北市,金泰里,樂群一路旁，基隆河截彎取直範圍內(平均地權基金),25.076495,121.565167
建興公園,台北市,朱崙里,八德路二段167巷內,25.04714966,121.5381775
培英公園,台北市,大直里,北安路501巷實踐大學前,25.08226967,121.5449829
康樂公園,台北市,康樂里,南京東路一段、林森北路左側,25.05340958,121.5251465
復華公園,台北市,復華里,龍江路114巷內,25.0531292,121.5396805
晴光公園,台北市,恆安里,"雙城街7,13及10巷口",25.06389999,121.5245667
華山公園,台北市,正守里,市民大道二段上,25.047745,121.525861
進安公園,台北市,埤頭里,八德路二段146巷內,25.04586983,121.537468
集英公園,台北市,集英里,中山北路三段36巷14弄,25.065402,121.521344
圓山自然景觀公園,台北市,圓山里,台北市中山區玉門街33號,25.075055,121.52233
敬業公園,台北市,北安里,北安路821巷4弄,25.085728,121.556045
新喜公園,台北市,新喜里,吉林路393巷內,25.06542969,121.5321884
新祿公園,台北市,新庄里,新生北路3段87巷內,25.06715965,121.5296478
新壽公園,台北市,新福里,吉林路301號對面,25.06331062,121.5299225
新興公園,台北市,聚葉里,中山北路二段137巷內,25.06151962,121.5246506
農安公園,台北市,行政里,農安街227巷3弄底,25.06528091,121.5352631
榮星花園公園,台北市,行仁里,榮星花園舊址，民權東路建國北路,25.06265068,121.5404968
聚葉公園,台北市,聚葉里,新生北路二段與錦州街交口(錦州橋下),25.060496,121.527236
劍潭公園,台北市,劍潭里,圓山飯店西側，中山北路四段,25.080108,121.524598
德惠公園,台北市,新喜里,吉林路461巷內,25.06748962,121.5315628
撫順公園,台北市,集英里,中山北路三段大同公司前,25.064579,121.52199
興安公園,台北市,朱馥里,遼寧街170巷,25.05567932,121.5417786
興亞公園,台北市,興亞里,長安東路二段36巷內,25.04738045,121.531601
興國公園,台北市,復華里,遼寧街116巷旁,25.0531,121.541941
遼寧公園,台北市,復華里,遼寧街185巷口,25.05360031,121.5423126
錦北公園,台北市,松江里,錦州街275號旁,25.06048966,121.5358276
錦州公園,台北市,新生里,錦州街138號對面,25.06061935,121.5293198
龍江公園,台北市,江山里,龍江路271巷,25.05982018,121.54216
雙城公園,台北市,圓山里,"雙城街40,46及37,43巷口",25.06731033,121.5240173
力行1號綠地,台北市,劍潭里,通北街65巷，大直圓山二村，力行新村附近,25.08410072,121.5388718
力行2號綠地,台北市,劍潭里,大直圓山二村，通北街118巷內,25.08334923,121.5379334
中山129號綠地,台北市,復華里,中山區復華里龍江路118號,25.05372047,121.5396729
中山161號綠地,台北市,劍潭里,北安路忠烈祠圓環,25.07806969,121.5331574
中山240號綠地,台北市,"成功里,大直里,北安里",北安路自強隧道口右側,25.08696938,121.5495987
中山381號綠地,台北市,永安里,北安路538巷口,25.07959938,121.5472031
中山411號綠地,台北市,金泰里,"敬業三路旁,基隆河截彎取直範圍內",25.0832901,121.5564499
中山412號綠地,台北市,金泰里,"敬業三路旁,基隆河截彎取直範圍內",25.08230019,121.5564575
中山413號綠地,台北市,成功里,"敬業三路旁,基隆河截彎取直範圍內",25.08332062,121.5561981
中山414號綠地,台北市,成功里,"敬業三路旁,基隆河截彎取直範圍內",25.08126068,121.5561676
中山415號綠地,台北市,成功里,"樂群二路旁,基隆河截彎取直範圍內",25.08012009,121.5526276
中山416號綠地,台北市,成功里,"樂群二路旁,基隆河截彎取直範圍內",25.0800705,121.553772
中山417號綠地,台北市,成功里,"樂群二路旁,基隆河截彎取直範圍內",25.0800705,121.5552597
中山418號綠地,台北市,金泰里,"樂群二路旁,基隆河截彎取直範圍內",25.08005905,121.5573731
中山419號綠地,台北市,金泰里,"樂群二路旁,基隆河截彎取直範圍內",25.08003998,121.5593414
中山420號綠地,台北市,金泰里,"樂群二路旁,基隆河截彎取直範圍內",25.08004952,121.560997
中山421號綠地,台北市,金泰里,"樂群二路旁,基隆河截彎取直範圍內",25.08037949,121.5621719
中山422號綠地,台北市,成功里,"樂群二路旁,基隆河截彎取直範圍內",25.07986069,121.552742
中山423號綠地,台北市,成功里,"樂群二路旁,基隆河截彎取直範圍內",25.07983971,121.5538025
中山424號綠地,台北市,成功里,"樂群二路旁,基隆河截彎取直範圍內",25.07983971,121.5549164
中山425號綠地,台北市,成功里,"樂群二路旁,基隆河截彎取直範圍內",25.07983971,121.5558167
中山426號綠地,台北市,金泰里,"樂群二路旁,基隆河截彎取直範圍內",25.08011055,121.5622177
長春綠地,台北市,復華里,中山區復華里南京東路3段89巷27弄,25.05290031,121.5380096
中山4號廣場,台北市,康樂里,中山區康樂里中山北路2段41號,25.0526104,121.5205231
九華公園,台北市,西安里,內湖路一段91巷39弄35-1號,25.08859062,121.5613785
下灣公園,台北市,寶湖、石潭,內湖成功路二段189號旁,25.06681061,121.5906982
上灣公園,台北市,石潭里,民權東路六段210巷43號旁,25.06546021,121.5958405
大坑公園,台北市,寶湖里,民權東路六段191巷50號對面,25.069037,121.598706
大港墘公園,台北市,港墘里,台北市內湖區港墘里瑞光路393號,25.0774149,121.5729968
大湖公園,台北市,秀湖里,成功路五段31號,25.082976,121.602695
山腳公園,台北市,港富里,環山路三段18號對面,25.08408928,121.5799027
五分公園,台北市,五分里,安康路448號對面,25.0671196,121.6147919
內湖125號公園,台北市,五分里,南湖大橋東側與中山高速公路南側,25.06469917,121.6112595
文心公園,台北市,湖元里,新湖二路及新湖三路交接處,25.06545067,121.5841827
文湖公園,台北市,西安里,內湖路1段91巷35弄40號對面,25.087427,121.560993
文德3號公園,台北市,瑞光、瑞陽、港墘,內湖文德路50號至江南街71巷16弄,25.07509041,121.5771179
文德二號公園,台北市,瑞陽里,文德路208巷旁,25.07785988,121.5837402
仙樹公園,台北市,西湖里,環山路1段59巷14弄2號對面,25.08560944,121.5690002
北勢湖公園,台北市,西康里,內湖路一段66號旁(環保公園),25.08374977,121.5616837
安泰公園,台北市,安泰里,安泰街45巷11弄旁,25.07408905,121.6186371
安康公園(下),台北市,五分、南湖,康寧路三段220號南湖高中旁,25.06720924,121.6106186
安康公園(上),台北市,"五分里,南湖里",康寧路三段245巷42號前,25.06712914,121.612381
安湖三號公園,台北市,安湖里,東湖路113巷49弄5號前,25.07041931,121.6156921
安湖公園,台北市,東湖、樂康、康寧、明湖、安湖、安泰,東湖路113巷141號前,25.07402039,121.6154175
行善公園,台北市,行善里,南京東路六段32號旁,25.0532608,121.5755768
西安公園,台北市,西安里,環山路一段136巷10弄10號對面,25.08745003,121.567482
西安廣場,台北市,西安里,臺北市內湖區文湖街21巷20號對面,25.08675957,121.5608521
西康二號公園,台北市,西康里,內湖路1段203巷25號,25.08498001,121.5639267
西康公園,台北市,西康里,內湖路一段217巷旁,25.08312035,121.5643921
西湖公園,台北市,麗山里,內湖路一段387巷3弄5-11號旁(恕德家商旁),25.08361054,121.5703888
扶輪親恩公園,台北市,湖元里,民權東路六段30號旁,25.06670952,121.5797501
明美公園,台北市,石潭里、週美里,南京東路六段北側（羊稠小段五期重劃區）,25.06221962,121.5861969
東湖一號公園,台北市,康寧里,康寧路三段189巷163弄17號前,25.07559967,121.6121368
東湖二號公園,台北市,康寧里,康寧路三段99巷39弄27號前,25.07389069,121.6109238
東湖四號公園,台北市,東湖里,康樂街110巷16弄20號(康樂派出所前),25.07044983,121.6180801
金瑞公園,台北市,金瑞里,金龍路213巷1弄28號前,25.08795929,121.5879517
金龍公園,台北市,金龍里,金龍路112巷旁(碧湖國小旁),25.08543218,121.590799
長青公園,台北市,港富里,內湖路二段103巷34號旁,25.0809803,121.5817413
南湖一號公園,台北市,南湖里,康寧路三段180巷22號對面(環保公園),25.06913948,121.6110916
洲子1號公園,台北市,西康里,臺北市內湖堤頂大道、基湖路交叉口（環保公園、六期重劃）,25.07957077,121.5643387
美善公園,台北市,週美里,行善路59巷20弄2號旁,25.05699921,121.5785828
畚箕湖公園,台北市,西康里,文湖街21巷84至90號對面,25.089436,121.560064
康湖二號公園,台北市,金湖里,成功路五段450巷23弄23號旁,25.074042,121.6088
康湖公園,台北市,金湖里,成功路五段420巷30號旁,25.07468033,121.6087265
康寧公園,台北市,南湖里,民權東路六段296巷121號對面,25.0689106,121.6095886
清白公園,台北市,清白里,成功路四段167巷16號對面（康寧國小旁）,25.08169937,121.5952835
港都公園,台北市,港都里,港華街40號旁(麗山國中後),25.0827198,121.5752335
港華一號公園,台北市,港華里,環山路二段50巷2號旁,25.087734,121.573586
港華二號公園,台北市,港華里,環山路二段50巷11號旁,25.08778954,121.5738373
港華三號公園,台北市,港華里,環山路二段68巷14號麗山活動中心旁,25.0866909,121.575058
港華六號公園,台北市,港華里,港華街85巷21號前,25.08426094,121.5746231
港華四號公園,台北市,港華里,環山路二段68巷14號對面,25.08653069,121.5752792
港墘公園,台北市,港都里,內湖路一段667巷9號之1,25.080978,121.576437
游美公園,台北市,石潭里,民權東路六段206巷143弄底,25.06459999,121.5971985
湖山9號公園,台北市,大湖里,大湖山莊街42-56號間,25.08522034,121.6035004
湖山八號公園,台北市,大湖里,大湖山莊街25號旁,25.08391953,121.6032715
湖山三號公園,台北市,大湖里,大湖山莊街65巷北側,25.08716011,121.6044693
湖山五號公園,台北市,秀湖里,大湖街158巷39號旁,25.08157921,121.6008377
湖山六號公園,台北市,秀湖里,大湖街166巷24號對面(大湖派出所後方),25.08309937,121.6018601
湖山四號公園,台北市,秀湖里,大湖街160巷18弄2號對面,25.08270073,121.6007538
湖元公園,台北市,湖元里,民權東路六段120巷3弄1號對面,25.06822968,121.5870209
湖畔公園,台北市,大湖里,大湖山莊街177巷1號對面,25.088247,121.601473
湖聖公園,台北市,寶湖里,民權東路六段123巷20弄23號前,25.06977081,121.5917664
湖興公園,台北市,湖興里,成功路二段312巷62號對面,25.06693077,121.589592
湖寶公園,台北市,寶湖里,民權東路六段228號西側,25.0666008,121.5995636
週美綠地,台北市,行善里,臺北市內湖區新明路298巷以西至基隆河堤防,25.0564003,121.5819016
陽光公園,台北市,紫陽里,陽光街68巷口北側,25.076736,121.586719
新明公園,台北市,行善里,新明路428巷13號對面,25.05413055,121.5788117
煙波庭公園,台北市,秀湖里,大湖街131巷18弄61號對面,25.08633995,121.5992508
瑞光公園,台北市,瑞光里,瑞光路132巷旁內（六期重劃區）,25.07118034,121.5776825
瑞湖公園,台北市,湖元里,民權東路六段19巷底,25.06930924,121.576889
瑞陽公園,台北市,瑞陽里,文德路22巷10號對面,25.077689,121.579223
碧山公園,台北市,碧山里,內湖路三段60巷10號前,25.08708,121.5919571
碧湖公園,台北市,湖濱里,內湖路二段175號，國立臺灣戲曲學院旁,25.08218956,121.5842896
福壽公園,台北市,清白里,星雲街150巷18號旁,25.07980919,121.5965576
翠湖公園,台北市,大湖里,大湖山莊街117號至147號後面,25.08626,121.602107
樂活公園,台北市,"樂康里,五分里",康樂街61巷15弄旁,25.068244,121.618814
樂康公園,台北市,樂康里,康樂街61巷73弄24號對面,25.07007027,121.620697
環東公園,台北市,行善里,南京東路六段北側與堤頂大道交叉口,25.04372978,121.5429306
麗湖公園,台北市,金湖里,金湖路363巷67弄63號對面(四期重劃),25.073539,121.599282
寶湖公園,台北市,五分里、葫洲里,民權隧道西側(民權東路六段),25.067328,121.598514
內湖110號綠地,台北市,湖元里,臺北市內湖區瑞光路112巷及76巷旁(六期重劃),25.07122994,121.5800705
內湖117號綠地,台北市,大湖里,臺北市內湖區大湖山莊街與成功路5段交叉口、大湖設區國宅,25.08326912,121.6018524
內湖119號安興綠地,台北市,行善里,位於南京東路6段北側，安興街南側,25.0576992,121.5836716
文德1號綠地,台北市,港富里,臺北市內湖區文德路1號-91號間,25.07859039,121.5842133
石潭公園,台北市,石潭里,內湖成功路二段東側（麥帥公路兩側）,25.06311989,121.5932083
康樂綠地,台北市,內溝里,臺北市內湖區康樂街191巷旁,25.07490921,121.6206131
港華5號綠地,台北市,港華里,臺北市內湖區環山路2段62號對面,25.08544922,121.5742874
湖興綠地,台北市,湖興里,臺北市內湖區成功路2段312巷27號旁,25.06893921,121.5908966
紫陽綠地,台北市,紫陽里,臺北市內湖區陽光街55號、內湖高中後面,25.07641029,121.5867996
潭美公園,台北市,週美里,新明路298巷16弄起至成功路2段潭美國小旁,25.05701065,121.5816803
麗湖綠地,台北市,金湖里,金湖路363巷51弄口,25.073374,121.600509
治磐廣場,台北市,西湖里,臺北市內湖區內湖路1段285巷8弄2號旁,25.08272934,121.5663071
港富廣場,台北市,港富里,臺北市內湖區內湖路1段715巷旁,25.08029938,121.5781174
灣仔廣場,台北市,湖興里,臺北市內湖區成功路2段324巷4號旁,25.06893921,121.5908966
大同公園,台北市,國慶里,延平北路三段99巷,25.06797981,121.512001
大稻埕公園,台北市,大有里,歸綏街241號隔壁,25.05866051,121.5103684
大龍公園,台北市,至聖里,大龍街244號旁,25.07024002,121.5155792
玉泉公園,台北市,玉泉里,西寧北路28號,25.04993057,121.5076523
至聖公園,台北市,至聖里,承德路三段210號,25.07118988,121.5176926
忠和公園,台北市,大有里,歸綏街250巷,25.0578804,121.5086136
哈密公園,台北市,重慶里,哈密街59巷,25.074846,121.515594
建成公園,台北市,光能里,承德路二段35號旁,25.0540905,121.5182266
迪化公園,台北市,鄰江里,迪化街二段243巷,25.07110977,121.5120087
國順公園,台北市,國順里,大同區昌吉街131巷西側,25.066222,121.510025
景化公園,台北市,隆和里,伊寧街9巷,25.06535912,121.5127411
朝陽公園,台北市,朝陽里,重慶北路2段70巷旁,25.05595,121.51313
塔城公園,台北市,玉泉里,塔城街7號旁,25.05072022,121.5108032
蔣渭水紀念公園,台北市,雙連里,錦西街51號對面,25.05970955,121.516777
歸綏戲曲公園,台北市,延平里,重慶北路2段與歸綏街口,25.05797005,121.513092
蘭州公園,台北市,蓬萊里,蘭州街89巷,25.06395912,121.5153809
大同249綠地,台北市,老師里,大同區老師里迪化街364巷西北側,25.07743073,121.5114594
大同250綠地,台北市,老師里,大同區老師里迪化街364巷東南側,25.07722092,121.5098572
大同251綠地,台北市,老師里,大同區老師里環河北路敦煌路口三角綠地,25.07838059,121.5118485
敦煌1號綠地,台北市,重慶里,大同區重慶里重慶北路3段交流道旁,25.0747509,121.5162888
敦煌2號綠地,台北市,老師里,大同區老師里敦煌路125號慶昌橋旁,25.07696915,121.5164414
大同16號廣場,台北市,永樂里,大同區永樂里環河北路與民生西路口,25.05637932,121.5086136
大稻埕廣場,台北市,永樂里,大同區永樂里永昌街與迪化街口之霞海城隍廟前,25.05500031,121.5095367
六藝廣場,台北市,保安里,大同區保安里孔廟西北側及保安宮南側道路,25.07468987,121.5150528
太原廣場,台北市,建明里,大同區建明里鄭州路與太原路口左右兩側廣場,25.04747963,121.5166397
永樂廣場,台北市,永樂里,大同區永樂里迪化街永樂市場,25.0546608,121.5096588
保安廣場,台北市,保安里,大同區保安里庫倫街55巷旁(北側),25.07055092,121.5189285
建成圓環,台北市,建功里,南京西路與重慶北路口東南側,25.0527604,121.5142952
八德公園,台北市,中崙里,八德路二段366巷21之1號前,25.04693031,121.5457077
中華公園,台北市,中華里,健康路15巷口,25.053527,121.552484
民有一號公園,台北市,民有里,敦化北路244巷31號前,25.06077004,121.5474014
民有二號公園,台北市,民有里,民生東路三段113巷14號前,25.05964088,121.5463181
民有三號公園,台北市,民有里,民生東路三段127巷14號前,25.05862045,121.5476227
民福綠地,台北市,民福里,民族東路763號對面,25.06276,121.54879
民權公園,台北市,東榮里,富錦街359巷2弄，民權國小旁,25.06191063,121.5591736
吉仁公園,台北市,吉仁里,八德路3段、延吉街口,25.0478096,121.5534821
吉祥公園,台北市,吉祥里,八德路四段245巷52弄至56弄間,25.0505333,121.5640488
安平公園,台北市,安平里,南京東路五段251巷32弄8號旁,25.05302048,121.5644913
西松公園,台北市,安平里,三民路、健康路口,25.05368996,121.5641327
延壽一號公園,台北市,介壽里,光復北路165巷17號前,25.05763054,121.5563507
延壽二號公園,台北市,精忠里,民生東路四段56巷3弄20號前,25.05735016,121.5527573
延壽三號公園,台北市,精忠里,敦化北路199巷5號前,25.05686951,121.5518036
松基公園,台北市,松基里,興安街174巷旁,25.055369,121.545445
松榮公園,台北市,東榮里,光復北路及富錦街交接處,25.060208,121.555107
長壽公園,台北市,東光里,健康路174號旁,25.05336952,121.5589218
美仁一號公園,台北市,美仁里,南京東路四段52巷14號前,25.05014992,121.5534592
美仁二號公園,台北市,美仁里,八德路三段99巷12∼18號前,25.04949951,121.553421
健康公園,台北市,安平里,健康路、松山變電所旁,25.05411911,121.5688705
婦聯公園,台北市,龍田里,延壽街330巷20弄,25.05468941,121.5597305
富民生態公園,台北市,富錦里,新東街41之7號,25.06015015,121.5643387
富錦一號公園,台北市,東榮里,民生東路五段69巷2弄旁,25.05888939,121.5590286
富錦二號公園,台北市,東榮里,民生東路5段69巷2弄27號旁,25.05961037,121.5596237
富錦三號公園,台北市,東榮里,民生東路5段69巷4弄11號旁、富錦街374號,25.06023979,121.5588989
富錦五號公園,台北市,精忠里,民生東路四段97巷4弄20號旁,25.05884934,121.5535431
富錦六號公園,台北市,精忠里,民生東路四段105號旁,25.05821037,121.5529022
復盛公園,台北市,復盛里,市民大道五段99號、八德路四段106巷,25.04747963,121.56147
復源公園,台北市,復源里,光復南路22巷至32巷間,25.04648972,121.5544815
敦中公園(施工中，預計8月底完成),台北市,中正里,敦化北路4巷31號邊,25.04990006,121.5458908
敦化公園,台北市,敦化里,八德路三段12巷52弄2之1號邊,25.04640961,121.5504837
敦北公園,台北市,精忠里,敦化北路、民權東路口,25.06122971,121.5515671
新中公園,台北市,東榮里,新中街、富錦街口,25.06052017,121.5608673
新東公園,台北市,新東里,民生東路五段、撫遠街口,25.05879974,121.568367
寧安公園,台北市,復勢里,寧安街50巷、育達商職第二校區前,25.05035019,121.5548706
精忠2號公園,台北市,精忠里,民生東路四段80巷旁,25.05639076,121.5528488
精忠公園,台北市,精忠里,民生東路四段97巷6弄2號旁,25.05933952,121.5521698
撫遠公園,台北市,莊敬里,撫遠街367巷至389巷底,25.06444931,121.5669479
舊宗1號公園 ( 新東農園 ),台北市,新東里,撫遠街，撫遠街抽水站旁,25.06195068,121.5688629
舊宗2號公園,台北市,新東里,撫遠街，松山抽水站兩側,25.05491066,121.5699997
鵬程公園,台北市,鵬程里,健康路325巷6弄底,25.0555191,121.5686722
寶清公園,台北市,安平里,寶清街85號對面,25.05212021,121.5676422
松山121號綠地三民圓環,台北市,三民里、富泰里、富錦里,臺北市松山區民生東路五段三民路口,25.05916023,121.5625687
大理公園,台北市,糖?里,環河南路二段125巷口,25.03413963,121.49366
寺前公園,台北市,富福里,西園路一段282-2號(萬華火車站新站旁),25.03354073,121.4992065
老松公園,台北市,福音里,桂林路與永福街之間(老松國小對面),25.03852081,121.502739
西園公園,台北市,日善里,東園街67巷及73巷之間(西園國小對面),25.02639008,121.4965363
孝德公園,台北市,孝德里,臺北市萬華區寶興街140巷17弄,25.024124,121.49425
和平青草園(原萬華402號公園),台北市,和平里,西園路一段與艋舺大道交叉口,25.03265953,121.4972076
東園公園,台北市,榮德里,萬大路424巷及486巷68弄之間,25.02095032,121.4952469
長沙公園,台北市,菜園里,環河南路一段、長沙街二段交口,25.04150009,121.4999237
長順公園,台北市,華江里,長順街46巷旁,25.03185082,121.4890289
青山公園,台北市,青山里,華西街8號旁,25.03936958,121.4983063
青年公園,台北市,騰雲里,臺北市水源路199號,25.02511025,121.505867
保德公園,台北市,保德里,東園街154巷旁,25.02279091,121.497467
柳鄉公園,台北市,柳鄉里,環河南路二段100巷內,25.03726006,121.4954376
桂林公園,台北市,青山里,環河南路二段與桂林路交口,25.03890991,121.4968185
華江一號公園,台北市,柳鄉里,和平西路三段309巷與環河南路二段158巷間,25.03589058,121.4941101
華江七號公園,台北市,華江里,和平西路三段302巷1號,25.03499031,121.4934006
華江二號公園,台北市,柳鄉里,環河南路二段154、156、158巷間,25.035864,121.494085
華江八號公園,台北市,華江里,環河南路二段250巷28弄旁,25.03405953,121.4926834
華西公園,台北市,青山里,華西街21巷內(桂林路與華西街口),25.03866959,121.4986572
新糖?公園(糖?文化園區),台北市,糖?里,大理街160巷旁,25.03354906,121.4946463
萬華51號公園,台北市,富福里,萬華區富福里西園路1段與大理街交叉口,25.03594017,121.5029221
壽德公園,台北市,壽德里,萬青街118巷旁,25.02442932,121.5011368
福星公園,台北市,福星里,漢口街與昆明街交叉口,25.0460701,121.5059128
綠堤公園,台北市,綠堤里,環河南路二段159巷邊,25.03321075,121.492897
聚德公園,台北市,糖?里,大理街175巷及和平西路三段286巷1弄間,25.03488922,121.4947205
艋舺公園,台北市,富民里,"廣州街,西園路交叉口.(原龍山寺公園)",25.03603785,121.4999117
糖?公園,台北市,糖蔀里,大理街175巷內,25.03439311,121.4946526
錦德公園,台北市,錦德里,德昌街與西園路二段281巷交叉口,25.02330017,121.492363
萬華266號綠地,台北市,菜園里,萬華區菜園里康定路與貴陽街2段交叉口,25.03915978,121.5030975
西本願寺（萬華406號）廣場,台北市,新起里,臺北市中華路1段及長沙街2段交會處,25.04030037,121.5070801
二二八和平公園,台北市,黎明里,凱達格蘭大道3號,25.042286,121.514297
中央藝文公園,台北市,梅花里,北平東路30號前,25.046272,121.526856
介壽公園,台北市,黎民里,凱達格蘭大道西側，總統府前,25.03926086,121.5146332
文光公園,台北市,幸市里,仁愛路二段65巷1弄口,25.03903961,121.5308533
文盛公園,台北市,文盛里,羅斯福路三段284巷1號前,25.0161705,121.5321198
水源町公園,台北市,水源里,臺北市中正區汀州路三段104巷40弄6號,25.01187015,121.5346044
永昌公園,台北市,永昌里,寧波西街181巷30號前,25.02622986,121.5099564
永福公園,台北市,水源里,福和橋邊，基隆路汀州路口,25.009801,121.532098
忠孝公園,台北市,幸市里,忠孝東路二段134巷對面,25.04183006,121.5320206
信愛公園,台北市,三愛里,臨沂街75巷11號,25.0349102,121.5287628
南昌公園,台北市,南福里,南昌路二段與和平西路一段交口,25.02681923,121.5202026
牯嶺公園,台北市,網溪里,牯嶺街141號前,25.02312088,121.5186768
連雲公園,台北市,三愛里,連雲街37巷與新生南路一段146巷交口.,25.03520966,121.5318222
逸仙公園,台北市,黎明里,北平西路，中山北路口,25.04770088,121.5200272
齊東公園,台北市,幸福里,齊東街53巷巷口.,25.04174995,121.5282974
黎明公園,台北市,黎明里,南陽街38巷5號前,25.04413986,121.5155563
螢橋公園,台北市,螢圃里,和平西路1段116號,25.02672005,121.5172501
中正138號綠地,台北市,"建國里,南門里,龍福里",愛國西路林園道,25.03783989,121.5145111
北門廣場,台北市,光復里,忠孝西路與中華路一段東南側,25.0480021,121.5116831
交7廣場,台北市,黎明里,中正區黎明里忠孝西路與公園路口（臺北車站南1門、南2門、南3門前）,25.04647064,121.5167618
交通4號廣場,台北市,黎明里,中正區黎明里市民大道旁、逸仙公園西側,25.04738045,121.5188065
交通8號廣場,台北市,黎明里,中正區黎明里忠孝西路與重慶北路口西側,25.05031967,121.51651
行旅廣場,台北市,黎明里,忠孝西路與重慶北路一段路口東北側,25.0477977,121.5132041
?公公園,台北市,光武里,復興南路1段135巷與大安路1段路口,25.0424099,121.545723
?公圳公園,台北市,"誠安里,昌隆里",復興南路至建國南路,25.04360962,121.5431213
大安公園,台北市,誠安里,安東街.復興南路1段126巷內,25.04276085,121.5428085
大安森林公園,台北市,龍門里,"新生南路以東,信義路三段以南",25.0333004,121.5358429
大學公園,台北市,大學里,溫州街46巷,25.02190971,121.532898
仁慈公園,台北市,仁慈里,大安路1段224巷口,25.0341301,121.5457077
仁愛公園,台北市,德安里,大安路1段169巷,25.03661919,121.5462418
仁愛圓環,台北市,德安里,仁愛路與敦化南路交會處之圓環,25.03763008,121.5496826
公館公園,台北市,學府里,羅斯福路4段113巷內,25.01142672,121.5407911
古風公園,台北市,古風里,龍泉街108號對面,25.02197075,121.5290527
古莊公園,台北市,古莊里,師大路92巷內,25.02272987,121.5282135
四維公園,台北市,龍雲里,瑞安街23巷24弄,25.03063011,121.5453262
平安公園,台北市,義安里,敦化南路2段37巷旁,25.03195953,121.5493164
民榮公園,台北市,民炤里,新生南路1段157巷19號,25.03540039,121.5356979
民輝公園,台北市,民輝里,仁愛路3段5巷3弄18號,25.03951073,121.5350571
永康公園,台北市,福住里,永康街17巷口,25.03162003,121.5297165
光信公園,台北市,光信里,延吉街241號,25.03556061,121.5558014
全安公園,台北市,全安里,和平東路3段119巷15號對面,25.02545929,121.5512085
安東公園,台北市,龍雲里,復興南路2段125巷20弄,25.02893066,121.5448227
安祥公園,台北市,和安里,信義路3段157巷10弄,25.03454018,121.5427322
辛亥一號公園,台北市,龍坡里,溫州街30巷14號,25.0227108,121.5326614
和平公園,台北市,龍淵里,和平東路2段118巷6弄,25.02349091,121.5425186
和安公園,台北市,仁慈里,復興南路1段313巷,25.03450966,121.5444794
居安公園,台北市,義安里,敦化南路2段81巷口右側,25.02968025,121.5493317
延吉公園,台北市,華聲里,延吉街131巷,25.04257011,121.5557709
昌隆公園,台北市,昌隆里,市民大道與建國南路交叉口,25.0437603,121.5357132
東豐公園,台北市,仁慈里,復興南路1段279巷,25.03577995,121.5448608
法治公園,台北市,法治里,通化街186巷,25.02691078,121.5529175
臥龍公園,台北市,黎元里,?龍街118巷辛亥路3段交叉口,25.01670075,121.5498886
虎嘯公園,台北市,虎嘯里,敦化南路2段319號旁,25.0225296,121.5492783
金山公園,台北市,錦泰里,金山南路二段92巷底,25.0309598,121.5247561
金杭公園,台北市,光明里,金山南路二段30巷,25.03290038,121.5268771
金華公園,台北市,龍安里,金華街164巷1弄3號,25.02959061,121.5311737
附中公園,台北市,和安里,信義路3段147巷內,25.03634071,121.5422592
青峰公園,台北市,黎元里,辛亥路3段239號邊,25.01569939,121.5514069
師大公園,台北市,古莊里,師大路浦城街口,25.02459908,121.5283737
泰順公園,台北市,龍坡里,泰順街27巷旁,25.02462006,121.5316391
通化公園,台北市,通化里,文昌街與通化街口,25.03215981,121.5545578
富陽自然生態公園,台北市,"黎和里,黎孝里",富陽街底、聯勤彈葯庫舊址,25.016674,121.557488
敦仁公園,台北市,仁愛里,敦化南路1段236巷與仁愛路4段71巷交口,25.04040191,121.5469087
敦安公園,台北市,敦煌里,信義路四段265巷12弄,25.03446007,121.5537033
敦親公園,台北市,龍淵里,和平東路2段96巷底,25.0226593,121.5409088
新龍公園,台北市,新龍里,台北市大安區瑞安街214巷,25.02765083,121.5401611
溫州公園,台北市,大學里,羅斯福路3段283巷與新生南路3段86巷交叉口,25.01880074,121.5313416
瑞安公園,台北市,龍生里,瑞安街155巷口,25.02613068,121.5393524
群賢公園,台北市,群賢里,和平東路2段311巷43弄,25.02540016,121.5465698
誠安公園,台北市,誠安里,忠孝東路3段237巷,25.04249001,121.5409088
嘉興公園,台北市,芳和里,樂業街與嘉興街口,25.02136993,121.5519486
寧馨公園,台北市,民輝里,八德路2段台北科大北側,25.04434967,121.533493
福州山公園,台北市,"黎元里,黎孝里",辛亥路三段、興隆超市旁(福州山),25.01589012,121.5516129
德安公園,台北市,德安里,四維路52巷,25.03487968,121.5477753
黎孝公園,台北市,黎孝里,和平東路3段308巷15弄,25.01976013,121.5559921
黎和生態公園,台北市,黎和里,和平東路3段512巷底,25.015128,121.560002
錦安公園,台北市,錦安里,金山南路2段203巷及麗水街口,25.0279808,121.5279465
龍生公園,台北市,龍生里,和平東路二段175巷內,25.02601051,121.5413971
龍門公園,台北市,龍門里,建國南路2段308巷,25.02425957,121.5366821
龍陣一號公園,台北市,龍陣里,復興南路2段180巷15弄,25.0275898,121.5425415
龍陣二號公園,台北市,龍陣里,瑞安街61號,25.02923966,121.5424881
龍圖公園,台北市,龍圖里,復興南路2段78巷42弄,25.03049088,121.5416031
臨江公園,台北市,臨江里,基隆路2段132巷13號,25.0281601,121.5557404
大安125號綠地,台北市,民輝里,八德路，中央圖書館台灣分館(國立台北工專前),25.04442024,121.5336838
大安195號綠地,台北市,大學里,臺北市大安區溫州街58巷,25.02001953,121.5314331
黎和綠地,台北市,黎和里,台北市大安區臥龍街324號,25.01593018,121.5605698
錦華綠地,台北市,錦安里,金華街，永康街55巷交叉口,25.02957916,121.5295792
三張里公園,台北市,三張里,松平路77號旁,25.03092957,121.5667267
三犁公園,台北市,三犁里,信義路五段150巷14弄旁,25.02977943,121.5700226
三興公園,台北市,景勤里,吳興街156巷40弄與吳興街118巷間,25.02857971,121.5595474
中全公園,台北市,安康里,虎林街164巷與松德路邊,25.03858948,121.5748901
中興公園,台北市,中興里,基隆路一段380巷 與光復南路473巷旁,25.03426933,121.5592499
五分埔公園,台北市,永吉里,中坡北路、松隆路口(松山車站前),25.04693985,121.580101
五常公園,台北市,五常里,松隆路272號與永吉路225巷邊,25.04768944,121.5743408
四育公園,台北市,四育里,虎林街50巷與永吉路321巷邊,25.04676056,121.5751419
永吉公園,台北市,五全里,永吉路278巷57弄內,25.04359055,121.5750427
永春公園,台北市,永春里,忠孝東路五段703巷1弄與松山路393巷,25.04229927,121.5791168
永春陂濕地公園,台北市,松隆里,松山路松山家商旁,25.032812,121.580069
永春崗公園,台北市,松隆里,信義區松山路656巷2號旁,25.03170967,121.5775909
交五,台北市,雅祥里,信義區市民大道六段（松信路至虎林街）,25.0492096,121.5741501
安強公園,台北市,安康里,虎林街202巷66弄,25.03668976,121.5753403
吳興公園,台北市,惠安里,吳興街432巷114號,25.02329063,121.5679398
念儒公園,台北市,安康里,忠孝東路五段236巷37弄底,25.03771973,121.573761
林口2號綠地(松光),台北市,松光里,松山路465巷,25.0399,121.57882
林口公園,台北市,松光里,松山路515巷,25.03906059,121.578949
松友公園,台北市,松友里,信義路六段76巷2弄,25.03391075,121.576149
松壽廣場,台北市,西村里,松智路右側(信義計畫區),25.03738976,121.5660782
松德公園,台北市,安康里,信義區松德路180巷8之1號對面,25.03602028,121.573288
虎林公園,台北市,松友里,信義路六段76巷8弄與松德路307巷,25.03148079,121.5772934
信義352號公園 (松智公園),台北市,西村里,信義區松智路1號,25.03582001,121.5655136
信義安康公園,台北市,安康里,信義區松勇路47號旁,25.03572083,121.5700684
春光公園,台北市,松光里,忠孝東路五段、林口街口,25.04223061,121.5807419
革新公園,台北市,敦厚里,基隆路一段109巷與松隆路邊,25.04383087,121.5673676
泰和公園,台北市,泰和里,吳興街583巷與600巷67弄間,25.02313995,121.5681992
眷村文化公園,台北市,景新里,松勤路與莊敬路交口,25.0316391,121.5617523
富台公園,台北市,富台里,"松信路,虎林街120巷交叉口",25.04207039,121.5722427
富生1號公園,台北市,興雅里,永吉路30巷167弄底,25.04222919,121.5698486
富生2號公園,台北市,興雅里,永吉路30巷157弄底,25.04238053,121.5696237
富生公園,台北市,興雅里,永吉路30巷167弄底,25.04208946,121.5698471
惠安公園,台北市,惠安里,吳興街320巷65號前,25.02454948,121.564621
景平公園,台北市,景新里,莊敬路289巷口,25.02989006,121.563942
景勤1號公園,台北市,景勤里,吳興街220巷59弄旁(台北醫學院斜對),25.02633095,121.560257
景勤2號公園,台北市,景勤里,信義區嘉興街181巷21號對面,25.02603912,121.5574875
象山公園,台北市,三犁里,信義區信義路5段150巷,25.03041077,121.5700913
雅祥公園,台北市,雅祥里,松信路與基隆路一段35巷7弄邊,25.04756928,121.5718308
福祥公園,台北市,雅祥里,永吉路127巷與松隆路99號邊,25.04603958,121.5705032
福德公園,台北市,中坡里,福德街與大道路口,25.03824043,121.5818481
黎忠公園,台北市,黎忠里,和平東路三段435巷7弄,25.01907921,121.559372
黎富公園,台北市,黎平里,富陽街92號前,25.02100945,121.5567017
黎雙公園,台北市,雙和里,吳興街284巷22弄(北醫南側),25.02498055,121.5634689
糶米公園,台北市,泰和里,吳興街600巷旁,25.018614,121.572468
太子綠地,台北市,四羅里,永吉路與虎林街交叉處,25.04519081,121.5770721
交六,台北市,雅祥里,市民大道6段(松信路至基隆路一段間),25.04932976,121.5708695
松光綠地,台北市,松光里,台北市信義區松山路465巷4號,25.03949928,121.5785294
松隆綠地,台北市,松隆里,松山商職西南側松山路650巷,25.03495979,121.5801086
信義350綠地,台北市,興隆里,松高路及基隆路交叉,25.03923035,121.5625687
信義351號綠地,台北市,興雅里,松高路本線基隆路口至松仁路口,25.03918076,121.5654373
信義353號綠地 (松仁綠地),台北市,"景新里,三張里",信義路五段南側與松仁路西側間,25.03274918,121.5677185
信義354號綠地,台北市,安康里,松仁路東側，信義路北側,25.02946091,121.5684204
信義355號綠地,台北市,三犁里,松仁路東側、信義路五段南側,25.03089905,121.5683365
信義356號綠地,台北市,安康里,信義路五段北側、松德路西側,25.03338051,121.5737076
信義382號綠地 (惠安水與綠生活綠地),台北市,惠安里,吳興街432巷37弄,25.0233593,121.5682373
崇德綠地,台北市,黎順里,台北市信義區嘉興街270號,25.02421951,121.5554504
黎平綠地,台北市,黎平里,臺北市崇德街146巷17號,25.02318955,121.5571213
市民廣場,台北市,"西村里,興隆里",信義區市府路1號對面,25.03664017,121.5627518
忠信廣場,台北市,興雅里,忠孝東路與松仁路交叉口(信義計畫區),25.0405407,121.5679092
信義20號廣場,台北市,四育里,市民大道與松隆路及松山路,25.04874992,121.5775833
信義21號廣場,台北市,西村里,信義計畫、市府路,25.03473091,121.5644684
信義廣場,台北市,西村里,松智路與信義路交叉口(信義計畫區),25.03347969,121.56604
厚生廣場,台北市,敦厚里,永吉路30巷102弄與松隆路旁,25.04340935,121.5681
景聯廣場,台北市,景聯里,臺北市吳興街7巷,25.03252029,121.5614014
三重世貿公園,台北市,三重里,南港區經貿二路106巷,25.05792999,121.615387
中南公園,台北市,中南里,忠孝東路七段596巷中南社區東側山坡上,25.05121994,121.6154709
中研公園,台北市,中研里,南港區研究路2段12巷58弄,25.04689026,121.6130524
中興公園,台北市,中研里,研究院路二段98巷,25.0442009,121.6148529
六福公園,台北市,中研里,研究院路二段35巷23弄,25.04726028,121.6165085
四分河濱公園,台北市,中研里,南港區研究院路2段2巷54弄,25.04862976,121.6156921
市民公園,台北市,玉成里,玉成街38巷東北側，東新街12巷南側,25.0492897,121.5817337
玉成公園,台北市,鴻福里,南港區中坡南路55號,25.04254913,121.5855026
玉東公園,台北市,玉成里,東新街與市民大道交叉口,25.050188,121.584156
合成18號綠園,台北市,合成里,臺北市忠孝東路6段玉成街口至東新街口,25.04626083,121.5829163
合成8號綠園,台北市,合成里,臺北市南港區東新街至忠孝東路6段449號,25.05083084,121.5937882
合成公園,台北市,合成里,永吉路536巷與中坡北路交叉口,25.04509926,121.5811386
合樂公園,台北市,合成里,玉成街(原南隆鐵工廠),25.04850006,121.5818863
百福公園,台北市,百福里,福德街309巷19號對面,25.03793907,121.5885391
幸福公園,台北市,中研里,研究院路二段35巷旁交通資訊:公車圓拱橋站步行約3分鐘,25.04602051,121.6160507
昆陽公園,台北市,新光里,昆陽街171巷1-5弄東側、龍華路南側,25.04871941,121.5942001
東坡公園,台北市,成福里,東新街170巷5號後側,25.04523087,121.5933075
東明公園,台北市,東明里,南港路二段86巷9弄,25.05480003,121.6036377
東陽公園,台北市,重陽里,臺北市南港區重陽路187巷旁,25.0574398,121.6037369
南汐公園,台北市,新富里,南港路一段與研究路一段交叉口,25.05467987,121.617691
南港公園,台北市,成福里,南港區東新街170之1號,25.04306984,121.5919113
南興公園,台北市,南港里,南港路一段360號南側交通資訊:公車南港行政中心站旁，或捷運南港站、臺鐵南港站步行約5分鐘,25.05401993,121.6069031
後山埤公園,台北市,成福里,南港區東新街170之1號,25.04371071,121.5899506
胡適公園,台北市,中研里,南港區研究院路2段130號對面,25.03992081,121.6179123
重陽公園,台北市,東新里,臺北市南港區重陽路120號旁交通資訊:公車中國電視公司站旁,25.05620003,121.5991516
理想公園,台北市,舊莊里,舊莊街一段145巷6弄28號交通資訊:公車舊莊國小站步行約3分鐘,25.03986931,121.6215897
瓶蓋印象公園,台北市,東明里,南港區興華路、市民大道口,25.053719,121.606226
港後公園,台北市,三重里,臺北市南港區經貿二路255巷交通資訊:公車南港軟體園區北站步行約3分鐘，或捷運南港展覽館站步行約15,25.06274986,121.6153793
湧聲公園,台北市,成福里,東新街170巷(自辦重劃區),25.04327965,121.5927582
新勝公園,台北市,新光里,昆陽街152巷33號,25.04884911,121.5931625
新富公園,台北市,新富里,研究院路一段65巷交通資訊:誠正國中公車站步行約3分鐘，或捷運南港展覽館站步行約10分鐘,25.05303001,121.6169586
新新公園,台北市,西新里,南港路三段109巷南側,25.051391,121.588752
萬福公園,台北市,萬福里,忠孝東路六段70巷10號對面,25.04624939,121.5844498
經貿公園,台北市,三重里,臺北市南港區經園街66號前 交通資訊:公車南港軟體園區北站步行約3分鐘，或捷運南港展覽館站步行約15,25.06258011,121.6163635
福山公園,台北市,中研里,研究院路二段61巷1弄16號交通資訊：公車中研院站步行約3分鐘,25.04470062,121.6178513
興南公園,台北市,東新里,興南街與重陽路交叉口交通資訊:搭乘公車紅32605副線至興華路站步行約3分鐘即可到達搭乘捷運捷運至捷,25.05512047,121.5973969
興華公園,台北市,東新里,興華路114巷交通資訊:公車興華路站步行約3分鐘，或捷運南港站、臺鐵南港站步行約15分鐘,25.05677033,121.6047897
錫口廊道,台北市,玉成里,南港區南港路三段與八德路四段交界,25.05100657,121.5799314
聯成公園,台北市,聯成里,忠孝東路六段250巷1弄,25.04659081,121.5872192
舊莊公園,台北市,舊莊里,舊莊街一段145巷12號前交通資訊:公車舊莊國小站步行約3分鐘,25.04137039,121.6202698
九如綠地,台北市,九如里,臺北市南港區研究院路二段150巷底、四分溪旁,25.03856087,121.6163101
四分綠地,台北市,九如里,左至研究院路三段68巷北側右至凌雲街北側,25.03588189,121.615002
向陽綠地,台北市,西新里,臺北市南港區向陽路199巷旁、成功路1段79號,25.05695915,121.5928726
成福綠地,台北市,新光里,臺北市南港區東新街170巷口、南港公園旁,25.0453701,121.5929489
成德綠地,台北市,聯成里,臺北市南港區東新街100號之1,25.04644966,121.5874634
東明綠地,台北市,東明里,臺北市南港路二段72巷21弄,25.05426979,121.6006928
東新綠地,台北市,東新里,臺北市南港區南港路二段104號,25.05359078,121.6024475
南深綠地,台北市,舊莊里,臺北市南港區舊莊街一段231號旁,25.03792954,121.6231613
南港29號綠地,台北市,西新里,臺北市南港區研究院路二段、舊莊街一段交叉路口,25.04239082,121.6172333
南港65號園區綠地,台北市,三重里,臺北市南港區三重路21巷,25.05903053,121.6142197
新坡綠地,台北市,九如里,臺北市南港區研究院路二段213巷2號前,25.0356102,121.6177521
新南綠地,台北市,中南里,臺北市南港區忠孝東路七段398號,25.05184937,121.6065521
新陽綠地,台北市,東新里,臺北市南港區興南街272巷3號對面,25.05693054,121.6034164
合心廣場,台北市,永樂里,臺北市南港區玉成街與忠孝東路六段交叉口,25.04660988,121.583458
南港五號廣場,台北市,東明里,臺北市南港區南港路二段以南，178巷對面,25.05406952,121.5998001
140高地,台北市,萬美里,文山區萬寧街125號,25.00358009,121.569603
久康公園,台北市,木柵里,久康街39號,24.98934937,121.5645828
小坑1號公園,台北市,萬興里,萬壽路旁，木柵二期重劃區內,24.98337936,121.585228
文山(景美)49號公園,台北市,景東里,景華街128巷3弄旁,24.99588966,121.5478516
文山木柵59號公園,台北市,政大里,台北市指南路二段225巷旁,24.98526001,121.5825806
文山森林公園,台北市,萬盛里、興邦里、興豐里、興旺里,臺北市文山區福興路95巷,25.00435,121.548322
木南公園,台北市,木新里,木新路2段43巷1號旁,24.9865303,121.5708389
木柵公園,台北市,"華興里,明義里",文山區興隆路4段50號,24.98694992,121.560463
木新公園,台北市,樟文里,木新路3段278巷7弄11號對面,24.9822197,121.5580368
木榮公園,台北市,順興里,保儀路129號(景文高中後門邊),24.98464012,121.5686569
水景公園,台北市,政大里,政大一街與政大二街間,24.98698044,121.5868378
仙岩公園,台北市,興安里,仙岩路16巷36號,24.99797058,121.5493622
光明公園,台北市,樟林里,下崙路與光輝路口,24.98646927,121.5547104
光輝公園,台北市,樟林里,光輝路9-1號前,24.98612022,121.5558395
辛亥生態公園,台北市,興昌里,辛亥路四段至興德路間,25.003685,121.556764
坡內坑公園,台北市,博嘉里,木柵路四段159巷內,25.00497055,121.5765533
忠順公園,台北市,樟樹里,興隆路4段96巷底,24.98314095,121.561142
忠順萊茵公園,台北市,忠順里,興隆路四段109巷旁,24.98678017,121.5653687
明義公園,台北市,明義里,興隆路4段101巷口,24.98806953,121.5609818
芳寧公園,台北市,萬美里,和平東路四段與萬寧街交叉口,25.00452995,121.5632782
保儀公園,台北市,順興里,木新路3段50巷、70巷內,24.98353958,121.5634689
恆光公園,台北市,樟腳里,木新路2段211巷10弄8號前,24.98241043,121.5675888
原野運動公園,台北市,萬芳里,萬芳路木柵高工旁,24.99712944,121.571373
博嘉公園,台北市,博嘉里,軍功路47巷55號之8旁,25.00045013,121.5735397
景仁公園,台北市,景仁里,景仁街1巷16號,24.99666977,121.5401001
景行公園,台北市,景行里,景中街景美國中對面,24.99251938,121.542778
景美公園(原萬慶公園),台北市,景美里,文山區育英街45巷旁,24.99402046,121.5375977
景美運動公園,台北市,興豐里,文山區景豐街80號旁,25.00254059,121.5445175
景華公園,台北市,景華里,文山區景華街55號,24.99518967,121.5437927
景福公園,台北市,景仁里,溪口街36巷內,24.99567986,121.5403214
景豐公園,台北市,興豐里,興隆路1段251號3弄,25.0001297,121.5450516
華興公園,台北市,華興里,試院路4巷內,24.98917007,121.5504684
順興公園綠地,台北市,忠順里,興隆路四段109巷92弄旁,24.98608971,121.5643768
新榮公園,台北市,木新里,木新路2段111巷底,24.98332977,121.570221
椰城公園,台北市,博嘉里,和平東路四段101巷6弄21號,25.0063591,121.5687027
萬年1號公園,台北市,萬年里,汀州路4段122至146號對面,25.00569916,121.5362015
萬年2號公園,台北市,萬年里,汀州路4段122至146號對面,25.00569916,121.5362015
萬年3號公園,台北市,萬年里,汀州路4段105巷口,25.00704002,121.5369263
萬有1號公園,台北市,萬有里,興隆路1段202巷,24.99983025,121.5429535
萬有2號公園,台北市,萬有里,景明街11巷6弄8號前,25.00070953,121.5419006
萬有3號公園,台北市,萬有里,景隆街107號前,24.99872017,121.5430985
萬和1號公園,台北市,萬和里,萬隆街1至71號對面,25.00049019,121.5363236
萬和2號公園,台北市,萬和里,萬隆街72至80號對面,25.00148964,121.5365372
萬和3號公園,台北市,萬和里,羅斯福路5段192巷33號至218巷2號對面,25.00381088,121.5363388
萬芳10號公園,台北市,興昌里,文山區萬美街1段121號(往公訓中心方向),25.00164986,121.5624924
萬芳11號公園,台北市,萬芳里,文山區萬美街2段2號,25.00304985,121.5630798
萬芳12號公園,台北市,萬美里,萬利街30巷24至32號對面,25.00147057,121.5635834
萬芳13號公園,台北市,萬美里,萬美街1段與萬樂街口,25.00172997,121.5653992
萬芳14號公園,台北市,萬美里,萬利街33號邊,25.00032044,121.5653305
萬芳1號公園,台北市,萬美里,萬利街4號邊,24.99986076,121.5667267
萬芳2號公園,台北市,萬美里,萬芳路與萬利街口,24.99920082,121.5667725
萬芳3號公園,台北市,萬美里,萬芳路與萬利街口,24.99925041,121.5671005
萬芳4號公園,台北市,萬芳里,文山區萬和街1號對面,25.00153923,121.5675278
萬芳6號公園,台北市,萬芳里,萬芳路與萬和街口,24.99950028,121.5691834
萬芳7號公園,台北市,萬芳里,文山區萬美街1段36號旁,25.00157929,121.5661621
萬芳8號公園,台北市,興昌里,萬芳社區萬美街與興德路之間(公訓處前),25.0030098,121.560463
萬芳9號公園,台北市,萬美里,文山區萬美街1段121號旁,25.00177956,121.5614777
萬盛公園,台北市,萬盛里,萬盛街130巷口,25.00514984,121.5410614
萬壽1號公園,台北市,政大里,萬壽路61巷旁，棲霞山莊旁,24.98747063,121.5892181
萬壽2號公園,台北市,政大里,萬壽路61巷旁，棲霞山莊旁,24.98736954,121.5895615
萬壽3號公園,台北市,政大里,萬壽路與政大一街間,24.98542023,121.5860825
萬興櫻花生態景觀公園,台北市,萬興,新光路一段66巷6弄,24.9915411,121.5731031
試院公園,台北市,試院里,木柵路1段89巷,24.98778915,121.5473175
福興公園,台北市,興旺里,福興路63巷4號,25.00399971,121.5481567
樟林公園,台北市,樟林里,忠順街1段121巷7弄12號前,24.98464012,121.5592117
樟新公園,台北市,樟新里,一壽街49之3號,24.97919083,121.5569534
樟樹公園,台北市,樟文里,忠順街1段26巷26弄口,24.98271942,121.559372
樟興公園,台北市,樟文里,木新路3段與辛亥路7段口,24.98067093,121.5541229
興旺公園,台北市,興旺里,福興路82巷內,25.0058403,121.5504608
興家公園,台北市,興家里,興隆路三段207巷10弄旁,24.99473,121.5608215
興泰公園,台北市,興泰里,辛亥路四段166巷內,25.00481033,121.555481
