name,class,address,latitude,longitude,"latitude, longitude"
國立政治大學,公立大學,台北市文山區指南路二段64號,24.9878632,121.5774304,"24.9878632, 121.5774304"
國立臺灣大學,大學,台北市大安區羅斯福路四段1號,25.0173405,121.5397518,"25.0173405, 121.5397518"
國立臺灣師範大學,公立大學,台北市大安區和平東路一段162號,25.0260878,121.5275484,"25.0260878, 121.5275484"
國立臺北大學,公立大學,新北市三峽區大學路151號,24.9440905,121.3709602,"24.9440905, 121.3709602"
國立臺灣科技大學,科技大學,台北市大安區基隆路四段43號,25.0132583,121.5405609,"25.0132583, 121.5405609"
國立臺北科技大學,科技大學,台北市大安區忠孝東路三段1號,25.0438884,121.534399,"25.0438884, 121.534399"
國立臺北藝術大學,公立大學,台北市北投區學園路1號,25.1325182,121.4696818,"25.1325182, 121.4696818"
國立臺灣藝術大學,公立大學,新北市板橋區大觀路一段59號,25.0060395,121.4488186,"25.0060395, 121.4488186"
國立臺北教育大學,公立大學,台北市大安區和平東路二段134號,25.0246244,121.5446374,"25.0246244, 121.5446374"
國立臺北護理健康大學校本部,公立大學,台北市北投區明德路365號,25.1175793,121.5214817,"25.1175793, 121.5214817"
國立臺北商業大學,公立大學,台北市中正區濟南路一段321號,25.0418915,121.525618,"25.0418915, 121.525618"
國立臺灣戲曲學院內湖校區,大專院校,台北市內湖區內湖路二段177號,25.0819234,121.586525,"25.0819234, 121.586525"
天主教輔仁大學,大學,新北市新莊區中正路510號,25.0363219,121.4326549,"25.0363219, 121.4326549"
東吳大學,私立大學,台北市士林區臨溪路70號,25.0945636,121.5454248,"25.0945636, 121.5454248"
淡江大學臺北校區,私立大學,台北市大安區金華街199巷5號,25.0311111,121.5286111,"25.0311111, 121.5286111"
中國文化大學,私立大學,台北市士林區華岡路55號,25.1365356,121.5392733,"25.1365356, 121.5392733"
華梵大學,私立大學,新北市石碇區華梵路1號,24.9808468,121.6910371,"24.9808468, 121.6910371"
世新大學,私立大學,台北市文山區木柵路一段17巷1號,24.988664,121.543984,"24.988664, 121.543984"
銘傳大學臺北校區,大學,台北市士林區中山北路五段250號,25.0861411,121.5279461,"25.0861411, 121.5279461"
實踐大學,私立大學,台北市中山區大直街70號,25.0830759,121.5452175,"25.0830759, 121.5452175"
真理大學,私立大學,新北市淡水區真理街32號,25.1767715,121.434879,"25.1767715, 121.434879"
大同大學,私立大學,台北市中山區中山北路三段40號,25.0671976,121.5217972,"25.0671976, 121.5217972"
臺北醫學大學,私立大學,台北市信義區吳興街250號,25.0253125,121.5613608,"25.0253125, 121.5613608"
明志科技大學 Ming Chi University of Technology,科技大學,新北市泰山區工專路84號,25.0409853,121.4223007,"25.0409853, 121.4223007"
聖約翰科技大學,科技大學,新北市淡水區淡金路四段499號,25.2270222,121.4497613,"25.2270222, 121.4497613"
中國科技大學,大學,台北市文山區興隆路三段56號,24.9986236,121.5547464,"24.9986236, 121.5547464"
景文科技大學,科技大學,新北市新店區安忠路99號,24.951591,121.5099708,"24.951591, 121.5099708"
東南科技大學,科技大學,新北市深坑區北深路三段152號,25.0034002,121.6044633,"25.0034002, 121.6044633"
德明財經科技大學,科技大學,台北市內湖區環山路一段56號,25.0865509,121.5654923,"25.0865509, 121.5654923"
中華科技大學,科技大學,台北市南港區研究院路三段245號,25.0336217,121.6099098,"25.0336217, 121.6099098"
臺北城市科技大學,科技大學,台北市北投區學園路2號,25.1345474,121.469144,"25.1345474, 121.469144"
醒吾科技大學,科技大學,新北市林口區粉寮路一段101號,25.0803455,121.3976927,"25.0803455, 121.3976927"
國立臺灣科技大學華夏校區,科技大學,新北市中和區工專路111號,24.9812046,121.5074648,"24.9812046, 121.5074648"
致理科技大學,科技大學,新北市板橋區文化路一段313號,25.0210986,121.4651279,"25.0210986, 121.4651279"
康寧大學,私立大學,台北市內湖區康寧路三段75巷137號,25.0757493,121.6094778,"25.0757493, 121.6094778"
宏國德霖科技大學,科技大學,新北市土城區青雲路380巷1號,24.9723832,121.4557517,"24.9723832, 121.4557517"
台北海洋科技大學 淡水校區,科技大學,新北市淡水區濱海路三段150號,25.1921692,121.4267044,"25.1921692, 121.4267044"
亞東科技大學,科技大學,新北市板橋區四川路二段58號,24.995194,121.4531189,"24.995194, 121.4531189"
黎明技術學院,學校,新北市泰山區泰林路三段22號,25.0657734,121.4204431,"25.0657734, 121.4204431"
馬偕醫學院,私立大專院校,新北市三芝區中正路三段46號,25.2517474,121.4958422,"25.2517474, 121.4958422"
法鼓文理學院,大學學系,新北市金山區法鼓路700號,25.245412,121.6169569,"25.245412, 121.6169569"
馬偕醫護專校關渡校區,護士學校,台北市北投區聖景路92號,25.1224345,121.4641973,"25.1224345, 121.4641973"
耕莘健康管理專科學校,護士學校,新北市新店區民族路112號,24.9770572,121.5368906,"24.9770572, 121.5368906"
臺北市立大學博愛校區,公立大學,台北市中正區愛國西路1號,25.0360523,121.5136659,"25.0360523, 121.5136659"
國立華僑高級中等學校,高中,新北市板橋區大觀路一段32號,25.0059769,121.4463136,"25.0059769, 121.4463136"
新北市私立淡江高級中學,高中,新北市淡水區真理街26號,25.1763325,121.4371199,"25.1763325, 121.4371199"
康橋國際學校 秀岡校區,國際學校,新北市新店區華城路800號,24.910736,121.4977941,"24.910736, 121.4977941"
金陵女中,女子高中,新北市三重區重新路五段656號,25.0431037,121.4669982,"25.0431037, 121.4669982"
新北市私立裕德雙語高級中學,高中,新北市土城區擺接堡路1號,24.9826917,121.4399429,"24.9826917, 121.4399429"
新北市南山高級中學,高中,新北市中和區廣福路41號,25.0011601,121.5043572,"25.0011601, 121.5043572"
私立天主教恆毅高級中學,高中,新北市新莊區中正路108號,25.0366541,121.4537324,"25.0366541, 121.4537324"
新北市私立聖心女子高級中學,天主教學校,新北市八里區龍米路一段263號,25.13562,121.449122,"25.13562, 121.449122"
新北市崇義高級中學,學校,新北市汐止區大同路三段68號,25.0771732,121.6691513,"25.0771732, 121.6691513"
新北市福瑞斯特高級中學,完全中小學,新北市土城區城林路2號,24.975578,121.4374135,"24.975578, 121.4374135"
新北市私立東海高級中學,高中,新北市三重區忠孝路三段93巷12號,25.0647366,121.4788449,"25.0647366, 121.4788449"
新北市私立格致中學,高中,新北市三重區大智街260號,25.0736548,121.4881678,"25.0736548, 121.4881678"
私立醒吾高級中學附設國中部,中學,新北市林口區粉寮路一段75巷80號,25.079564,121.395793,"25.079564, 121.395793"
新北市私立天主教徐匯高級中學,男子高中,新北市蘆洲區中山一路1號,25.080107,121.480124,"25.080107, 121.480124"
天主教新北市私立崇光高級中學,中學,新北市新店區三民路18號,24.9718753,121.538946,"24.9718753, 121.538946"
光仁高級中學,私立學校,新北市板橋區中山路二段255巷18號,25.0183602,121.476469,"25.0183602, 121.476469"
新北市私立竹林高級中學,中學,新北市中和區華新街143巷12號,24.9808934,121.5064184,"24.9808934, 121.5064184"
新北市私立及人高級中學,高中,新北市新店區安興路1號,24.966799,121.51489,"24.966799, 121.51489"
新北市私立辭修高級中學,高中,新北市三峽區溪東路251號,24.932696,121.407931,"24.932696, 121.407931"
康橋國際學校林口校區,國際學校,新北市林口區興林路55號,25.0737645,121.3904989,"25.0737645, 121.3904989"
新北市私立時雨高級中學,中學,新北市瑞芳區祈堂路217號,25.1093387,121.8549124,"25.1093387, 121.8549124"
樹人高級家事商業職業學校,職業學校,新北市樹林區大安路216號,24.994468,121.4192578,"24.994468, 121.4192578"
新北市私立復興高級商工職業學校,職業學院,新北市永和區秀朗路一段201號,25.0037569,121.518644,"25.0037569, 121.518644"
南強高級工商職業學校,職業學校,新北市新店區文化路42號,24.9807401,121.54519,"24.9807401, 121.54519"
穀保家商,職業學院,新北市三重區中正北路560巷38號,25.0693157,121.4710759,"25.0693157, 121.4710759"
智光學校財團法人新北市智光高級商工職業學校,職業學院,新北市永和區中正路100號,24.9955979,121.5143313,"24.9955979, 121.5143313"
新北市私立清傳高級商業職業學校,職業學校,新北市三重區五谷王北街141巷1號,25.0520106,121.4768683,"25.0520106, 121.4768683"
能仁家商,職業學院,"No. 53巷10號, 文中路, 新店區新北市231",24.9579932,121.5401745,"24.9579932, 121.5401745"
新北市私立豫章高級工商職業學校,職業學院,新北市板橋區四川路一段391號,24.9972709,121.4582556,"24.9972709, 121.4582556"
新北市私立莊敬高級工業家事職業學校永和校區,職業學院,新北市永和區博愛街36號,25.015829,121.519253,"25.015829, 121.519253"
中華商業海事職業學校,職業學校,新北市萬里區瑪鋉路15號,25.1777237,121.6852677,"25.1777237, 121.6852677"
新北市立泰山高級中學,高中,新北市泰山區辭修路7號,25.0578001,121.4297682,"25.0578001, 121.4297682"
新北市立板橋高級中學,高中,新北市板橋區文化路一段25號,25.0116977,121.4590166,"25.0116977, 121.4590166"
新北市立新店高級中學,高中,新北市新店區中央路93號,24.9752372,121.5323491,"24.9752372, 121.5323491"
新北市立中和高級中學,高中,新北市中和區連城路460號,24.9943663,121.4780512,"24.9943663, 121.4780512"
新北市立新莊高級中學,高中,新北市新莊區中平路135號,25.048226,121.4445402,"25.048226, 121.4445402"
新北市立新北高級中學,高中,新北市三重區三信路1號,25.0866666,121.4908618,"25.0866666, 121.4908618"
新北市立林口高級中學,高中,新北市林口區仁愛路二段173號,25.0735476,121.3810618,"25.0735476, 121.3810618"
新北市瑞芳區瑞芳高級工業職業學校,職業學院,新北市瑞芳區瑞芳街60號,25.1109132,121.8041354,"25.1109132, 121.8041354"
新北市立三重高級商工職業學校,職業學院,新北市三重區中正北路163號,25.0689866,121.4801786,"25.0689866, 121.4801786"
新北市立新北高級工業職業學校,職業學院,新北市土城區學府路一段241號,24.982651,121.4501202,"24.982651, 121.4501202"
新北市立淡水高級商工職業學校,職業學校,新北市淡水區商工路307號,25.187354,121.4543008,"25.187354, 121.4543008"
新北市立海山高級中學,高中,新北市板橋區漢生東路215號,25.0105849,121.4714003,"25.0105849, 121.4714003"
新北市立三重高級中學,學校,新北市三重區集美街212號,25.0548553,121.4913211,"25.0548553, 121.4913211"
新北市立永平高級中學,高中,新北市永和區永平路205號,25.0106314,121.5085744,"25.0106314, 121.5085744"
新北市立樹林高級中學,高中,新北市樹林區中華路8號,24.9830072,121.4222733,"24.9830072, 121.4222733"
新北市立明德高級中學,高中,新北市三峽區中正路二段399號,24.9053305,121.3650897,"24.9053305, 121.3650897"
新北市立秀峰高級中學,高中,新北市汐止區忠孝東路201號,25.0657829,121.6608704,"25.0657829, 121.6608704"
新北市立金山高級中學,學校,新北市金山區文化二路2號,25.224676,121.637008,"25.224676, 121.637008"
新北市立安康高級中學,高中,新北市新店區安興路25號,24.9696795,121.5145853,"24.9696795, 121.5145853"
新北市立雙溪高級中學,高中,新北市雙溪區梅竹蹊路3號,25.0365939,121.8621756,"25.0365939, 121.8621756"
新北市立石碇高級中學,高中,新北市石碇區隆盛里 八分寮45號,25.0128178,121.6420778,"25.0128178, 121.6420778"
新北市立丹鳳高級中學,高中,新北市新莊區龍安路72號,25.0210049,121.4165326,"25.0210049, 121.4165326"
新北市立清水高中,高中,新北市土城區明德路一段72號,24.9822007,121.464238,"24.9822007, 121.464238"
新北市立三民高級中學,高中,新北市蘆洲區三民路96號,25.086889,121.4737007,"25.086889, 121.4737007"
新北市立錦和高中,高中,新北市中和區錦和路163號,24.992544,121.491084,"24.992544, 121.491084"
新北市立光復高級中學,高中,新北市板橋區光環路一段7號,25.0164817,121.4830252,"25.0164817, 121.4830252"
新北市立竹圍高級中學,高中,新北市淡水區竹林路35號,25.1460169,121.4617129,"25.1460169, 121.4617129"
新北市立北大高中,高中,新北市三峽區大義路277號,24.9485545,121.375743,"24.9485545, 121.375743"
豐珠中學,中學,新北市貢寮區雞母嶺街6-6號,25.0656393,121.9017465,"25.0656393, 121.9017465"
新北市立鶯歌高級工商職業學校,職業學校,新北市鶯歌區中正三路154號,24.9396914,121.3348525,"24.9396914, 121.3348525"
新北市立樟樹國際實創高級中等學校,高中,新北市汐止區樟樹二路135號,25.0659772,121.6398504,"25.0659772, 121.6398504"
臺北市私立育達高級中等學校,私立學校,台北市松山區寧安街12號,25.0495918,121.5537941,"25.0495918, 121.5537941"
臺北市立西松高級中學,高中,台北市松山區健康路325巷7號,25.05537,121.5663535,"25.05537, 121.5663535"
臺北市立中崙高級中學,高中,台北市松山區八德路四段101號,25.0496729,121.5616827,"25.0496729, 121.5616827"
臺北市協和祐德高級中等學校,高中,台北市信義區忠孝東路五段790巷27號,25.04252,121.5835426,"25.04252, 121.5835426"
臺北市立松山高級中學,高中,台北市信義區基隆路一段156號,25.0435047,121.565387,"25.0435047, 121.565387"
臺北市立永春高級中學,高中,台北市信義區松山路654號,25.0334697,121.5788417,"25.0334697, 121.5788417"
臺北市立松山高級商業家事職業學校,職業學校,台北市信義區松山路655號,25.0350498,121.5806133,"25.0350498, 121.5806133"
臺北市立松山高級工農職業學校,職業學院,台北市信義區忠孝東路五段236巷15號,25.0398123,121.5721029,"25.0398123, 121.5721029"
國立臺灣師範大學附屬高級中學,高中,台北市大安區信義路三段143號,25.0336592,121.5404218,"25.0336592, 121.5404218"
台北市私立延平高級中學,高中,台北市大安區建國南路一段275號,25.0367982,121.5384617,"25.0367982, 121.5384617"
臺北市私立金甌女子高級中學,學校,台北市大安區杭州南路二段1號,25.0349867,121.5240585,"25.0349867, 121.5240585"
臺北市私立復興實驗高級中學,學校,台北市大安區敦化南路1段262號,25.0391975,121.5475801,"25.0391975, 121.5475801"
臺北市東方高級工商職業學校,職業學院,台北市大安區信義路四段186巷8號,25.0322608,121.5515023,"25.0322608, 121.5515023"
喬治高職大安校區（主要校區請至基隆路對面155號信義校區）,學校,台北市信義區基隆路二段155號,25.0266735,121.5544462,"25.0266735, 121.5544462"
臺北市私立開平餐飲職業學校,廚藝學校,台北市大安區復興南路二段148巷24號,25.0288438,121.5420403,"25.0288438, 121.5420403"
臺北市立和平高級中學,高中,台北市大安區臥龍街100號,25.0196314,121.5491522,"25.0196314, 121.5491522"
臺北市芳和實驗中學,中學,台北市大安區臥龍街170號,25.0187358,121.5502421,"25.0187358, 121.5502421"
臺北市立大安高級工業職業學校,職業學院,台北市大安區復興南路二段52號,25.0320981,121.5429742,"25.0320981, 121.5429742"
台北市私立大同高級中學,高中,台北市中山區中山北路三段40號,25.0660212,121.5205251,"25.0660212, 121.5205251"
臺北市私立稻江高級護理家事職業學校,職業學院,台北市中山區新生北路三段55號,25.0656167,121.529025,"25.0656167, 121.529025"
臺北市立中山女子高級中學,女子高中,台北市中山區長安東路二段141號,25.0486787,121.5371051,"25.0486787, 121.5371051"
臺北市立大同高級中學,高中,台北市中山區長春路167號,25.0550217,121.5352723,"25.0550217, 121.5352723"
臺北市立大直高級中學,高中,台北市中山區北安路420號,25.0785086,121.5434104,"25.0785086, 121.5434104"
強恕中學,高中,台北市中正區汀州路二段143號,25.0251621,121.5203411,"25.0251621, 121.5203411"
臺北市開南高級中等學校,職業學校,台北市中正區濟南路一段6號,25.0421157,121.5216986,"25.0421157, 121.5216986"
臺北市立建國高級中學,男子高中,台北市中正區南海路56號,25.0307721,121.5123045,"25.0307721, 121.5123045"
臺北市立成功高級中學,男子高中,台北市中正區濟南路一段71號,25.0424263,121.5236059,"25.0424263, 121.5236059"
臺北市立第一女子高級中學,女子高中,台北市中正區重慶南路一段165號,25.0385655,121.513098,"25.0385655, 121.513098"
私立靜修高級中學,高中,台北市大同區寧夏路59號,25.057931,121.5154866,"25.057931, 121.5154866"
臺北市私立稻江高級商業職業學校,職業學校,台北市大同區民權西路225巷24號,25.0640547,121.5119277,"25.0640547, 121.5119277"
臺北市立明倫高級中學,高中,台北市大同區承德路三段336號,25.0756403,121.5191668,"25.0756403, 121.5191668"
臺北市立成淵高級中學,高中,台北市大同區承德路二段235號,25.0613726,121.5187817,"25.0613726, 121.5187817"
臺北市立華江高級中學,高中,台北市萬華區西藏路213號,25.0279587,121.4971355,"25.0279587, 121.4971355"
臺北市立大理高級中學,高中,台北市萬華區長順街2號,25.0308614,121.4912045,"25.0308614, 121.4912045"
國立政治大學附屬高級中學,高中,台北市文山區政大一街353號,24.9877087,121.5851575,"24.9877087, 121.5851575"
臺北市私立東山高級中學,學校,台北市文山區老泉街26巷3號,24.9733741,121.5615447,"24.9733741, 121.5615447"
臺北市私立滬江高級中學,學校,台北市文山區羅斯福路六段336號,24.9894519,121.5389166,"24.9894519, 121.5389166"
臺北市私立大誠高級中學,高中,台北市文山區秀明路二段175號,24.9909915,121.5785621,"24.9909915, 121.5785621"
臺北市私立再興學校,高中,台北市文山區興隆路四段二號,24.9901829,121.5582292,"24.9901829, 121.5582292"
臺北市景文高級中學,高中,台北市文山區保儀路127號,24.9852437,121.5681869,"24.9852437, 121.5681869"
臺北市私立靜心高級中學,高中,台北市文山區興隆路二段46號,24.9987787,121.5468002,"24.9987787, 121.5468002"
臺北市立景美女子高級中學,女子高中,台北市文山區木新路三段312號,24.9807217,121.5560706,"24.9807217, 121.5560706"
臺北市立萬芳高級中學,高中,台北市文山區興隆路三段115巷1號,25.000544,121.5588384,"25.000544, 121.5588384"
臺北市數位實驗高級中等學校弘道基地,高中,台北市中正區公園路21號,25.0375581,121.5152991,"25.0375581, 121.5152991"
臺北市立木柵高級工業職業學校,職業學院,台北市文山區木柵路四段77號,24.9968638,121.5726322,"24.9968638, 121.5726322"
臺北市立南港高級中學,高中,台北市南港區向陽路21號,25.0522308,121.5944079,"25.0522308, 121.5944079"
臺北市立育成高級中學,高中,台北市南港區重陽路366號,25.0580409,121.6092336,"25.0580409, 121.6092336"
臺北市立南港高級工業職業學校,職業學院,台北市南港區興中路29號,25.0563331,121.6071584,"25.0563331, 121.6071584"
臺北市私立文德女子高級中學,女子高中,台北市內湖區成功路三段70號,25.0776451,121.5891099,"25.0776451, 121.5891099"
臺北市私立方濟高級中學,私立學校,台北市內湖區成功路三段61號,25.0773094,121.5905296,"25.0773094, 121.5905296"
天主教達人高級中學,高中,台北市內湖區內湖路二段314號,25.0809256,121.5877653,"25.0809256, 121.5877653"
臺北市立內湖高級中學,高中,台北市內湖區文德路218號,25.0778767,121.5867851,"25.0778767, 121.5867851"
臺北市立麗山高級中學,高中,台北市內湖區環山路二段100號,25.085124,121.5779044,"25.085124, 121.5779044"
臺北市立南湖高級中學,高中,台北市內湖區康寧路三段220號,25.0665361,121.6107101,"25.0665361, 121.6107101"
臺北市立內湖高級工業職業學校,職業學院,台北市內湖區內湖路一段520號,25.0792292,121.5750963,"25.0792292, 121.5750963"
臺北市私立泰北高級中學,私立學校,台北市士林區福林里福林路240號,25.0969897,121.5348014,"25.0969897, 121.5348014"
臺北市私立衛理女子高級中學,女子高中,台北市士林區至善路二段321號,25.1024247,121.5519342,"25.1024247, 121.5519342"
臺北市私立華興高級中學,中學,台北市士林區仰德大道一段101號,25.1045441,121.5387415,"25.1045441, 121.5387415"
臺北市私立華岡藝術學校,藝術學校,台北市士林區建業路73巷8號,25.1371454,121.5490945,"25.1371454, 121.5490945"
臺北市立陽明高級中學,高中,台北市士林區中正路510號,25.0918395,121.5171309,"25.0918395, 121.5171309"
臺北市立百齡高級中學,高中,台北市士林區承德路四段177號,25.0869702,121.5230445,"25.0869702, 121.5230445"
臺北市立士林高級商業職業學校,職業學校,台北市士林區士商路150號,25.0943198,121.5163483,"25.0943198, 121.5163483"
薇閣高中,私立學校,台北市北投區珠海路50號,25.1386737,121.5036265,"25.1386737, 121.5036265"
臺北市私立幼華高級中學,私立學校,台北市北投區北投路二段55號,25.1332359,121.4965533,"25.1332359, 121.4965533"
台北市私立奎山高級實驗中學附屬國中部,私立學校,台北市北投區明德路200號,25.112998,121.5223028,"25.112998, 121.5223028"
臺北市私立惇敘高級工商職業學校,職業學校,台北市北投區泉源路221號,25.1446525,121.5271635,"25.1446525, 121.5271635"
臺北市立復興高級中學,高中,台北市北投區復興四路70號,25.1431415,121.5022643,"25.1431415, 121.5022643"
臺北市立中正高級中學,高中,台北市北投區文林北路77號,25.1041727,121.5166212,"25.1041727, 121.5166212"
新北市私立光華高級商業職業進修學校,職業學院,新北市板橋區南雅南路二段１號,25.0030787,121.4548561,"25.0030787, 121.4548561"
臺北市私立南華高中,成人進修中心,台北市中正區汀州路三段58號,25.0156024,121.5311016,"25.0156024, 121.5311016"
臺北市私立志仁高中職業進修學校,高中,台北市大同區南京西路64巷17號,25.0521716,121.5188151,"25.0521716, 121.5188151"
新北市私立育才國民小學,小學,新北市永和區福和路125巷20號,25.007022,121.521715,"25.007022, 121.521715"
及人國小,小學,新北市永和區文化路172號,25.0156533,121.5118716,"25.0156533, 121.5118716"
新北市私立竹林國民小學,小學,新北市永和區竹林路34號,25.0145585,121.5170389,"25.0145585, 121.5170389"
臺北市國語實驗國民小學,小學,台北市中正區南海路58號,25.0303757,121.5108887,"25.0303757, 121.5108887"
新北市三峽區北大國民小學,小學,新北市三峽區國光街100號,24.9392516,121.3731836,"24.9392516, 121.3731836"
新北市林口區新林國民小學,小學,新北市林口區三民路101號,25.0697467,121.3590601,"25.0697467, 121.3590601"
淡海國小,小學,新北市淡水區新市二路二段81號,25.1955052,121.4284945,"25.1955052, 121.4284945"
臺北市內湖區東湖國民小學,小學,台北市內湖區東湖路115號,25.0689881,121.616085,"25.0689881, 121.616085"
新北市板橋國民小學,小學,新北市板橋區文化路一段23號,25.0123212,121.457498,"25.0123212, 121.457498"
新北市板橋區國光國民小學,小學,新北市板橋區中正路325巷30號,25.0191826,121.4530228,"25.0191826, 121.4530228"
新北市板橋區新埔國民小學,小學,新北市板橋區陽明街206號,25.025876,121.462376,"25.025876, 121.462376"
新北市板橋區埔墘國民小學,小學,新北市板橋區永豐街42-8號,25.0181471,121.4741019,"25.0181471, 121.4741019"
新北市板橋區莒光國民小學,小學,新北市板橋區莒光路163號,25.025125,121.4741597,"25.025125, 121.4741597"
新北市板橋區後埔國民小學,小學,新北市板橋區重慶路157號,25.0035722,121.4634196,"25.0035722, 121.4634196"
新北市板橋區海山國民小學,小學,新北市板橋區漢生東路280號,25.0092787,121.470468,"25.0092787, 121.470468"
新北市板橋區江翠國民小學,小學,新北市板橋區文化路二段413號,25.0324811,121.4735362,"25.0324811, 121.4735362"
新北市板橋區文聖國民小學,小學,新北市板橋區文聖街86號,25.0291299,121.4774188,"25.0291299, 121.4774188"
新北市板橋區沙崙國民小學,小學,新北市板橋區篤行路二段132號,24.9898701,121.4301153,"24.9898701, 121.4301153"
新北市樹林區樹林國民小學,小學,新北市樹林區育英街176號,24.9898163,121.4180796,"24.9898163, 121.4180796"
臺北市北投區文林國民小學,小學,台北市北投區文林北路155號,25.1059061,121.5147455,"25.1059061, 121.5147455"
臺北市大同區大同國民小學,小學,台北市大同區大龍街51號,25.0648965,121.5162473,"25.0648965, 121.5162473"
新北市樹林區武林國民小學,小學,新北市樹林區保安街二段151號,25.0019549,121.4147006,"25.0019549, 121.4147006"
新北市樹林區山佳國民小學,小學,新北市樹林區中山路三段5號,24.9754914,121.4017467,"24.9754914, 121.4017467"
新北市樹林區育德國民小學,小學,新北市樹林區佳園路一段34號,24.9708725,121.3925043,"24.9708725, 121.3925043"
新北市樹林區柑園國民小學,小學,新北市樹林區柑園街一段353號,24.9557548,121.390047,"24.9557548, 121.390047"
新北市鶯歌區鶯歌國民小學,小學,新北市鶯歌區尖山埔路106號,24.951314,121.3460408,"24.951314, 121.3460408"
新北市鶯歌區二橋國民小學,小學,新北市鶯歌區中正三路106號,24.9410772,121.3377567,"24.9410772, 121.3377567"
新北市鶯歌區中湖國民小學,學校,新北市鶯歌區中湖街25號,24.9732834,121.3480221,"24.9732834, 121.3480221"
新北市鶯歌區鳳鳴國民小學,小學,新北市鶯歌區永和街120號,24.969172,121.334826,"24.969172, 121.334826"
新北市三峽區三峽國民小學,小學,新北市三峽區中山路16號,24.9356959,121.3678873,"24.9356959, 121.3678873"
新北市三峽區大埔國民小學,小學,新北市三峽區大埔路130號,24.905644,121.366478,"24.905644, 121.366478"
新北市三峽區民義國民小學,小學,新北市三峽區白雞路40號,24.9118949,121.375543,"24.9118949, 121.375543"
成福國民小學 （Chengfu Elementary School）,小學,新北市三峽區溪東路213號,24.933094,121.405542,"24.933094, 121.405542"
臺北市大安區建安國民小學,小學,台北市大安區大安路二段99號,25.0294281,121.5461523,"25.0294281, 121.5461523"
新北市三峽區插角國民小學,小學,新北市三峽區39號,24.8721953,121.4051872,"24.8721953, 121.4051872"
新北市三峽區有木國民小學,小學,新北市三峽區北114鄉道,24.8539552,121.437044,"24.8539552, 121.437044"
新北市三峽區五寮國民小學,小學,新北市三峽區五寮里69號,24.8589276,121.3597717,"24.8589276, 121.3597717"
新北市中和區復興國民小學,小學,新北市中和區復興路301巷6號,24.989664,121.501898,"24.989664, 121.501898"
新北市中和區興南國民小學,小學,新北市中和區興南路一段135巷24號,24.9869863,121.5095508,"24.9869863, 121.5095508"
新北市中和區秀山國民小學,小學,新北市中和區立人街2號,24.9951577,121.5211448,"24.9951577, 121.5211448"
新北市中和區積穗國民小學,小學,新北市中和區員山路154號,24.9992287,121.4821015,"24.9992287, 121.4821015"
新北市中和區自強國民小學,小學,新北市中和區莒光路200號,24.9983879,121.471818,"24.9983879, 121.471818"
新北市中和區錦和國民小學,小學,新北市中和區圓通路292號,24.9898743,121.4893351,"24.9898743, 121.4893351"
新北市中和區景新國民小學,小學,新北市中和區景新街467巷37號,24.9895503,121.5157675,"24.9895503, 121.5157675"
新北市永和區永和國民小學,小學,新北市永和區秀朗路一段120號,25.0033711,121.516948,"25.0033711, 121.516948"
新北市永和區秀朗國民小學,小學,新北市永和區得和路202號,24.9989399,121.5213727,"24.9989399, 121.5213727"
新北市永和區頂溪國民小學,小學,新北市永和區文化路133號,25.0152952,121.5114852,"25.0152952, 121.5114852"
新北市永和區網溪國民小學,小學,新北市永和區竹林路79號,25.0131925,121.5200381,"25.0131925, 121.5200381"
新北市永和區永平國民小學,小學,新北市永和區保生路25號,25.0076661,121.505072,"25.0076661, 121.505072"
新北市土城區土城國民小學,小學,新北市土城區興城路17號,24.9720709,121.4421155,"24.9720709, 121.4421155"
新北市土城區清水國民小學,小學,新北市土城區金城路二段356號,24.984827,121.4612011,"24.984827, 121.4612011"
新北市土城區頂埔國民小學,小學,新北市土城區中央路四段205號,24.9560423,121.4143186,"24.9560423, 121.4143186"
新北市土城區廣福國民小學,小學,新北市土城區學府路一段127號,24.9868943,121.454876,"24.9868943, 121.454876"
新北市汐止區汐止國民小學,小學,新北市汐止區大同路二段313號,25.0670642,121.6545593,"25.0670642, 121.6545593"
臺北市中山區長安國民小學,小學,台北市中山區吉林路15號,25.0498254,121.5301942,"25.0498254, 121.5301942"
新北市汐止區保長國民小學,小學,新北市汐止區大同路三段553號,25.071773,121.680851,"25.071773, 121.680851"
Chongde Elementary School,小學,新北市汐止區茄苳路158號,25.0695778,121.6691867,"25.0695778, 121.6691867"
新北市汐止區北港國民小學,小學,新北市汐止區汐萬路二段279號,25.0888467,121.6452485,"25.0888467, 121.6452485"
新北市汐止區北峰國民小學,小學,新北市汐止區環河街1號,25.0633154,121.6323479,"25.0633154, 121.6323479"
新北市汐止區東山國民小學,小學,新北市汐止區汐平路二段76號,25.0600444,121.7000861,"25.0600444, 121.7000861"
新北市汐止區白雲國民小學,小學,新北市汐止區民權街二段90號,25.04766,121.618851,"25.04766, 121.618851"
新北市萬里區萬里國民小學,小學,新北市萬里區瑪鋉路18號,25.1761503,121.689228,"25.1761503, 121.689228"
新北市萬里區野柳國民小學,小學,新北市萬里區港東路167號,25.2054436,121.6893652,"25.2054436, 121.6893652"
新北市萬里區大鵬國民小學,小學,新北市萬里區14號,25.2085198,121.651792,"25.2085198, 121.651792"
新北市萬里區大坪國民小學,小學,新北市萬里區大坪路1號,25.1672809,121.6385466,"25.1672809, 121.6385466"
新北市萬里區崁腳國民小學,小學,新北市萬里區萬崁路59號,25.160305,121.6491835,"25.160305, 121.6491835"
新北市金山區金山國民小學,小學,新北市金山區中山路234號,25.222905,121.636599,"25.222905, 121.636599"
新北市金山區中角國民小學,小學,新北市金山區海興路49號,25.239723,121.630602,"25.239723, 121.630602"
新北市新店區新店國民小學,小學,新北市新店區新店路2號,24.9530138,121.5403764,"24.9530138, 121.5403764"
新北市新店區直潭國民小學,小學,新北市新店區直潭路92號,24.9377936,121.5309584,"24.9377936, 121.5309584"
新北市新店區青潭國民小學,小學,新北市新店區北宜路二段80號,24.9530749,121.5521792,"24.9530749, 121.5521792"
新北市新店區雙峰國民小學,小學,新北市新店區北宜路三段66號,24.9513603,121.5754065,"24.9513603, 121.5754065"
新北市新店區 大豐國民小學,小學,新北市新店區民族路108號,24.9776538,121.5381063,"24.9776538, 121.5381063"
臺北市中山區中正國民小學,小學,台北市中山區龍江路62號,25.0506621,121.5393708,"25.0506621, 121.5393708"
新北市新店區安坑國民小學,小學,新北市新店區安忠路36號,24.9610066,121.5135319,"24.9610066, 121.5135319"
新北市新店區雙城國民小學,小學,新北市新店區安康路三段322號,24.9522748,121.4863686,"24.9522748, 121.4863686"
Quchi Elementary School,小學,新北市新店區屈尺路55號,24.9225975,121.5470266,"24.9225975, 121.5470266"
新北市石碇區石碇國民小學,小學,新北市石碇區石碇西街15號,24.9906097,121.6590142,"24.9906097, 121.6590142"
臺北市大安區和平實驗國民小學,小學,台北市大安區敦南街76巷28號,25.0206987,121.5466427,"25.0206987, 121.5466427"
Anding Elementary School,小學,新北市石碇區永定里靜安路一段245號,25.007807,121.6882809,"25.007807, 121.6882809"
新北市石碇區雲海國民小學,小學,新北市石碇區北宜路五段坑內巷1號,24.952989,121.636376,"24.952989, 121.636376"
新北市坪林區坪林國民小學,小學,新北市坪林區坪林街114號,24.9360466,121.7107604,"24.9360466, 121.7107604"
新北市立烏來國民中小學,中學,新北市烏來區啦卡路5號,24.8633308,121.5540847,"24.8633308, 121.5540847"
新北市烏來區德拉楠國民小學,小學,新北市烏來區李茂岸56號,24.7774365,121.5022037,"24.7774365, 121.5022037"
市立瑞芳國小附設幼稚園,幼稚園,新北市瑞芳區中山路2號,25.1078272,121.8046681,"25.1078272, 121.8046681"
臺北市北投區義方國民小學,小學,台北市北投區珠海路155號,25.1419691,121.5092916,"25.1419691, 121.5092916"
新北市瑞芳區瑞柑國民小學,小學,新北市瑞芳區明燈路一段18巷13號,25.109106,121.8226928,"25.109106, 121.8226928"
新北市瑞芳區瑞濱國民小學,小學,新北市瑞芳區瑞濱路34號,25.1202103,121.81997,"25.1202103, 121.81997"
新北市瑞芳區九份國民小學(教育部永續校園),小學,新北市瑞芳區崙頂路145號,25.1074286,121.8436296,"25.1074286, 121.8436296"
新北市瑞芳區瓜山國民小學(教育部永續校園),小學,新北市瑞芳區五號路306號,25.1110064,121.8570488,"25.1110064, 121.8570488"
濂洞國小,小學,新北市瑞芳區洞頂路101巷80號,25.1223236,121.8599855,"25.1223236, 121.8599855"
新北市立猴硐蒙特梭利實驗小學,小學,新北市瑞芳區九芎橋路69-1號,25.0957247,121.8334918,"25.0957247, 121.8334918"
新北市瑞芳區瑞亭國民小學,小學,新北市瑞芳區四腳亭埔路23號,25.1028543,121.7776061,"25.1028543, 121.7776061"
新北市瑞芳區吉慶國民小學,小學,新北市瑞芳區大埔路95號,25.099843,121.7630961,"25.099843, 121.7630961"
新北市瑞芳區鼻頭國民小學,小學,新北市瑞芳區鼻頭路99號,25.1213779,121.9195251,"25.1213779, 121.9195251"
新北市雙溪區雙溪國民小學,小學,新北市雙溪區東榮街54號,25.0334837,121.8666176,"25.0334837, 121.8666176"
新北市雙溪區柑林國民小學,小學,新北市雙溪區長源里柑腳3號,25.015076,121.8046429,"25.015076, 121.8046429"
新北市雙溪區上林國民小學,小學,新北市雙溪區60號,25.029311,121.8321167,"25.029311, 121.8321167"
新北市雙溪區牡丹國民小學,小學,新北市雙溪區政光路3號227001,25.062108,121.8517028,"25.062108, 121.8517028"
新北市貢寮區貢寮國民小學,小學,新北市貢寮區學苑街7號,25.0220718,121.9154877,"25.0220718, 121.9154877"
市立福隆國小附設幼稚園,幼稚園,新北市貢寮區東興街35號,25.0174495,121.9481268,"25.0174495, 121.9481268"
新北市貢寮區澳底國民小學,小學,新北市貢寮區真理里延平街10號,25.054924,121.924534,"25.054924, 121.924534"
臺北市內湖區潭美國民小學,小學,台北市內湖區行善路179號,25.0592365,121.5815887,"25.0592365, 121.5815887"
新北市貢寮區福連國民小學,小學,新北市貢寮區福連街1號,25.0167967,121.988721,"25.0167967, 121.988721"
新北市平溪區平溪國民小學,小學,新北市平溪區平溪街56號,25.0273,121.737385,"25.0273, 121.737385"
新北市平溪區菁桐國民小學,小學,新北市平溪區菁桐街45號,25.0232766,121.7269901,"25.0232766, 121.7269901"
新北市平溪區十分國民小學,小學,新北市平溪區十分街157號,25.043489,121.77765,"25.043489, 121.77765"
新北市淡水區淡水國民小學,小學,新北市淡水區中山路160號,25.1730041,121.4410781,"25.1730041, 121.4410781"
新北市淡水區育英國民小學,小學,新北市淡水區埤島里14號,25.197064,121.444851,"25.197064, 121.444851"
新北市淡水區文化國民小學,小學,新北市淡水區真理街6號,25.1740069,121.437371,"25.1740069, 121.437371"
新北市淡水區天生國民小學,小學,新北市淡水區淡海路72巷26號,25.181506,121.424601,"25.181506, 121.424601"
新北市淡水區水源國民小學,小學,新北市淡水區北新路二段15號,25.1858379,121.4765516,"25.1858379, 121.4765516"
新北市淡水區興仁國民小學,小學,新北市淡水區興仁路101巷10號,25.2175745,121.4512149,"25.2175745, 121.4512149"
新北市立忠山實驗小學,小學,新北市淡水區行忠路899號,25.2004145,121.4799327,"25.2004145, 121.4799327"
新北市淡水區屯山國民小學,小學,新北市淡水區淡金路五段111號,25.237288,121.456325,"25.237288, 121.456325"
新北市淡水區中泰國民小學,小學,新北市淡水區2510015號,25.2241699,121.4845694,"25.2241699, 121.4845694"
新北市石門區石門國民小學,小學,新北市石門區中央路9號,25.2919941,121.5672318,"25.2919941, 121.5672318"
新北市石門區乾華國民小學,小學,新北市石門區茂林社區74號,25.2691286,121.5922165,"25.2691286, 121.5922165"
新北市立老梅實驗小學,小學,新北市石門區老梅路10號,25.2888511,121.5447978,"25.2888511, 121.5447978"
新北市三芝區三芝國民小學,小學,新北市三芝區育英街22號,25.2575921,121.5015346,"25.2575921, 121.5015346"
新北市三芝區橫山國民小學,小學,新北市三芝區橫山里86號,25.2586728,121.5299089,"25.2586728, 121.5299089"
臺北市文山區興華國民小學,小學,台北市文山區興隆路三段125巷6號,24.9995861,121.5592502,"24.9995861, 121.5592502"
新北市新莊區新莊國民小學,小學,新北市新莊區中正路86號,25.0369227,121.4561222,"25.0369227, 121.4561222"
新北市新莊區中港國民小學,小學,新北市新莊區中港一街142號,25.0451024,121.4471707,"25.0451024, 121.4471707"
新北市新莊區思賢國民小學,小學,新北市新莊區自立街229號,25.0461927,121.4567953,"25.0461927, 121.4567953"
新北市新莊區頭前國民小學,小學,新北市新莊區化成路231號,25.0528262,121.4661311,"25.0528262, 121.4661311"
新北市新莊區國泰國民小學,小學,新北市新莊區中正路386號,25.0340253,121.4417355,"25.0340253, 121.4417355"
新北市新莊區豐年國民小學,小學,新北市新莊區瓊泰路116號,25.0308533,121.44337,"25.0308533, 121.44337"
新北市新莊區丹鳳國民小學,小學,新北市新莊區新北大道七段437號,25.02449,121.4139574,"25.02449, 121.4139574"
新北市新莊區光華國民小學,小學,新北市新莊區龍安路452號,25.0178239,121.4251486,"25.0178239, 121.4251486"
新北市新莊區民安國民小學,小學,新北市新莊區民安路261號,25.0223304,121.4277092,"25.0223304, 121.4277092"
新北市新莊區昌隆國民小學,小學,新北市新莊區昌隆街63號,25.0509984,121.4559874,"25.0509984, 121.4559874"
新北市泰山區泰山國民小學,小學,新北市泰山區泰林路二段255號,25.0614848,121.4315562,"25.0614848, 121.4315562"
教育部永續校園_新北市明志國民小學,學校,新北市泰山區新生路2號,25.0450758,121.4269401,"25.0450758, 121.4269401"
新北市五股區成州國民小學,小學,新北市五股區成泰路三段493號,25.0997414,121.4506619,"25.0997414, 121.4506619"
新北市五股區更寮國民小學,小學,新北市五股區四維路2號,25.070614,121.467242,"25.070614, 121.467242"
新北市五股區五股國民小學,小學,新北市五股區成泰路二段49號,25.0828124,121.4368987,"25.0828124, 121.4368987"
新北市蘆洲區蘆洲國民小學,小學,新北市蘆洲區中正路100號,25.0844014,121.4700712,"25.0844014, 121.4700712"
新北市蘆洲區鷺江國民小學,小學,新北市蘆洲區民族路7號,25.085096,121.4766525,"25.085096, 121.4766525"
新北市八里區八里國民小學,小學,新北市八里區中山路二段338號,25.149226,121.403048,"25.149226, 121.403048"
新北市八里區長坑國民小學,小學,新北市八里區中華路三段236號,25.125434,121.390358,"25.125434, 121.390358"
新北市八里區米倉國民小學,小學,新北市八里區龍米路二段129巷1號,25.1468172,121.4455307,"25.1468172, 121.4455307"
新北市林口國民小學,學校,新北市林口區林口路76號,25.0802712,121.3904407,"25.0802712, 121.3904407"
新北市林口區南勢國民小學,小學,新北市林口區南勢五街2號,25.0749553,121.3581887,"25.0749553, 121.3581887"
新北市林口區嘉寶國民小學,小學,新北市林口區嘉溪雅坑22號,25.1081639,121.3396225,"25.1081639, 121.3396225"
新北市林口區瑞平國民小學,小學,新北市林口區太平里後坑34之1號,25.1282815,121.3490854,"25.1282815, 121.3490854"
臺北市信義區興雅國民小學,小學,台北市信義區基隆路一段83巷9號,25.047249,121.5696554,"25.047249, 121.5696554"
新北市三重區三重國民小學,小學,新北市三重區三和路三段1號,25.0700091,121.4980451,"25.0700091, 121.4980451"
新北市三重區永福國民小學,小學,新北市三重區永福街66號,25.0769701,121.4800481,"25.0769701, 121.4800481"
新北市三重區光榮國民小學,小學,新北市三重區介壽路32號,25.0708236,121.501357,"25.0708236, 121.501357"
新北市三重區厚德國民小學,小學,新北市三重區忠孝路一段70號,25.071906,121.489854,"25.071906, 121.489854"
新北市三重區碧華國民小學,小學,新北市三重區五華街160號,25.0847532,121.4895168,"25.0847532, 121.4895168"
三光國小,小學,新北市三重區大同南路157號,25.0563449,121.4965556,"25.0563449, 121.4965556"
光興國小,小學,新北市三重區正義南路62號,25.059034,121.498799,"25.059034, 121.498799"
新北市三重區修德國民小學,小學,新北市三重區重陽路三段3號號,25.0652191,121.4895177,"25.0652191, 121.4895177"
新北市三重區二重國民小學,小學,新北市三重區大有街10號,25.0656298,121.4781955,"25.0656298, 121.4781955"
新北市三重區興穀國民小學,小學,新北市三重區神農街101號,25.0502814,121.4749077,"25.0502814, 121.4749077"
新北市新莊區興化國民小學,學校,新北市新莊區五工二路50巷2號,25.065854,121.461594,"25.065854, 121.461594"
臺北市中山區中山國民小學,小學,台北市中山區民權東路一段69號,25.0635796,121.5265298,"25.0635796, 121.5265298"
新北市樹林區三多國民小學,小學,新北市樹林區三福街52號,25.0164155,121.4060149,"25.0164155, 121.4060149"
實踐國小,小學,台北市文山區忠順街一段4號,24.9831947,121.557268,"24.9831947, 121.557268"
新北市板橋區大觀國民小學,小學,新北市板橋區大觀路一段30號,25.0085839,121.4493493,"25.0085839, 121.4493493"
臺北市信義區信義國民小學,小學,台北市信義區松勤街60號,25.0312351,121.5629977,"25.0312351, 121.5629977"
新北市土城區樂利國民小學,小學,新北市土城區裕生路65號,24.9852144,121.4479542,"24.9852144, 121.4479542"
新北市土城區安和國民小學,小學,新北市土城區延和路23號,24.9889386,121.4649765,"24.9889386, 121.4649765"
新北市樹林區彭福國民小學,小學,新北市樹林區忠孝街30號,24.9814636,121.4239611,"24.9814636, 121.4239611"
新北市樹林區育林國民小學,小學,新北市樹林區復興路395號,24.9857421,121.4158408,"24.9857421, 121.4158408"
新北市三峽區安溪國民小學,小學,新北市三峽區中華路42號,24.9310827,121.372483,"24.9310827, 121.372483"
新北市汐止區樟樹國民小學,小學,新北市汐止區樟樹一路141巷2號,25.0664982,121.6417674,"25.0664982, 121.6417674"
新北市金山區金美國民小學,小學,新北市金山區忠孝一路111號,25.2211334,121.6354001,"25.2211334, 121.6354001"
臺北市萬華區新和國民小學,小學,台北市萬華區西藏路125巷31號,25.0259789,121.5033178,"25.0259789, 121.5033178"
新北市淡水區鄧公國民小學,小學,新北市淡水區學府路99號,25.1719094,121.4490261,"25.1719094, 121.4490261"
新北市淡水區新興國民小學,小學,新北市淡水區新興街123號,25.1797101,121.4400679,"25.1797101, 121.4400679"
新北市三重區重陽國民小學,小學,新北市三重區中正北路113號,25.066826,121.4840873,"25.066826, 121.4840873"
新北市三重區五華國民小學,小學,新北市三重區集賢路89號,25.0875728,121.4923536,"25.0875728, 121.4923536"
新北市蘆洲區成功國民小學,小學,新北市蘆洲區長安街311號,25.0856724,121.457378,"25.0856724, 121.457378"
臺北市大安區仁愛國民小學,小學,台北市大安區安和路一段60號,25.0358938,121.5522273,"25.0358938, 121.5522273"
新北市新莊區榮富國民小學,小學,新北市新莊區中和街193號,25.0517741,121.447515,"25.0517741, 121.447515"
裕民國小,小學,新北市新莊區裕民街123號,25.0218488,121.4181175,"25.0218488, 121.4181175"
新北市新莊區新泰國民小學,小學,新北市新莊區公園一路91號,25.037911,121.4437563,"25.037911, 121.4437563"
新北市新莊區中信國民小學,小學,新北市新莊區中信街168號,25.0564214,121.4486876,"25.0564214, 121.4486876"
新北市五股區德音國民小學,小學,新北市五股區明德路2號,25.0718716,121.4345271,"25.0718716, 121.4345271"
新北市林口區麗園國民小學,小學,新北市林口區忠孝路591號,25.0684302,121.3761869,"25.0684302, 121.3761869"
新北市新店區北新國民小學,小學,新北市新店區寶橋路八號,24.9737291,121.5446457,"24.9737291, 121.5446457"
市立同榮國小附設幼稚園,幼稚園,新北市泰山區公園路33號,25.0544586,121.4284637,"25.0544586, 121.4284637"
臺北市信義區光復國民小學,小學,台北市信義區光復南路271號,25.0402306,121.5581897,"25.0402306, 121.5581897"
新北市汐止區秀峰國民小學,小學,新北市汐止區仁愛路90號,25.0628885,121.6617018,"25.0628885, 121.6617018"
新北市汐止區金龍國民小學,小學,新北市汐止區明峰街201號,25.0685754,121.6277344,"25.0685754, 121.6277344"
新北市三峽區介壽國民小學,小學,新北市三峽區大同路1號,24.9299258,121.3785248,"24.9299258, 121.3785248"
新北市新莊區昌平國民小學,小學,新北市新莊區昌平街200號,25.0557918,121.4556827,"25.0557918, 121.4556827"
新北市林口區麗林國民小學,小學,新北市林口區公園路46號,25.0686085,121.3682287,"25.0686085, 121.3682287"
新北市三重區集美國民小學,小學,新北市三重區集美街10號,25.05656,121.4880016,"25.05656, 121.4880016"
臺北市信義區雙永國民小學,小學,台北市信義區松山路287巷5號,25.0435631,121.5792341,"25.0435631, 121.5792341"
新北市八里區大崁國民小學,小學,新北市八里區忠八街2號,25.160496,121.419402,"25.160496, 121.419402"
新北市三峽區中園國民小學,小學,新北市三峽區弘園街22號,24.9278051,121.3670898,"24.9278051, 121.3670898"
新北市鶯歌區昌福國民小學,小學,新北市鶯歌區永明街22號,24.955871,121.339386,"24.955871, 121.339386"
忠義國小,小學,台北市中正區中華路二段307巷17號,25.0296997,121.5061869,"25.0296997, 121.5061869"
新北市汐止區青山國民中小學,小學,新北市汐止區莊敬街33號,25.0611597,121.65666,"25.0611597, 121.65666"
新北市泰山區義學國民小學,小學,新北市泰山區民生路30號,25.0522369,121.4308926,"25.0522369, 121.4308926"
新北市立達觀國民中小學,學校,新北市新店區僑信路1號,24.9536199,121.4999804,"24.9536199, 121.4999804"
新北市立桃子腳國民中小學,小學,新北市樹林區學勤路555號,24.948918,121.382898,"24.948918, 121.382898"
新北市三峽區龍埔國民小學,小學,新北市三峽區大學路6號,24.9411542,121.3774903,"24.9411542, 121.3774903"
新北市林口區頭湖國民小學,小學,新北市林口區民權路101號,25.082093,121.372962,"25.082093, 121.372962"
臺北市松山區松山國民小學,小學,台北市松山區八德路四段746號,25.0504278,121.5782972,"25.0504278, 121.5782972"
臺北市松山區西松國民小學,小學,台北市松山區三民路5號,25.052771,121.5628828,"25.052771, 121.5628828"
臺北市松山區敦化國民小學,小學,台北市松山區敦化北路2號,25.0491523,121.5481039,"25.0491523, 121.5481039"
臺北市松山區民生國民小學,小學,台北市松山區敦化北路199巷18號,25.0565153,121.5521795,"25.0565153, 121.5521795"
臺北市松山區民權國民小學,小學,台北市松山區民權東路四段200號,25.0622135,121.5623183,"25.0622135, 121.5623183"
臺北市松山區民族國民小學,小學,台北市松山區民生東路四段97巷7號,25.0594659,121.5513308,"25.0594659, 121.5513308"
臺北市松山區健康國民小學,小學,台北市松山區延壽街168號,25.0564197,121.5627472,"25.0564197, 121.5627472"
臺北市信義區三興國民小學,小學,台北市信義區基隆路二段99號號,25.0292438,121.5588319,"25.0292438, 121.5588319"
臺北市信義區吳興國民小學,小學,台北市信義區松仁路226號,25.0255934,121.5683186,"25.0255934, 121.5683186"
臺北市信義區福德國民小學,小學,台北市信義區福德街253號,25.0385144,121.5867071,"25.0385144, 121.5867071"
臺北市信義區博愛國民小學,小學,台北市信義區松仁路95巷20號,25.0359962,121.5708933,"25.0359962, 121.5708933"
國立臺北教育大學附設實驗國民小學,小學,台北市大安區和平東路二段94號,25.0244396,121.5405518,"25.0244396, 121.5405518"
臺北市私立立人國際國民中小學,小學,台北市大安區安和路二段99號,25.0298352,121.5519283,"25.0298352, 121.5519283"
臺北市私立新民國民小學,小學,台北市大安區辛亥路一段113號,25.0222236,121.5316611,"25.0222236, 121.5316611"
臺北市大安區龍安國民小學,小學,台北市大安區新生南路三段33號,25.0236178,121.5352182,"25.0236178, 121.5352182"
臺北市大安區大安國民小學,小學,台北市大安區臥龍街129號,25.0194828,121.5497544,"25.0194828, 121.5497544"
臺北市大安區幸安國民小學,小學,台北市大安區仁愛路三段22號,25.0369689,121.5349574,"25.0369689, 121.5349574"
臺北市大安區金華國民小學,小學,台北市大安區愛國東路79巷11號,25.0322766,121.5277667,"25.0322766, 121.5277667"
臺北市大安區古亭國民小學,小學,台北市大安區羅斯福路三段201號,25.0211395,121.5293767,"25.0211395, 121.5293767"
臺北市大安區銘傳國民小學,小學,台北市大安區羅斯福路四段21號,25.0140674,121.5354217,"25.0140674, 121.5354217"
臺北市大安區新生國民小學,小學,台北市大安區新生南路二段36號,25.0298538,121.5331684,"25.0298538, 121.5331684"
臺北市中山區長春國民小學,小學,台北市中山區長春路165號,25.0555125,121.534168,"25.0555125, 121.534168"
臺北市中山區大直國民小學,小學,台北市中山區大直街2號,25.0805261,121.5464127,"25.0805261, 121.5464127"
臺北市中山區大佳國民小學,小學,台北市中山區濱江街107號,25.0733728,121.5360181,"25.0733728, 121.5360181"
臺北市中山區五常國民小學,小學,台北市中山區五常街16號,25.0640119,121.5418175,"25.0640119, 121.5418175"
臺北市中山區吉林國民小學,小學,台北市中山區長春路116號,25.0541638,121.5292245,"25.0541638, 121.5292245"
臺北市中山區懷生國民小學,小學,台北市中山區安東街16巷2號,25.0452404,121.5417844,"25.0452404, 121.5417844"
臺北市中山區永安國民小學,小學,台北市中山區明水路397巷19弄1號,25.0787857,121.5495772,"25.0787857, 121.5495772"
臺北市立濱江國民小學,小學,台北市中山區樂群二路266巷99號,25.0776229,121.5610254,"25.0776229, 121.5610254"
臺北市中正區螢橋國民小學,小學,台北市中正區詔安街29號,25.0251379,121.5143526,"25.0251379, 121.5143526"
臺北市中正區河堤國民小學,小學,台北市中正區汀州路二段180號,25.023202,121.5223251,"25.023202, 121.5223251"
臺北市中正區南門國民小學,小學,台北市中正區廣州街6號,25.0350106,121.5089988,"25.0350106, 121.5089988"
臺北市中正區東門國民小學,小學,台北市中正區仁愛路一段2-4號,25.0382536,121.5204424,"25.0382536, 121.5204424"
臺北市立大學附設實驗國民小學,小學,台北市中正區公園路29號,25.036164,121.5155233,"25.036164, 121.5155233"
臺北市大同區蓬萊國民小學,小學,台北市大同區寧夏路35號,25.0563265,121.5163712,"25.0563265, 121.5163712"
臺北市大同區日新國民小學,小學,台北市大同區太原路151號,25.0544041,121.5164821,"25.0544041, 121.5164821"
臺北市大同區太平國民小學,小學,台北市大同區延平北路二段239號,25.061383,121.511449,"25.061383, 121.511449"
臺北市大同區永樂國民小學,小學,台北市大同區延平北路二段266號,25.061297,121.5110848,"25.061297, 121.5110848"
臺北市大同區雙蓮國民小學,小學,台北市大同區錦西街51號,25.0601267,121.5168171,"25.0601267, 121.5168171"
臺北市大同區大龍國民小學,小學,台北市大同區哈密街47號,25.0734158,121.5168631,"25.0734158, 121.5168631"
臺北市大同區延平國民小學,小學,台北市大同區昌吉街97號,25.0666472,121.5124288,"25.0666472, 121.5124288"
臺北市大同區大橋國民小學,小學,台北市大同區重慶北路三段2號,25.0640638,121.5134164,"25.0640638, 121.5134164"
臺北市天主教光仁國民小學,小學,台北市萬華區萬大路423巷15號,25.021642,121.4995444,"25.021642, 121.4995444"
臺北市萬華區雙園國民小學,小學,台北市萬華區莒光路315號,25.0308536,121.4981343,"25.0308536, 121.4981343"
臺北市萬華區東園國民小學,小學,台北市萬華區東園街195號,25.022978,121.497962,"25.022978, 121.497962"
臺北市萬華區大理國民小學,小學,台北市萬華區艋舺大道389號,25.0313314,121.4937164,"25.0313314, 121.4937164"
臺北市萬華區西園國民小學,小學,台北市萬華區東園街73巷65號,25.0267763,121.4983379,"25.0267763, 121.4983379"
臺北市萬華區萬大國民小學,小學,台北市萬華區萬大路346號,25.0236071,121.4992855,"25.0236071, 121.4992855"
臺北市萬華區華江國民小學,小學,台北市萬華區環河南路二段250巷42弄2號,25.0340923,121.4912626,"25.0340923, 121.4912626"
臺北市萬華區西門國民小學,小學,台北市萬華區成都路98號,25.0425653,121.503981,"25.0425653, 121.503981"
臺北市萬華區老松國民小學,小學,台北市萬華區桂林路64號,25.0374164,121.5026351,"25.0374164, 121.5026351"
臺北市萬華區龍山國民小學,小學,台北市萬華區和平西路三段235號,25.0356648,121.4961552,"25.0356648, 121.4961552"
臺北市萬華區福星國民小學,小學,台北市萬華區中華路一段66號,25.0467891,121.508879,"25.0467891, 121.508879"
國立政治大學附設實驗國民小學,小學,台北市文山區指南路三段12號,24.9845888,121.5798589,"24.9845888, 121.5798589"
臺北市私立中山國民小學,小學,台北市文山區木柵路一段292號,24.9883007,121.556328,"24.9883007, 121.556328"
臺北市私立再興小學,小學,台北市文山區興隆路四段2號,24.990051,121.5581345,"24.990051, 121.5581345"
臺北市文山區景美國民小學,小學,台北市文山區景文街108號,24.9895171,121.5407883,"24.9895171, 121.5407883"
臺北市文山區武功國民小學,小學,台北市文山區興隆路一段68號,25.0039259,121.5403992,"25.0039259, 121.5403992"
臺北市文山區興德國民小學,小學,台北市文山區興隆路二段235號,25.0016269,121.5508457,"25.0016269, 121.5508457"
臺北市文山區溪口國民小學,小學,台北市文山區景福街225號,24.994284,121.5390753,"24.994284, 121.5390753"
臺北市文山區興隆國民小學,小學,台北市文山區福興路2號,25.0024035,121.5519275,"25.0024035, 121.5519275"
臺北市文山區志清國民小學,小學,台北市文山區景福街21巷5號,24.9985863,121.5388826,"24.9985863, 121.5388826"
臺北市文山區景興國民小學,小學,台北市文山區景華街150巷21號,24.9962181,121.5484713,"24.9962181, 121.5484713"
臺北市文山區永建國民小學,小學,台北市文山區木柵路一段311巷1號,24.9886491,121.5552794,"24.9886491, 121.5552794"
臺北市博嘉實驗國民小學,小學,台北市文山區木柵路四段159巷14-1號,25.0017864,121.575794,"25.0017864, 121.575794"
臺北市文山區指南實驗國民小學,小學,台北市文山區指南路三段38巷5-2號號,24.9762353,121.5840716,"24.9762353, 121.5840716"
臺北市文山區明道國民小學,小學,台北市文山區木柵路二段138巷61號,24.9874606,121.5635125,"24.9874606, 121.5635125"
臺北市文山區萬芳國民小學,小學,台北市文山區萬和街1號,25.0007508,121.5672899,"25.0007508, 121.5672899"
臺北市文山區力行國民小學,小學,台北市文山區木新路三段155巷7號,24.9809608,121.5611275,"24.9809608, 121.5611275"
臺北市文山區萬興國民小學,小學,台北市文山區秀明路二段114號,24.9904073,121.5766713,"24.9904073, 121.5766713"
臺北市文山區萬福國民小學,小學,台北市文山區羅斯福路五段170巷32號,25.004898,121.5367507,"25.004898, 121.5367507"
臺北市文山區辛亥國民小學,小學,台北市文山區辛亥路四段103號,25.0062244,121.5592414,"25.0062244, 121.5592414"
臺北市南港區南港國民小學,小學,台北市南港區惠民街67號,25.0576651,121.6107725,"25.0576651, 121.6107725"
臺北市南港區舊莊國民小學,小學,台北市南港區舊莊街一段100號,25.0397244,121.619421,"25.0397244, 121.619421"
臺北市南港區玉成國民小學,小學,台北市南港區向陽路31號,25.0536151,121.5945708,"25.0536151, 121.5945708"
臺北市南港區成德國民小學,小學,台北市南港區東新街65號,25.0470902,121.5868725,"25.0470902, 121.5868725"
臺北市南港區胡適國民小學,小學,台北市南港區舊莊街一段1號,25.0427148,121.617798,"25.0427148, 121.617798"
臺北市南港區東新國民小學,小學,台北市南港區興南街62號,25.056042,121.60211,"25.056042, 121.60211"
臺北市內湖區內湖國民小學,小學,台北市內湖區內湖路二段41號,25.0796114,121.5805088,"25.0796114, 121.5805088"
臺北市內湖區碧湖國民小學,小學,台北市內湖區金龍路100號,25.0851686,121.5911128,"25.0851686, 121.5911128"
臺北市立西湖國民小學,小學,台北市內湖區環山路一段25號,25.0838152,121.5657339,"25.0838152, 121.5657339"
臺北市內湖區康寧國民小學,小學,台北市內湖區星雲街121號,25.0800888,121.5949113,"25.0800888, 121.5949113"
臺北市內湖區明湖國民小學,小學,台北市內湖區康寧路三段105號,25.0713268,121.6112683,"25.0713268, 121.6112683"
臺北市立麗山國民小學,小學,台北市內湖區港華街100號,25.0830794,121.5723182,"25.0830794, 121.5723182"
臺北市內湖區新湖國民小學,小學,台北市內湖區民權東路六段138號,25.0682888,121.5884679,"25.0682888, 121.5884679"
臺北市內湖區文湖國民小學,小學,台北市內湖區文湖街15號,25.0863225,121.5599854,"25.0863225, 121.5599854"
大湖國民小學,小學,台北市內湖區大湖山莊街170號,25.087545,121.6010775,"25.087545, 121.6010775"
臺北市內湖區南湖國民小學,小學,台北市內湖區康寧路三段200號,25.0681686,121.6116241,"25.0681686, 121.6116241"
臺北市內湖區麗湖國民小學,小學,台北市內湖區金湖路363巷8號,25.073162,121.6012039,"25.073162, 121.6012039"
臺北市士林區士林國民小學,小學,台北市士林區大東路165號,25.0933199,121.5249268,"25.0933199, 121.5249268"
臺北市士林區士東國民小學,小學,台北市士林區中山北路六段392號,25.112849,121.5269179,"25.112849, 121.5269179"
臺北市士林區福林國民小學,小學,台北市士林區福志路75號,25.098198,121.5298544,"25.098198, 121.5298544"
臺北市士林區陽明山國民小學,小學,台北市士林區仰德大道三段61號,25.1198928,121.5527652,"25.1198928, 121.5527652"
臺北市士林區社子國民小學,小學,台北市士林區延平北路六段308號,25.0906111,121.5027354,"25.0906111, 121.5027354"
臺北市士林區雨聲國民小學,小學,台北市士林區至誠路一段62巷70號,25.1026251,121.5352657,"25.1026251, 121.5352657"
臺北市士林區富安國民小學,小學,台北市士林區延平北路八段135號,25.105838,121.482581,"25.105838, 121.482581"
臺北市士林區劍潭國民小學,小學,台北市士林區通河街16號,25.0798338,121.5228989,"25.0798338, 121.5228989"
臺北市溪山實驗國民小學,小學,台北市士林區至善路三段199號,25.1195861,121.5796194,"25.1195861, 121.5796194"
臺北市士林區平等國民小學,小學,台北市士林區平菁街101號,25.1288022,121.5767074,"25.1288022, 121.5767074"
臺北市士林區百齡國民小學,小學,台北市士林區福港街205號,25.0859766,121.5185773,"25.0859766, 121.5185773"
臺北市士林區雙溪國民小學,小學,台北市士林區中社路二段66號,25.1064871,121.5647875,"25.1064871, 121.5647875"
臺北市士林區葫蘆國民小學,小學,台北市士林區環河北路三段95號,25.0839019,121.5074579,"25.0839019, 121.5074579"
臺北市士林區雨農國民小學,小學,台北市士林區忠義街1號,25.1050237,121.5301968,"25.1050237, 121.5301968"
臺北市士林區天母國民小學,小學,台北市士林區天玉街12號,25.1198565,121.5272988,"25.1198565, 121.5272988"
臺北市士林區芝山國民小學,小學,台北市士林區德行東路285號,25.1106601,121.5366139,"25.1106601, 121.5366139"
臺北市士林區蘭雅國民小學,小學,台北市士林區磺溪街57號,25.108283,121.523121,"25.108283, 121.523121"
臺北市士林區三玉國民小學,小學,台北市士林區天母東路116號,25.1172163,121.5371384,"25.1172163, 121.5371384"
維中文理教育 薇閣專班-國高中本部,補習班,"No. 711-713號, 大業路北投區台北市112",25.137205,121.5009035,"25.137205, 121.5009035"
臺北市北投區北投國民小學,小學,台北市北投區中央北路一段73號,25.1341467,121.5002075,"25.1341467, 121.5002075"
臺北市北投區逸仙國民小學,小學,台北市北投區新民路2號,25.1383717,121.5051666,"25.1383717, 121.5051666"
臺北市北投區石牌國民小學,小學,台北市北投區致遠二路80號,25.1154038,121.5124252,"25.1154038, 121.5124252"
臺北市北投區關渡國民小學,小學,台北市北投區中央北路四段581號,25.1262112,121.4665248,"25.1262112, 121.4665248"
臺北市湖田實驗國民小學,小學,台北市北投區竹子湖路17-2號,25.168457,121.538774,"25.168457, 121.538774"
臺北市北投區清江國民小學,小學,台北市北投區公?路220號,25.1268231,121.5074753,"25.1268231, 121.5074753"
臺北市泉源實驗國民小學,小學,台北市北投區東昇路34號,25.1493082,121.5240858,"25.1493082, 121.5240858"
臺北市北投區大屯國民小學,小學,台北市北投區復興三路312號,25.1549141,121.5040167,"25.1549141, 121.5040167"
臺北市北投區湖山國民小學,小學,台北市北投區湖底路11號,25.1500052,121.535925,"25.1500052, 121.535925"
臺北市北投區桃源國民小學,小學,台北市北投區中央北路三段40巷45號,25.1397049,121.4844614,"25.1397049, 121.4844614"
臺北市北投區立農國民小學,小學,台北市北投區立農街一段250號,25.119493,121.505032,"25.119493, 121.505032"
臺北市北投區明德國民小學,小學,台北市北投區明德路190號,25.112128,121.5217958,"25.112128, 121.5217958"
新北市板橋區板橋國民中學,中學,新北市板橋區中正路437號,25.0239707,121.4542534,"25.0239707, 121.4542534"
台北市立重慶國中,中學,台北市大同區敦煌路19號,25.0759168,121.5180299,"25.0759168, 121.5180299"
新北市板橋區江翠國民中學,公立學校,新北市板橋區松江街63號,25.0288632,121.4684592,"25.0288632, 121.4684592"
臺北市立中山國民中學,中學,台北市松山區復興北路361巷7號,25.0606103,121.5455307,"25.0606103, 121.5455307"
新埔國中,中學,新北市板橋區新海路181號,25.0248193,121.4597107,"25.0248193, 121.4597107"
新北市新莊區新莊國民中學,中學,新北市新莊區中正路211號,25.0354319,121.452037,"25.0354319, 121.452037"
新北市立新泰國民中學,中學,新北市新莊區新泰路359號,25.0422918,121.4434786,"25.0422918, 121.4434786"
新北市立福營國民中學,中學,新北市新莊區富國路105號,25.0253278,121.4226278,"25.0253278, 121.4226278"
新北市立頭前國民中學,中學,新北市新莊區中原路2號,25.0546978,121.4590608,"25.0546978, 121.4590608"
新北市三重區光榮國民中學,中學,新北市三重區介壽路26號,25.0704534,121.4999178,"25.0704534, 121.4999178"
新北市立明志國民中學,中學,新北市三重區中正北路107號,25.0634787,121.4890227,"25.0634787, 121.4890227"
新北市三重區碧華國民中學,中學,新北市三重區三信路166號,25.087156,121.488933,"25.087156, 121.488933"
新北市立永和國民中學,中學,新北市永和區國中路111號,25.0058967,121.52301,"25.0058967, 121.52301"
新北市立福和國民中學,中學,新北市永和區永利路71號,25.0040606,121.5209434,"25.0040606, 121.5209434"
新北市立中和國民中學,中學,新北市中和區興南路二段3巷17號,24.9855434,121.5087918,"24.9855434, 121.5087918"
新北市立積穗國民中學,中學,新北市中和區民安街66號,25.0005962,121.4787482,"25.0005962, 121.4787482"
新北市立漳和國民中學,中學,新北市中和區廣福路39號,25.0020142,121.5056702,"25.0020142, 121.5056702"
新北市立鶯歌國民中學,中學,新北市鶯歌區尖山埔路108號,24.9504584,121.3448534,"24.9504584, 121.3448534"
新北市立柑園國民中學,學校,新北市樹林區柑園街二段125號,24.9547066,121.3841873,"24.9547066, 121.3841873"
新北市立土城國民中學,中學,新北市土城區永寧路18號,24.9627975,121.4294264,"24.9627975, 121.4294264"
新北市三峽國民中學,中學,新北市三峽區復興路238號,24.939053,121.369127,"24.939053, 121.369127"
新北市八里區八里國中,中學,新北市八里區荖阡坑路15號,25.1395242,121.4009503,"25.1395242, 121.4009503"
新北市立泰山國民中學,中學,新北市泰山區泰林路二段498號,25.0653869,121.4256889,"25.0653869, 121.4256889"
新北市立五股國民中學,中學,新北市五股區成泰路二段49巷15號,25.0830459,121.4353103,"25.0830459, 121.4353103"
新北市立蘆洲國民中學,中學,新北市蘆洲區中正路265號,25.086934,121.4666728,"25.086934, 121.4666728"
新北市立林口國民中學,中學,新北市林口區民治路25號,25.0762471,121.3775622,"25.0762471, 121.3775622"
新北市立汐止國民中學,中學,新北市汐止區大同路二段394號,25.0669566,121.6583371,"25.0669566, 121.6583371"
淡水國中,中學,新北市淡水區真理街10號 No,25.1749602,121.4366735,"25.1749602, 121.4366735"
新北市立三芝國民中學,中學,新北市三芝區淡金路一段38號,25.259347,121.5018147,"25.259347, 121.5018147"
新北市立石門實驗國民中學,中學,新北市石門區中央路1-9號,25.291248,121.564478,"25.291248, 121.564478"
新北市立萬里國民中學,中學,新北市萬里區獅頭路24號,25.1770477,121.6944122,"25.1770477, 121.6944122"
新北市立坪林實驗國民中學,中學,新北市坪林區國中路4號,24.9376175,121.7126394,"24.9376175, 121.7126394"
新北市立文山國民中學,中學,"No. 38號, 文中路, 新店區新北市231",24.956705,121.538935,"24.956705, 121.538935"
新北市新店區五峰國民中學,中學,新北市新店區中興路一段253號,24.9667222,121.5441602,"24.9667222, 121.5441602"
教育部永續校園_市立瑞芳國民中學,中學,新北市瑞芳區三爪子坑路1號,25.1077512,121.8165372,"25.1077512, 121.8165372"
新北市立欽賢國民中學,中學,新北市瑞芳區崙頂路3之1號,25.1051478,121.8455581,"25.1051478, 121.8455581"
新北市立貢寮實驗國民中學,中學,新北市貢寮區嵩陽街42號,25.016433,121.907827,"25.016433, 121.907827"
新北市立深坑國民中學,中學,新北市深坑區文化街41號,25.0009541,121.6183191,"25.0009541, 121.6183191"
新北市立平溪國民中學,中學,新北市平溪區靜安路二段295號,25.0234512,121.7332879,"25.0234512, 121.7332879"
新北市立溪崑國民中學,中學,新北市板橋區大觀路三段50巷30號,24.997841,121.4317847,"24.997841, 121.4317847"
新北市立自強國民中學,中學,新北市中和區莒光路191號,24.9980397,121.4730798,"24.9980397, 121.4730798"
臺北市立中正國民中學,中學,台北市中正區愛國東路158號,25.0322885,121.521894,"25.0322885, 121.521894"
新北市立義學國民中學,中學,新北市泰山區民生路33號,25.0517424,121.431268,"25.0517424, 121.431268"
新北市立中平國民中學,中學,新北市新莊區中平路385號,25.0535454,121.4434788,"25.0535454, 121.4434788"
新北市立鳳鳴國民中學,中學,新北市鶯歌區永和街33號,24.967511,121.331827,"24.967511, 121.331827"
新北市三重區三和國民中學,中學,新北市三重區三和路四段216號,25.0756513,121.4868237,"25.0756513, 121.4868237"
新北市立尖山國民中學,中學,新北市鶯歌區國中街1號,24.9436969,121.3421559,"24.9436969, 121.3421559"
新北市立正德國民中學,學校,新北市淡水區北新路109號,25.179051,121.447565,"25.179051, 121.447565"
新北市立安溪國民中學,中學,新北市三峽區大同路135號,24.9265939,121.3728151,"24.9265939, 121.3728151"
新北市立育林國民中學,中學,新北市樹林區復興路395號,24.9853151,121.4151914,"24.9853151, 121.4151914"
新北市立崇林國民中學,中學,新北市林口區文化一路一段20號,25.0684112,121.3701667,"25.0684112, 121.3701667"
新北市三重區二重國民中學,中學,新北市三重區忠孝路三段89號,25.0658422,121.4800173,"25.0658422, 121.4800173"
新北市立大觀國民中學,中學,新北市板橋區僑中一街1號,25.0111472,121.4487222,"25.0111472, 121.4487222"
新北市立三多國民中學,中學,新北市樹林區三多路101號,25.0063705,121.4146724,"25.0063705, 121.4146724"
臺北市立忠孝國民中學,中學,台北市大同區西寧北路32號,25.051247,121.5082165,"25.051247, 121.5082165"
新北市立鷺江國民中學,中學,新北市蘆洲區長樂路235號,25.0908836,121.4615222,"25.0908836, 121.4615222"
新北市立佳林國民中學,中學,新北市林口區中山路268號,25.0803785,121.3842279,"25.0803785, 121.3842279"
臺北市立介壽國民中學,中學,台北市松山區延壽街401號,25.0568339,121.5563789,"25.0568339, 121.5563789"
臺北市立民生國民中學 (地震優先安置學校),中學,台北市松山區新東街30巷1號,25.0597793,121.5667159,"25.0597793, 121.5667159"
臺北市立敦化國民中學,中學,台北市松山區南京東路三段300號,25.0509665,121.5467051,"25.0509665, 121.5467051"
臺北市立興雅國民中學,中學,台北市信義區松德路168巷15號,25.035644,121.5722586,"25.035644, 121.5722586"
臺北市立永吉國民中學,中學,台北市信義區松隆路161號,25.0483189,121.5737906,"25.0483189, 121.5737906"
臺北市立?公國民中學,中學,台北市信義區福德街221巷15號,25.0370894,121.5854371,"25.0370894, 121.5854371"
臺北市立信義國民中學,中學,台北市信義區松仁路158巷1號,25.0288257,121.5677566,"25.0288257, 121.5677566"
臺北市立仁愛國民中學,中學,台北市大安區仁愛路四段130號,25.037321,121.5508351,"25.037321, 121.5508351"
臺北市立大安國民中學,中學,台北市大安區四維路156號,25.0306323,121.5477558,"25.0306323, 121.5477558"
臺北市立金華國民中學,中學,台北市大安區新生南路二段32號,25.0309289,121.5323017,"25.0309289, 121.5323017"
臺北市立懷生國民中學,中學,台北市大安區忠孝東路三段248巷30號,25.0403808,121.5411475,"25.0403808, 121.5411475"
臺北市民族實驗國民中學,中學,台北市大安區羅斯福路四段113巷13號,25.0111994,121.5388404,"25.0111994, 121.5388404"
臺北市立龍門國民中學,中學,台北市大安區建國南路二段269號,25.0244738,121.5387036,"25.0244738, 121.5387036"
臺北市立長安國民中學,中學,台北市中山區松江路70巷11號,25.0498831,121.5311135,"25.0498831, 121.5311135"
臺北市立北安國民中學,中學,台北市中山區明水路325號,25.0777783,121.5415678,"25.0777783, 121.5415678"
臺北市立新興國民中學,中學,台北市中山區林森北路511號,25.062038,121.5263386,"25.062038, 121.5263386"
臺北市立五常國民中學,中學,台北市中山區復興北路430巷1號,25.0634804,121.543251,"25.0634804, 121.543251"
臺北市濱江實驗國民中學,中學,台北市中山區樂群二路262號,25.07955,121.5607499,"25.07955, 121.5607499"
螢橋國中,中學,台北市中正區汀州路三段4號,25.019376,121.5262598,"25.019376, 121.5262598"
臺北市立古亭國民中學,中學,台北市中正區中華路二段465號,25.0249449,121.5108066,"25.0249449, 121.5108066"
臺北市立南門國民中學,中學,台北市中正區廣州街6號,25.0352063,121.5092027,"25.0352063, 121.5092027"
臺北市立弘道國民中學,中學,台北市中正區公園路21號,25.0374875,121.5152934,"25.0374875, 121.5152934"
臺北市立建成國民中學,中學,台北市大同區長安西路37-1號,25.0516308,121.5186507,"25.0516308, 121.5186507"
臺北市立民權國中,學校,台北市大同區重慶北路三段1號,25.0636883,121.5138725,"25.0636883, 121.5138725"
臺北市大同區蘭州國民中學,中學,台北市大同區大龍街187巷1號,25.0693236,121.5166706,"25.0693236, 121.5166706"
臺北市立萬華國民中學,中學,台北市萬華區西藏路201號,25.0285877,121.4989765,"25.0285877, 121.4989765"
臺北市立雙園國民中學,中學,台北市萬華區興義街2號,25.0276017,121.4920072,"25.0276017, 121.4920072"
臺北市立龍山國民中學,中學,台北市萬華區南寧路46號,25.0355438,121.5053509,"25.0355438, 121.5053509"
臺北市立木柵國民中學,中學,台北市文山區木柵路三段102巷12號,24.98752,121.5676113,"24.98752, 121.5676113"
臺北市立實踐國民中學,中學,台北市文山區辛亥路七段67號,24.9835854,121.5555398,"24.9835854, 121.5555398"
臺北市立北政國民中學,中學,台北市文山區指南路三段2巷14號,24.9845598,121.5779958,"24.9845598, 121.5779958"
臺北市文山區景美國民中學,中學,台北市文山區景中街27號,24.9931712,121.5429395,"24.9931712, 121.5429395"
興福國中,中學,台北市文山區福興路80號,25.0049235,121.5499886,"25.0049235, 121.5499886"
臺北市立景興國民中學,中學,台北市文山區景興路46巷2號,24.996515,121.543713,"24.996515, 121.543713"
臺北市立誠正國民中學,中學,台北市南港區富康街1巷24號,25.0536955,121.6188493,"25.0536955, 121.6188493"
臺北市立成德國民中學,中學,台北市南港區東新街108巷23號,25.0449417,121.5876777,"25.0449417, 121.5876777"
臺北市立內湖國民中學,中學,台北市內湖區陽光街1號,25.077035,121.5886895,"25.077035, 121.5886895"
臺北市立麗山國民中學,中學,台北市內湖區內湖路一段629巷42號,25.0821733,121.5759675,"25.0821733, 121.5759675"
臺北市立三民國民中學,中學,台北市內湖區民權東路六段45號,25.069161,121.5863956,"25.069161, 121.5863956"
臺北市西湖實驗國民中學,中學,台北市內湖區環山路一段27號,25.0854627,121.5660775,"25.0854627, 121.5660775"
臺北市立東湖國民中學,中學,台北市內湖區康樂街131號,25.0725594,121.6201035,"25.0725594, 121.6201035"
臺北市立明湖國民中學,中學,台北市內湖區康寧路三段60號,25.0706196,121.6106431,"25.0706196, 121.6106431"
臺北市立士林國民中學,中學,台北市士林區中正路345號,25.0935395,121.5227421,"25.0935395, 121.5227421"
臺北市立蘭雅國民中學,中學,台北市士林區忠誠路二段51號,25.1105848,121.531819,"25.1105848, 121.531819"
Taipei Municipal Zhishan Junior High School,中學,台北市士林區至善路二段360號,25.1036391,121.5555851,"25.1036391, 121.5555851"
臺北市立格致國民中學,中學,台北市士林區仰德大道四段75號,25.1308722,121.546345,"25.1308722, 121.546345"
福安國中,中學,台北市士林區延平北路七段250號,25.1032614,121.4878824,"25.1032614, 121.4878824"
臺北市立天母國民中學,中學,台北市士林區天母東路120號,25.1180479,121.5381925,"25.1180479, 121.5381925"
臺北市立北投國民中學,中學,台北市北投區溫泉路62號,25.1344332,121.5046844,"25.1344332, 121.5046844"
臺北市立新民國民中學,中學,台北市北投區新民路10號,25.1382345,121.5063989,"25.1382345, 121.5063989"
臺北市立明德國民中學,學校,台北市北投區明德路50號,25.107897,121.5190055,"25.107897, 121.5190055"
臺北市立桃源國民中學,中學,台北市北投區中央北路四段48號,25.1347115,121.477338,"25.1347115, 121.477338"
臺北市立石牌國民中學,中學,台北市北投區石牌路一段139號,25.1149627,121.5141674,"25.1149627, 121.5141674"
臺北市立關渡國民中學,中學,台北市北投區知行路212號,25.1198994,121.4671378,"25.1198994, 121.4671378"
基督教台灣浸會神學院,神學院,台北市信義區吳興街394巷1號,25.023742,121.566763,"25.023742, 121.566763"
台北基督學院,大專院校,新北市淡水區自強路51號,25.1308136,121.4606197,"25.1308136, 121.4606197"
台灣神學研究學院,神學院,台北市士林區仰德大道二段2巷20號,25.1011823,121.5412578,"25.1011823, 121.5412578"
