name,star,comment,class,address,latitude,longitude
新樹國民運動中心-運動易利站EasyGym,4.9,88,健身室,新北市新莊區新樹路222號7樓,25.0204643,121.4335093
新北市板橋國民運動中心,4.3,3,綜合運動中心,新北市板橋區智樂路6號,25.022699,121.4577278
運動操場,4.1,33,健身室,新北市板橋區,25.0004676,121.4774292
新北市新莊國民運動中心,4.3,3,健身室,新北市新莊區公園路11號,25.0396395,121.4477684
新北市三重國民運動中心,4,1,健身室,新北市三重區集美街55號,25.0546254,121.4878983
新北市新店國民運動中心,4,897,綜合運動中心,新北市新店區北新路一段88巷12號,24.9671774,121.5424722
新北市樹林國民運動中心,4.2,2,綜合運動中心,新北市樹林區中正路188-6號,25.0041909,121.423351
新北市五股國民運動中心,4.6,864,綜合運動中心,新北市五股區成泰路三段296號,25.0950459,121.4484258
新北市永和國民運動中心,4.3,4,綜合運動中心,新北市永和區永利路250號,25.0031513,121.5241966
新北市運動廣場,4.3,110,公園,新北市板橋區漢生東路278號,25.010573,121.4692052
板樹體育館,4.1,1,體育館,新北市板橋區溪城路90號,24.9812082,121.427659
新北聯新運醫中心,5,1,綜合運動中心,新北市板橋區中正路189號,25.0168376,121.4564086
新北市體育總會,4.3,3,協會或機構,新北市板橋區漢生東路278號,25.010554,121.469072
新北市蘆洲國民運動中心,4.3,2,綜合運動中心,新北市蘆洲區長樂路235-1號,25.0911212,121.4620618
Waypoint FITNESS,5,167,健身室,新北市新莊區新北大道四段1號2樓,25.0598045,121.4502956
新北市政府體育局,2.6,10,地方政府機構,新北市板橋區漢生東路278號,25.0105539,121.4690719
新北市土城國民運動中心,4.3,3,綜合運動中心,新北市土城區金城路二段247-1號,24.9855894,121.4572112
Waypoint FITNESS 中和館,4.5,49,健身室,新北市中和區中山路二段64巷9號2樓,25.0048925,121.5031762
新北市泰山國民運動中心,4.3,2,綜合運動中心,新北市泰山區全興路167號,25.0559747,121.4345916
新北市板橋第二運動場,4.2,2,體育館,新北市板橋區民權路117號,25.0137359,121.4582533
新北市汐止國民運動中心,4.4,2,綜合運動中心,新北市汐止區汐科路321號,25.0652677,121.6571068
悍酷HANKU / 板橋店,4.6,53,健身室,新北市板橋區合安一路47號F棟,24.9999026,121.447333
新北市板橋體育場,4.3,3,綜合運動中心,新北市板橋區公館街,25.0133202,121.4582875
動趣健身俱樂部-泰山體育館,4.2,214,健身俱樂部,新北市泰山區公園路54號,25.055715,121.4265874
新北市鶯歌國民運動中心,4,616,綜合運動中心,新北市鶯歌區館前路250號,24.9512886,121.35772
板橋運動中心 合氣道館,5,6,合氣道學校,新北市板橋區智樂路6號,25.022699,121.4577278
World Gym世界健身俱樂部 新北板橋重慶店Sport,4.9,1,健身室,新北市板橋區重慶路247號B1,25.0004507,121.4636022
新北市淡水國民運動中心,4.3,2,綜合運動中心,新北市淡水區中山北路二段381巷2號,25.1873766,121.4425921
FunGym X 來去運動 | 健身房 | 空中瑜珈 | 拳擊有氧 | 企業包班 | 場租,4.5,27,健身室,新北市三重區光復路一段76號4樓,25.0500109,121.4718791
舞動陽光-泰山體育館,4,675,體育館,新北市泰山區公園路54號,25.055715,121.4265874
舞動陽光運動中心重慶館,4,313,綜合運動中心,新北市板橋區和平路103號,24.994954,121.462277
體殼運動防護 - (全預約制工作室),5,88,運動按摩治療師,新北市中和區圓通路367巷10號1樓,24.9889954,121.4914699
(Not Open-整修中)新北市中和國民運動中心,4.2,3,綜合運動中心,新北市中和區錦和路和城路一段350之2號入口：,24.9925927,121.4870792
中和運動中心攀岩館,4,22,健身室,新北市中和區錦和路350-2號,24.9929072,121.487098
板橋體育館,4.1,836,籃球場,新北市板橋區中正路8號,25.0133194,121.4568661
World Gym世界健身俱樂部 新北北新莊店Sport,4.5,1,健身室,新北市新莊區幸福路778號B1,25.0494318,121.4471942
小一號運動空間,4.9,147,健身室,新北市新店區北新路三段122號,24.9819309,121.5417206
舞動陽光-秀山國小,4,150,健身室,新北市中和區立人街2號,24.9960653,121.5205633
NiceSports好的運動-帕菲克運動基地,4.9,323,主場,新北市中和區錦和路388號2樓,24.990773,121.4903762
X-Fbody 24 運動教室〡亞洲旗艦店,4.4,140,健身俱樂部,新北市板橋區合安一路49號,24.999299,121.4474526
Oneway 啟動模式,4.8,526,健身俱樂部,新北市板橋區中正路69號B1,25.013952,121.4562552
走吧運動 新莊二館,4.8,371,健身室,新北市新莊區中正路347巷10號B1,25.0345002,121.4469868
比活力Beverly運動俱樂部 城市館,4.4,215,健身俱樂部,新北市蘆洲區中山一路8號6樓,25.0805082,121.480369
World Gym世界健身俱樂部 新北板橋雙十店,4.7,2,健身室,新北市板橋區雙十路二段143號B1,25.0279702,121.4748239
World Gym世界健身俱樂部 新北三重店,4.5,1,健身室,新北市三重區重新路二段78號,25.0617709,121.4974781
TMMA台北格鬥運動館 雙和館,5,625,泰拳拳擊館,新北市中和區中和路356號11樓,25.0015562,121.5103321
Hooah運動 板橋江翠店,5,114,健身俱樂部,新北市板橋區松柏街83號,25.0308172,121.4766442
WE CAN FITNESS 健身房,5,65,健身俱樂部,新北市板橋區220後埔街81號,25.0052473,121.4607976
主動皮拉提斯教室,5,4,普拉提中心,"樓, No. 3號明德街2巷6弄板橋區新北市220",25.0101898,121.4602755
新莊體育館,4.5,554,體育館,新北市新莊區中華路一段75號,25.0404627,121.4518373
新北市休閒運動協會,0,0,俱樂部,新北市中和區圓通路162巷7號,24.995044,121.496842
NGU Muay Thai Fitness 新店館 (泰拳運動館),4.9,56,泰拳拳擊館,新北市新店區民權路46號5樓,24.9830694,121.5401637
臺北市南港運動中心 Taipei Nangang Sports Center,4,2,健身室,台北市南港區玉成街69號,25.0487933,121.581875
W.T運動空間,4.8,99,健身室,新北市永和區中正路608號5樓,25.0072004,121.5172097
環球健身中心板橋店,4.6,261,健身俱樂部,新北市板橋區縣民大道二段7號板橋車站北1A辦公大樓內24樓,25.014551,121.46374
EZ FITNESS 運動 健身教室 新埔館,5,54,健身室,新北市板橋區民有街15巷12號,25.0244234,121.4658604
家園休閒館,5,1,健身室,新北市板橋區三民路一段99號,25.0216491,121.4795653
White Life懷特運動生活-永和館,4.8,231,健身室,新北市永和區中山路一段99巷1號,25.0104322,121.5113318
STEP跨越空間,5,49,綜合運動中心,新北市板橋區雨農路8號,25.025032,121.4622904
世界健身俱樂部 新北永和店,4.7,2,健身室,新北市永和區仁愛路309號B1,25.0077737,121.5034366
新北高中游泳池,3.9,93,室內游泳池,新北市三重區三信路1號,25.0880968,121.4903638
新莊泰拳運動武館,5,16,泰拳拳擊館,新北市新莊區八德街88巷9號1樓,25.0218332,121.4239393
肌轉Fitness Studio|肌轉健身|板橋新埔健身房,4.8,50,健身室,新北市板橋區文化路二段24號,25.0244283,121.4690377
動一下 體適能運動中心 三重,4.9,447,運動協會,新北市三重區重新路三段39號2 樓,25.0614385,121.4936848
世界健身俱樂部 台北中和店,4.7,1,健身室,新北市中和區中山路三段35-3號,25.005635,121.478544
EZ FITNESS 運動 健身教室 新莊館,5,86,健身室,新北市新莊區新豐街20巷3號,25.0343575,121.4480469
健身工廠 Fitness Factory 板橋廠,4.5,1,健身俱樂部,新北市板橋區民生路一段28之1號28之1號,25.0129394,121.4764705
世界健身俱樂部 新北板橋府中店,4.5,1,健身室,新北市板橋區中山路一段10號1F,25.0078573,121.460188
Happy Fitness 專業健身工作室-新北永和健身房/私人教練 重量肌力訓練/體態雕塑/體能/減肥/瘦身 小班制/一對一/私人教練課 自由教練場地租借 專業費用諮詢推薦 PTT Dcard,4.9,42,健身室,新北市永和區永貞路360巷3號1樓,25.0069914,121.5105356
走吧運動 新莊一館,4.5,296,健身室,新北市新莊區裕民街128號B1,25.0224323,121.4178794
中正運動中心,4.2,3,綜合運動中心,台北市中正區信義路一段1號,25.0384552,121.519462
時尚運動健身俱樂部,4.8,203,運動協會,新北市中和區景安路46號B1,24.9981028,121.506892
伊登體適能 Edenfitness,5,241,健身室,新北市新莊區新泰路2之20號1樓,25.0320386,121.450078
身體旅行運動空間,4.8,239,健身室,新北市新店區北新路二段145號2樓,24.9758657,121.5427002
MORE FIT 江子翠店（江子翠站1號出口）,4.7,470,健身室,新北市板橋區雙十路三段31號3樓,25.0314125,121.4705619
臺北市大安運動中心,4.2,5,健身室,台北市大安區辛亥路三段55號,25.020739,121.545757
World Gym世界健身俱樂部 新北土城店,4.8,2,健身室,新北市土城區青雲路152號5F,24.9833595,121.4589232
玩美體態健身房 Charming Body,5,310,健身室,新北市板橋區板新路92號1樓,25.0146606,121.472553
第一運動場,4.8,17,公車站,新北市板橋區,25.0112782,121.4681582
新北跆拳道訓練中心,5,26,跆拳道學校,新北市三重區泉州街84巷1號,25.0544424,121.4948843
World Gym世界健身俱樂部 新北板橋中山店,4.8,3,健身室,新北市板橋區中山路二段326號,25.0196226,121.4812165
飛奇兒體操教學系統FlyKids(新北市永和館),4.8,205,體操中心,新北市永和區中和路499號2號樓之1,25.0022564,121.5105916
健身工廠 Fitness Factory 新埔廠,4.6,653,健身俱樂部,新北市板橋區民生路三段323號,25.0312498,121.4631271
好力女性健身房,4.9,105,健身室,新北市板橋區國慶路161-1號2樓,24.9962269,121.4617776
台北市體育運動教練職業工會,3.1,16,私人教練,"B1, No. 11號和平東路三段大安區台北市106",25.0247848,121.5470303
飛奇兒體操教學系統FlyKids(新北市板橋館),4.8,73,體操中心,新北市板橋區板新路107號1樓,25.014035,121.472451
新北中信特攻主場 New Taipei CTBC DEA,5,1,體育館,新北市新莊區中華路一段75號,25.0405339,121.4519225
好時光女生運動樂園 The GTFP Plus (江翠2館),5,48,健身室,新北市板橋區文化路二段182巷3弄50號3樓,25.0287417,121.4726986
綜合運動公園,4.4,546,公園,新北市三重區新北大道一段,25.062122,121.4901636
JX健身俱樂部 - 板橋店,4.8,432,健身室,新北市板橋區文化路一段188巷59號2樓,25.0179317,121.4689015
新北市基層選手游泳訓練館,4.5,58,泳池,新北市永和區民生路234號,24.9982455,121.5227057
發芽馬鈴薯的運動空間,5,174,健身俱樂部,新北市三重區福德南路12號,25.0633577,121.502865
永和桌球練功坊,4.9,7,健身室,新北市永和區福和路299號,25.0072094,121.5164914
GYM STAR 星辰健身,5,58,健身室,新北市板橋區文化路二段225巷2號1樓,25.028484,121.4705632
馬師傅專業運動按摩／完全預約制／筋膜放鬆／張力調整／呼吸重建,5,92,運動按摩治療師,新北市板橋區文化路一段387巷23號1 樓,25.0221764,121.4659666
藍鵲排球館,4.7,71,排球場,新北市中和區圓通路439-2號,24.9868622,121.4855522
林口Ace排球館 | 亞斯運動 | 室內排球館,4.1,35,綜合運動中心,新北市林口區民生路102-3號,25.08826,121.3774824
戶外籃球場及排球場,3.2,5,籃球場,新北市林口區,25.0695427,121.4039673
輔仁大學排球場,5,2,排球場,新北市新莊區中正路510號,25.0393185,121.4338776
浮洲排球場,5,1,排球場,新北市板橋區僑中一街124巷54-1號,25.0155839,121.4482707
排球場(4),4,2,排球場,新北市新店區,24.9507827,121.5103126
蘆堤排球場,4.5,102,排球場,新北市蘆洲區環堤大道146號號,25.0892985,121.4551442
65volleyball,4.9,40,排球場,新北市板橋區大觀路二段19巷128號,25.0022857,121.4513967
OIN排球基地,4.7,27,運動協會,新北市蘆洲區復興路323巷63號,25.0938236,121.4806108
Attackline Club 三米線排球館,4.8,50,運動協會,新北市板橋區僑中一街124巷27-5號,25.014964,121.444944
台藝大排球場,4.5,2,排球場,新北市板橋區大觀路一段29巷,25.0046196,121.4487686
錦和運動公園籃球場,4.3,19,籃球場,新北市中和區,24.992576,121.4875759
新北市新莊網球場,4.8,46,網球場,新北市新莊區和興街66號,25.0406099,121.4503957
612排球星球+,5,104,排球場,新北市土城區廣福街77巷6-18號,24.9896853,121.452519
NVA Club House 排球俱樂部,4.7,125,運動協會,新北市土城區忠義路55巷55-8號,24.966328,121.4452861
國立臺北大學排球場,4.8,5,排球場,新北市三峽區,24.9398354,121.3645017
WOOHA SPORTS CLUB,4.9,119,運動協會,新北市樹林區八德街353號,24.9730559,121.4178287
球魔方排球館,4.9,46,運動協會,新北市汐止區保新街111之9號,25.0709699,121.6877601
綠寶石排球場,4.4,105,排球場,新北市永和區環河西路二段,25.0176775,121.5087608
輔仁大學貴子球場,4.5,252,體育館,新北市新莊區三泰路64號,25.0392715,121.4319639
國立臺北大學排球場(行政大樓),4.6,15,排球場,新北市三峽區,24.9462906,121.3699785
新海籃球場,4,23,籃球場,新北市板橋區環河道路17號,25.0242965,121.4494569
國立臺灣藝術大學運動場,4.3,48,健身室,新北市板橋區大觀路一段59號,25.0057864,121.4490574
土城綜合體育場風雨籃球場,3.2,26,籃球場,新北市土城區裕民路193-1號,24.9850936,121.4568608
輕鬆玩心流運動空間,4.4,16,運動協會,新北市蘆洲區仁愛街190-3號,25.0939018,121.4672233
浮洲運動公園籃球場,4.4,97,籃球場,新北市板橋區,25.0146762,121.4481635
中和綜合運動場,4.1,926,體育設施,新北市中和區,24.999234,121.500053
土城綜合體育場(防災公園),4.3,1,健身室,新北市土城區裕民路裕民路193-1號,24.984884,121.4558363
台藝大籃球場,4,36,籃球場,新北市板橋區大觀路一段59號,25.0044277,121.449598
臺大排球場,4.5,107,排球場,台北市大安區羅斯福路四段一號體育室,25.0193256,121.5365741
浮洲運動公園,4.4,166,城市公園,新北市板橋區僑中一街80巷,25.0146286,121.4487714
林口國民運動中心,4.5,1,綜合運動中心,新北市林口區文化二路二段299號,25.0860421,121.3805613
輔仁大學網球場,4.4,20,網球場,新北市新莊區,25.0335421,121.4329307
微風網球場,4.1,16,網球場,新北市蘆洲區,25.0943146,121.4581148
【Oii Design】客製口罩 |客製團體服 | 籃球服 | 棒球服 |足球服|車衣| POLO衫 |排球服|路跑服|,0,0,運動服製造商,新北市三重區中正北路165巷250號,25.0705083,121.4789195
排球場,3,2,排球場,新北市淡水區淡金路四段499號,25.227148,121.4480169
三重綜合體育館,4.2,4,體育館,新北市三重區新北大道一段2號,25.0617771,121.4914951
波動排球,4.1,22,主場,新北市泰山區新五路一段106-12號,25.0618868,121.4395808
獅子王桌球(光復館),4.9,228,乒乓球設施,台北市大安區光復南路438號,25.0360308,121.5573024
欣宏桌球館,5,21,運動協會,新北市中和區中板路21號5樓,25.011718,121.4841119
乒乓王國桌球運動館,5,4,乒乓球設施,新北市板橋區中山路二段18號2 樓,25.0150003,121.4723154
冠軍桌球,5,5,乒乓球設施,"號4樓, No. 206永和路一段永和區新北市23445",25.0092957,121.5145012
國拓桌球,4.6,13,乒乓球設施,"樓, No. 214號秀朗路一段永和區新北市234",25.0030188,121.5197839
乒博桌球館,4.9,159,乒乓球會,新北市永和區秀朗路二段20號B1,25.0027335,121.5207776
宇宙貓乒乓-板橋桌球教室,4.8,21,乒乓球設施,新北市板橋區文化路一段285巷1弄5號,25.0187158,121.4644878
拍拍桌球館/新北桌球/新莊桌球/新莊桌球教學/新莊兒童桌球/新莊才藝班/新莊體育班,5,39,主場,新北市新莊區裕民街90巷3號1F,25.0235972,121.4180307
永和桌球練功坊,4.9,7,乒乓球設施,新北市永和區福和路299號,25.0072094,121.5164914
環球乒乓-中和區桌球館 競技乒乓 親子桌球 桌球訓練 板橋區專業桌球訓練 桌球教練推薦,5,7,乒乓球設施,新北市中和區中山路三段112號2樓,25.0059806,121.4763025
玫瑰公園桌球室,4,1,運動協會,新北市板橋區中正路372巷,25.0234445,121.455758
乒夢 Persist 乒乓球館,4.9,266,乒乓球會,新北市三重区福德北路12-2號號B1,25.064448,121.502051
乒球 乒乓運動館,5,15,乒乓球會,新北市永和區中正路702巷2號B1,25.0100288,121.5164216
起點乒乓館-中和桌球教室,4.9,33,乒乓球設施,新北市中和區壽德街15號1樓,24.9956321,121.4657552
123桌球,4.7,35,運動協會,新北市中和區泰和街10號3樓,25.0011469,121.4998257
捷運板橋站桌球場,4.4,83,乒乓球設施,新北市板橋區站前路5號,25.0145867,121.4625171
巨力乒乓-專業乒乓球教學 /個人班.團體班/ 兒童桌球班 / 成人班 / 桌球積分賽 / 球檯租用 / 體育用品,4.9,166,乒乓球會,新北市三重區中央北路26號3樓,25.0642962,121.5005763
桌球練功坊（三重館）,4.6,25,運動協會,新北市三重區重新路二段70號B2,25.061903,121.4976193
國榮桌球 永和頂溪館,4.8,31,乒乓球設施,新北市永和區永和路二段59號2樓,25.0110535,121.5146021
Let's Play 蘆洲店,5,60,乒乓球會,新北市蘆洲區長樂路106號三樓,25.0890778,121.4619443
簡愛桌球,3.8,23,健身室,新北市板橋區重慶路10號6樓,25.007945,121.460705
捷運板橋站桌球場,0,0,乒乓球設施,新北市板橋區新府路旁號,25.0131971,121.4625357
乒球旗艦館,4.9,141,乒乓球設施,新北市永和區中正路608號,25.0071792,121.5172048
乒博桌球積分賽,0,0,乒乓球設施,新北市永和區秀朗路二段20號B1,25.0027335,121.5207776
TOP桌球館板橋館,4.6,9,乒乓球設施,新北市板橋區重慶路290巷2號,24.9990577,121.4631257
桌球,0,0,運動協會,新北市新店區寶中路65巷59號,24.9813386,121.5456351
宇宙貓乒乓(二館)-板橋桌球教室,5,29,乒乓球設施,新北市板橋區介壽街59號,25.0196479,121.4691655
��卓越乒乓🏓幼幼班/兒童桌球/企業成人,4.8,46,主場,新北市新莊區民樂街37號B1,25.041392,121.4576469
超行星桌球舘,4.7,46,乒乓球設施,新北市汐止區大同路二段240號8樓之1,25.065502,121.6540064
動力學工作室 運動與學習中心,5,5,乒乓球設施,新北市永和區竹林路203號2樓,25.0090888,121.5207549
亞信乒乓 板橋館,5,17,培訓中心,新北市板橋區雨農路58號2樓,25.0242002,121.4607267
乒乓總動員,5,283,主場,新北市新莊區中華路二段158號,25.0510607,121.4535424
Mike桌球,5,12,主場,新北市新莊區民安路56號2樓,25.0274448,121.4232433
呆呆桌球,4,4,乒乓球會,新北市板橋區文化路一段188巷9弄30號,25.018591,121.468291
竹圍桌球聯誼社,0,0,運動協會,新北市淡水區民權路187巷2號,25.1332089,121.4601761
小兵桌球,5,10,乒乓球設施,新北市板橋區中山路二段361號2樓,25.0191477,121.4795736
陽光桌協,5,4,運動協會,新北市板橋區縣民大道三段33之1號,25.0206426,121.4739689
峰崗桌球,5,2,乒乓球設施,新北市汐止區信義路1號2樓,25.0683194,121.6617312
乒乓樂桌球（新店三民店）,5,1,乒乓球設施,新北市新店區三民路42號B1,24.9716954,121.536115
美大設計攝影工作室,5,1,乒乓球設施,新北市永和區保福路二段23巷33號,25.0113379,121.5096688
奧林匹克桌訓中心,5,2,乒乓球會,"B1, No. 136號莊敬路板橋區新北市220",25.0234508,121.4709343
乒乓樂桌球（永和中正店）,5,1,乒乓球會,新北市永和區中正路282號2樓,24.9986979,121.5171481
打乒桌球,4.9,9,主場,新北市蘆洲區光榮路38號一樓,25.0882951,121.460947
知其可桌球運動俱樂部,4.3,6,乒乓球會,"b1, No. 150號潮州街大安區台北市106",25.0283833,121.5288348
快樂桌球協會,4,21,公司辦公室,新北市土城區南天母路27號號,24.9577614,121.4451789
PRL專業裁判聯盟 運動賽事規劃 比賽器材租借,0,0,戶外活動公司,新北市五股區新五路二段333號,25.087375,121.4435887
新北市土城區體育會,4.5,13,主場,新北市土城區裕民路193之1號,24.9846267,121.4560364
新北市三鶯國民運動中心,4.2,1,綜合運動中心,新北市三峽區文化路210巷12號,24.93708,121.3686087
新北市政府土城區永寧市民活動中心,3.6,22,健身室,新北市土城區永寧路32巷10弄10號,24.9610122,121.4290722
東門桌球-DongMen Table Tennis 乒乓球 兒童｜成人課程 場地租借,4.7,41,乒乓球設施,"B1, No. 121號金山南路一段中正區台北市100",25.0360168,121.5278594
新北市政府三重區重新橋第1市民活動中心,4.3,25,健身室,新北市三重區重新路四段254-1號號,25.0532429,121.4857664
福民里桌球室,0,0,健身室,新北市新店區福園街8-1號,24.9731369,121.5329297
Dreams乒乓學院,5,12,乒乓球會,新北市三重區力行路二段26號2樓,25.0727413,121.4817348
新北市新店桌球協會,0,0,,新北市新店區安德街77號8樓,24.961379,121.510138
國語日報桌球教室,5,204,乒乓球設施,台北市中正區福州街2號11樓,25.0295714,121.5201757
福和橋下羽球場及桌球場,3.9,379,主場,新北市永和區福和橋,25.0067071,121.5292285
新北市身心障礙桌球協會,0,0,,新北市板橋區互助街10號,25.0276935,121.4630235
新北市政府三重區龍濱市民活動中心,4,64,健身室,新北市三重區秀江街28號,25.0728648,121.5023237
開封桌球館,4.7,27,乒乓球設施,台北市中正區博愛路36號B1樓,25.04612,121.5112114
活力乒乓訓練中心,4.6,7,乒乓球設施,台灣大同區酒泉街56號,25.0718972,121.5157303
媽媽桌球俱樂部 MaMa Pingpong 乒乓球教學練習 卓球Table tennisピンポン,4.6,85,乒乓球設施,台北市中正區金山南路一段17 B1號,25.040683,121.529433
兒童桌球教學教室·乒乓島樂園,4.9,221,乒乓球設施,台北市大安區安和路一段137號,25.0341088,121.5527308
南門桌球訓練中心,4.7,36,健身室,台北市中正區南昌路一段114號號 b1,25.0300203,121.5179764
臺北市身障桌球協會(訓練場地),5,6,乒乓球設施,台北市大同區昌吉街55 號二 樓蘭州 市場2 樓 217 室,25.0660098,121.5156575
國榮桌球 行天宮館,4.6,71,乒乓球設施,台北市中山區松江路283號3樓,25.0602099,121.5334756
旋風乒乓桌球教室,5,30,乒乓球設施,台北市內湖區內湖路二段466號464號,25.0838814,121.5928354
亞信乒乓,4.7,34,乒乓球設施,台北市大安區建國南路二段151巷16號,25.0286352,121.538614
大魯閣棒壘球打擊場 新莊館,4.3,4,主場,新北市新莊區中正路621號,25.0317519,121.4321271
仁愛乒乓球教室,4.7,89,乒乓球設施,台北市大安區安和路一段112巷26號,25.0337094,121.5503335
力行體育館,3.8,129,健身室,新北市永和區永亨路80巷2號,25.0054454,121.5216334
仁澤桌球學苑,5,13,乒乓球設施,台北市南港區研究院路二段61巷15號冠德中研全聯福利中心B1,25.0448226,121.6173171
三蘆羽球館,4.4,249,主場,新北市三重區中正北路560巷100弄17-1號,25.0683365,121.4726908
富邦悍將棒球隊 新莊棒球場,4.5,213,棒球場,新北市新莊區和興街66號,25.0408957,121.4475281
三重棒球場,4.2,270,棒球場,新北市三重區水漾路一段300號,25.0597318,121.4808961
大魯閣棒壘球打擊場 新莊館,4.3,4,棒球場,新北市新莊區中正路621號,25.0317519,121.4321271
大都會棒球場,4.3,178,棒球場,新北市三重區疏洪十二路,25.065252,121.4699684
瓊林棒球場(C),3.5,4,棒球場,新北市新莊區二十一號越堤道,25.015536,121.4388525
三鶯棒壘球場運動公園遊戲場,4.1,211,壘球場,新北市三峽區三鶯路29巷17號,24.9351726,121.350637
秀朗橋棒球場,4,216,棒球場,新北市新店區秀朗大橋自行車道旁,24.9834442,121.5242959
重新棒球場,4.3,212,棒球場,新北市三重區中山路27號,25.0495784,121.4819661
土城綜合棒壘網球場,4.5,50,體育館,新北市土城區青仁路,24.9795593,121.4548469
Lee baseball club,5,28,主場,新北市蘆洲區復興路410巷11-1號,25.0916457,121.4873394
NiceSports好的運動-帕菲克運動基地,4.9,323,棒球場,新北市中和區錦和路388號2樓,24.990773,121.4903762
新月橋棒球場,4.2,184,棒球場,新北市新莊區越堤道17號,25.0231275,121.4436692
林口棒球場,4.2,102,棒球場,新北市林口區四維路114號,25.0780201,121.3779345
八里國中棒球場,4.2,12,運動協會,新北市八里區八里大道7號,25.152115,121.4064252
全球複合式運動休閒館,3.6,247,保齡球場,新北市中和區連城路116號,24.9996766,121.4960808
億昌86A棒球室內訓練場,4.6,127,健身俱樂部,新北市五股區民義路二段43巷18號,25.1016671,121.4089824
大漢棒球場,4.3,241,棒球場,新北市板橋區大漢橋,25.0339348,121.4641283
秀朗B壘球場,4,8,壘球場,新北市永和區,24.9947331,121.5296302
新莊棒球主題共融式公園,4.4,241,城市公園,新北市新莊區和興街66號,25.0422322,121.4482094
鹿角溪身障棒壘球場,5,5,棒球場,新北市樹林區環漢路五段99號,24.9712388,121.4192346
輔仁大學棒壘球場,4,15,壘球場,新北市新莊區中正路508巷35弄89號號,25.038592,121.4334648
三重萬善同球場,4.4,47,壘球場,", 三重區新北市",25.0627243,121.4762522
疏洪籃球場,4.5,93,籃球場,新北市三重區疏洪十二路,25.063698,121.471612
中山棒球場,4.4,156,棒球場,新北市三重區疏洪十二路,25.0631423,121.4732573
新店清溪棒球場,4.3,98,棒球場,新北市秀朗大橋下,24.9831771,121.52391
中正橋棒球場,4.2,268,棒球場,新北市永和區環河西路一段99號,25.0194622,121.511478
浮洲橋棒球場,4.3,40,棒球場,新北市板橋區,24.9923561,121.4387203
原住民棒球場,3.9,34,棒球場,新北市樹林區八德街282號,24.9695759,121.4101481
蘆州微風棒球場,4.3,46,棒球場,新北市五股區機慢車專用道125號,25.0841398,121.45476
山佳棒壘球場A座,4.1,124,壘球場,新北市樹林區,24.9671657,121.3872602
三鶯棒球場,4,176,棒球場,新北市鶯歌區三鶯路57號,24.9430971,121.3564302
河濱棒球場,4.8,8,棒球場,新北市板橋區大漢橋,25.0340453,121.4643908
媽祖田棒球場,4,92,棒球場,新北市土城區,24.9641677,121.4122585
山佳棒壘球場B座,3.7,3,壘球場,新北市樹林區,24.9664277,121.3864334
新北市立新莊體育園區,4.4,175,公園,新北市新莊區公園路74-80號,25.0400078,121.4496779
籃球場,5,3,籃球場,新北市板橋區,25.0239267,121.4491974
新北市中大紅襪社區棒球隊,5,14,棒球隊,新北市樹林區柑園棒球場A,24.9672645,121.3872459
新北市新莊體育園區,4.5,2,公園,新北市新莊區和興街66號,25.0415241,121.4499279
瓊林壘球場(A),4.1,24,壘球場,新北市新莊區二十一號越堤道,25.0176852,121.4397428
三重B壘球場,4.1,7,壘球場,新北市三重區,25.0493849,121.4834144
五股壘球場,4.4,351,壘球場,新北市五股區疏洪八路,25.0706196,121.4596006
鹿角溪壘球場,4.1,93,壘球場,"號, No. 24環漢路五段樹林區新北市238",24.9713068,121.4181311
3.14π球館,4.7,61,運動協會,新北市三重區光復路二段17巷22之1號,25.0545786,121.4735039
三重A壘球場,4,6,壘球場,新北市三重區,25.0501367,121.4830053
瓊林壘球場(B),4,285,壘球場,新北市新莊區二十一號越堤道,25.0165828,121.4393546
光復壘球場(A),4.4,133,壘球場,新北市板橋區光復大橋,25.0230627,121.4860465
中興橋下籃球場,4,30,籃球場,新北市三重區環河南路1-59號,25.050048,121.4925547
運動場,4.5,2,主場,新北市新莊區,25.0222035,121.4426717
土城旋風球場,4.1,7,手球場,新北市土城區清水路24號,24.979766,121.45455
西盛河濱籃球場,4.4,63,籃球場,新北市新莊區,25.0253937,121.4446906
林口baseball,4.8,5,棒球場,新北市林口區四維路144號對面,25.07864,121.377825
光復壘球場(B),4.6,9,壘球場,新北市板橋區光復大橋,25.0219721,121.4861977
中環路籃球場,4.1,348,籃球場,新北市新莊區中環路二段,25.0413814,121.4421161
河堤籃球場,0,0,運動協會,新北市新店區中央一街55號13樓,24.9736851,121.5259921
貿商籃球場,4.1,17,籃球場,新北市五股區登林路,25.0692571,121.42968
波特少棒,0,0,棒球隊,facebook.com,25.0498061,121.5376
福和運動公園足球場,4.1,10,足球場,新北市永和區234,25.0074788,121.5270753
荷花籃球場,4.1,16,籃球場,新北市三重區疏洪一路,25.0636694,121.4744569
三重河堤籃球場,4.1,114,主場,"號, No. 219環河南路三重區新北市241",25.050539,121.4931565
大漢足球場,4.5,4,足球場,新北市板橋區220,25.0349085,121.4658592
Basepara貝思沛拉棒球學校,5,348,培訓中心,新北市泰山區公園路54號,25.0557017,121.4266197
江子翠籃球場,4,2,籃球場,新北市板橋區220,25.0357471,121.468224
新海籃球場,4.5,2,籃球場,新北市板橋區220,25.030107,121.4570003
Yonghe Emerald riverside park flag football field,4.4,17,足球場,新北市永和區環河西路一段99號,25.0184712,121.5114618
NOKE 忠泰樂生活,4.3,1,購物中心,台北市中山區樂群三路200號,25.0822446,121.5570625
酷冰Frozone,4.2,208,溜冰場,新北市土城區金城路二段247-1號3 樓,24.9854913,121.4572293
直排輪溜冰場,4.2,44,主場,新北市中和區,24.9995062,121.5118583
萬板大橋溜冰場,3.6,29,滾軸溜冰場,新北市板橋區,25.029868,121.483291
江子翠溜冰場,4.3,200,滾軸溜冰場,新北市板橋區,25.030493,121.482803
江子翠第二溜冰場,4.2,17,滾軸溜冰場,新北市板橋區環河西路四段321號,25.0317755,121.4824759
輪式溜冰場,4.5,2,滾軸溜冰場,新北市板橋區,25.0198502,121.4456482
蘆堤滑輪場,3.6,7,滾軸溜冰場,新北市蘆洲區環堤大道128號,25.0877679,121.4549129
溜冰場,5,1,溜冰場,新北市新店區,24.9897557,121.5365989
輪式溜冰場,4.3,6,滾軸溜冰場,新北市淡水區淡江大學內部教學設施,25.1756393,121.4476374
追風滑輪場,4.2,115,滾軸溜冰場,新北市五股區二重疏洪道,25.0787452,121.4563352
西盛滑輪溜冰場,5,2,滾軸溜冰場,新北市新莊區242,25.0229407,121.4425263
崑崙活力廣場,3.7,22,滾軸溜冰場,新北市板橋區沙崙街9號,24.993739,121.4328664
西盛環保公園-直排輪運動場,4.2,46,滾軸溜冰場,新北市新莊區242,25.0220163,121.4425683
三重滑輪溜冰場,3,1,滾軸溜冰場,新北市三重區241,25.0636079,121.4761902
直排輪教學台北新北-王者溜冰隊｜一對一、團體課、包班上課、小班制｜新店陽光公園直排輪免費試溜,5,76,運動協會,新北市新店區安業街47巷,24.9766434,121.5182456
Emma溜冰隊,4.8,10,健身室,"號 No, No. 40學府路一段115巷土城區新北市236",24.9864196,121.4562921
陽光運動公園直排輪競速場,3.6,16,滾軸溜冰會,新北市新店區安業街65巷10弄8號,24.9766672,121.5208057
臺北小城滑輪場,3.2,13,滾軸溜冰場,新北市新店區僑信路97巷,24.9475651,121.5004149
中國信託金融園區戶外滑冰場,4.4,557,溜冰場,台北市南港區經貿二路168號,25.0591684,121.6155071
電光直排輪 鶯歌永福宮廣場,5,10,溜冰場,新北市鶯歌區鶯桃路94巷36號,24.9540355,121.3417792
自強公園溜冰場,5,2,溜冰場,新北市中和區莒光路200-3號,24.9990344,121.4723305
獵鷹直排輪溜冰隊-林口區,5,2,運動協會,新北市林口區文化二路二段88巷36號2樓,25.0806764,121.3792227
玫瑰城溜冰場,0,0,滾軸溜冰場,新北市新店區,24.9493391,121.4952509
青和籃球場,4.1,59,籃球場,新北市土城區,24.9750798,121.4575451
林口運動公園籃球場,3,4,籃球場,新北市林口區244,25.0745959,121.3962402
新北市三重國民運動中心,4,1,籃球場,新北市三重區集美街55號,25.0546254,121.4878983
運動公園籃球場,5,1,籃球場,新北市土城區236,24.9805019,121.4667257
浮洲65橋下風雨籃球場,3.5,36,籃球場,新北市板橋區板城路,25.0062255,121.4516664
僑愛籃球場,4.5,4,籃球場,新北市新店區,24.9442769,121.5000861
淡水運動公園籃球場,4.2,64,籃球場,新北市淡水區,25.1661906,121.4508838
球場,0,0,籃球場,新北市三重區,25.0637921,121.4713132
新莊籃球場,4.4,42,籃球場,新北市新莊區,25.0421885,121.451998
太平運動公園籃球場,3.3,6,籃球場,新北市新店區231,24.9592548,121.5325221
籃球場,5,1,體育設施,新北市中和區,25.0089185,121.4913628
快速道路下籃球場,4.1,87,籃球場,新北市新店區,24.9943046,121.5351649
恐龍主題公園籃球場,4.1,36,籃球場,新北市中和區,25.0081257,121.4939912
新埔國民小學體育館/籃球館(板新籃球館),4.7,31,體育館,新北市板橋區四維路177巷4弄23號,25.0267609,121.4632305
籃球場(二重自行車租借站旁),4.3,51,健身室,新北市三重區,25.0668075,121.469088
環保公園 籃球場,4.4,9,籃球場,新北市三重區,25.0432835,121.4740571
永和運動中心漆彈場,4.6,8,漆彈射擊場,新北市永和區永利路250號頂樓,25.0031865,121.5244217
新五籃球場,4.3,35,籃球場,新北市五股區新五路二段252號,25.0815187,121.440308
錦和運動公園(防災公園),4.4,6,體育公園,新北市中和區錦和路350-1號,24.9929001,121.4886939
前國防籃球場 (法醫研究所籃球場),4,29,籃球場,新北市中和區民安街172號,25.0000911,121.4766662
湳仔溝籃球場,5,3,籃球場,新北市板橋區環河西路五段124號藝文特區河畔,25.0176666,121.4446122
微風籃球場,4.8,9,籃球場,新北市蘆洲區,25.093238,121.4573636
晧宇國際亞洲區籃球培訓中心,4.6,54,健身俱樂部,新北市新店區民生路45-1號,24.9853022,121.5324326
華江公園籃球場,4.1,20,籃球場,"莊敬里, 板橋區新北市220",25.0190979,121.4714604
四維公園籃球場,3.8,4,籃球場,新北市板橋區陽明街172號,25.0253801,121.4627809
民生公園籃球場,3,2,籃球場,新北市板橋區民生路一段30號,25.0137518,121.476131
福和運動公園,4.2,2,綜合運動中心,新北市永和區福和路7巷5弄7號,25.0072053,121.5272565
興化公園籃球場,0,0,籃球場,新北市新莊區五工三路50巷,25.0648791,121.4612974
龍門路堤防籃球場,4.4,105,籃球場,新北市三重區,25.0756634,121.5033438
室外籃球場,3.7,3,籃球場,新北市林口區仁愛路一段2號,25.0688789,121.4045128
新北市新莊國民運動中心,4.3,3,綜合運動中心,新北市新莊區公園路11號,25.0396395,121.4477684
台電新村籃球場,4.4,7,籃球場,新北市林口區,25.0873008,121.3892155
籃球場,4.6,14,籃球場,新北市三重區,25.0608127,121.5034158
板橋體育場籃球場,4.5,4,籃球場,新北市板橋區漢生東路279號,25.0097552,121.4674505
重陽橋堤外籃球場,4.4,134,籃球場,新北市三重區,25.0819457,121.500337
TOP巔峰籃球訓練營,4.3,18,運動協會,lin.ee,23.4857501,119.49965
四號公園(八二三紀念公園)籃球場,4.3,67,籃球場,新北市中和區,25.0024368,121.5144937
五權公園籃球場,4,8,籃球場,新北市板橋區廣權路130號,24.992289,121.4645296
泰山體育館室外籃球場,4.3,22,籃球場,新北市泰山區公園路67號,25.055394,121.4270633
僑義籃球場,3.8,6,籃球場,新北市新店區僑義路,24.9491827,121.5009095
秀朗橋下河濱籃球場,4.3,306,籃球場,新北市中和區,24.9916113,121.5283742
山佳籃球場,4.3,3,籃球場,新北市樹林區238,24.9672329,121.3879931
高灘地籃球場,4.6,8,籃球場,新北市永和區,25.0183784,121.5100964
金城公園籃球場,4.2,19,籃球場,新北市土城區,24.9737974,121.4444904
國立臺北大學籃球場(行政),4.8,6,籃球場,新北市三峽區,24.9460685,121.3695109
樹林區民生公園（附天幕籃球場）,4.7,6,籃球場,新北市樹林區238,24.9930719,121.4285049
福和橋下籃球場,4.2,133,籃球場,新北市永和區,25.0070476,121.5282095
五股體健公園籃球場,4.3,13,籃球場,新北市五股區,25.1045516,121.4534373
新店高中籃球場,4,1,籃球場,新北市新店區,24.9743439,121.5336315
線形公園籃球場,3,5,籃球場,新北市板橋區,24.9921635,121.4474276
中和郵局公園籃球場,4.8,4,籃球場,新北市中和區民樂路33號,25.0013255,121.4827966
Evolution Lab新店館,5,9,籃球場,新北市新店區安平路55之30號,24.9664775,121.5187062
溪北公園籃球場,4.6,5,護理院,新北市板橋區,24.9889818,121.4307887
鶯歌永昌籃球場,0,0,籃球場,新北市鶯歌區尖山埔路二段96號,24.9487969,121.3411295
亞東科大籃球場,5,2,籃球場,新北市板橋區四川路二段58號,24.9961124,121.4522511
鹿角溪籃球場,0,0,籃球場,新北市樹林區238,24.9702632,121.4140848
烘爐地山下籃球場,4,65,籃球場,新北市中和區興南路二段399巷3-3號,24.9795538,121.498662
國立臺北大學籃球場,4.8,6,籃球場,新北市三峽區,24.9402006,121.3645045
蘆洲羽球館,4.2,354,羽毛球場,新北市蘆洲區信義路34巷111號,25.0776065,121.4757748
仁愛籃球場,4.7,3,籃球場,新北市林口區忠孝路與號公園路交叉口,25.0713392,121.3699096
舞動陽光-馬公公園運動中心,4,71,綜合運動中心,新北市新店區北新路一段92號1樓,24.9683868,121.542396
YOUNG大同彩繪籃球場,1,3,籃球場,新北市三重區大同北路184巷1號,25.0655742,121.4912511
電信街籃球場,4.4,7,籃球場,新北市三重區大同南路134巷32號,25.0586441,121.4975028
綠寶石公園籃球場,4.3,110,籃球場,新北市永和區環河西路二段,25.0178473,121.510271
直潭社區籃球場,4.5,8,籃球場,新北市新店區直潭六街62號,24.9401253,121.5319603
汐止區樟樹灣橋下籃球場,4.1,68,籃球場,新北市汐止區樟樹一路,25.0615996,121.6419762
西林簡易籃球場,4.1,141,籃球場,新北市林口區四維路176號,25.0751208,121.3815812
蘆堤籃球場（矮框）,4.8,12,籃球場,新北市蘆洲區,25.0899927,121.4553871
永和綠寶石河濱籃球場,4.1,26,籃球場,新北市永和區,25.0095181,121.4994407
中和國民運動中心錦和游泳池,4,464,游泳池,新北市中和區錦和路350之1號,24.9927966,121.4870052
淡水沙崙籃球場(文中四),4.7,3,籃球場,新北市淡水區251,25.1850611,121.4231044
蓬萊坑籃球場,0,0,籃球場,新北市五股區248,25.0798688,121.4349663
三蘆羽球館,4.4,249,羽毛球場,新北市三重區中正北路560巷100弄17-1號,25.0683365,121.4726908
我家羽球館,4.3,204,羽球館,新北市板橋區大觀路二段1巷60-5號,25.0034046,121.4506926
綠寶石運動公園-羽球場,3.9,15,羽毛球場,新北市永和區,25.0191526,121.5123155
動感羽球館,4.5,112,羽球館,新北市板橋區大觀路一段28巷125-1號,25.0130642,121.4492033
舊國管羽球場（中和區公所羽球館）,4,263,羽毛球場,新北市中和區民安街135號,24.9996898,121.4763618
樂穎羽球館,4,143,羽毛球場,新北市新莊區新樹路69-68號2樓,25.0294989,121.441491
中和羽道館,4.3,349,羽毛球場,新北市中和區圓通路437-7號,24.9870549,121.4859043
板橋羽鞋羽球館,4.5,89,羽毛球會,新北市板橋區板橋大觀路一段28巷119號之3,25.012715,121.449605
聯友羽球館,4.4,325,羽毛球場,新北市新莊區五工五路2之1號4樓,25.064279,121.455833
環宇羽球館,3.3,47,羽毛球場,新北市中和區錦和路140號,24.9976486,121.4892629
飛颺羽球館,4.8,130,運動協會,新北市新莊區西盛里民安西路460巷4號,25.0080312,121.4309048
五峰山戶外羽球場,4.7,15,羽毛球場,"號, No. 76新坡一街新店區新北市231",24.9649973,121.5445925
快羽會館,4.7,72,羽球館,新北市泰山區文化街53號,25.0636384,121.4365063
奧創體育板橋館,3.9,71,運動協會,新北市板橋區中正路375巷1號,25.0208595,121.454136
葉羽運動球館,4.9,14,羽球館,新北市新莊區西盛街395巷46號,25.0116606,121.4296475
新北市土城國民運動中心-羽球場,4.5,2,運動協會,新北市土城區金城路二段247-1號,24.9854913,121.4572293
僑中羽球館,4,70,羽球館,新北市板橋區僑中ㄧ街 124巷31-2號,25.015312,121.4449801
寰宇羽球中心,3.6,76,羽球館,新北市中和區錦和路77巷2號,24.9976584,121.4895397
向陽羽球館,4.5,82,羽毛球場,新北市中和區中山路二段568巷20弄4-1號,25.0062922,121.4831171
TBDC台灣羽球發展中心,5,1,羽毛球場,新北市林口區南勢四街302-8號,25.0753511,121.3570375
立羽會館,4.4,22,羽毛球會,新北市泰山區中港南路166-7號,25.0604383,121.442342
Js劍新羽球館,4.2,175,羽球館,新北市汐止區新台五路一段96號,25.060472,121.6483301
楓育羽球館,4.8,116,主場,新北市樹林區俊英街219巷45弄1-1號號,25.0109468,121.4206624
YoYo羽球蘆洲館,4.6,47,運動協會,新北市蘆洲區仁愛街216-1號,25.0925745,121.4645061
秘密基地,4.2,64,羽毛球場,新北市板橋區大觀路一段28巷112號之2,25.01255,121.4503577
鶯歌羽球館,4,7,健身室,新北市鶯歌區環河路60-1號,24.9444777,121.3512338
露天羽球場,4,6,羽毛球場,新北市新莊區壽山路59號,25.031116,121.4104918
三峽長青羽球館,3.9,150,羽球館,新北市三峽區中山路69號,24.9348128,121.3671293
泰羽羽球館,5,23,羽球館,新北市泰山區新五路一段106-12號,25.0619461,121.4395492
勁丰羽球館,4.6,161,羽球館,新北市鶯歌區環河路60-1號,24.944455,121.351224
動態羽球館,4.4,316,羽球館,新北市林口區中山路759號,25.0851724,121.3759865
M5俱樂部,4.4,66,羽毛球會,新北市樹林區千歲街105-5號,25.0012573,121.428245
新羽力羽球俱樂部,4.8,76,運動協會,新北市新店區安康路二段295-3號,24.9576164,121.5035561
亞迪特羽球學苑,5,12,羽球館,新北市泰山區楓江路46巷108號後棟,25.0573287,121.4380253
新北市三重國民運動中心,4,1,羽毛球場,新北市三重區集美街55號,25.0546254,121.4878983
活力羽球館,4.4,20,羽毛球場,新北市五股區新五路二段97-9號,25.0759008,121.4363751
臺北市松山運動中心,4,2,綜合運動中心,台北市松山區敦化北路1號,25.0485938,121.5503847
臺北市信義運動中心Taipei Xinyi Sports Center,4.1,2,綜合運動中心,台北市信義區松勤街100號,25.0316985,121.566768
臺北萬華運動中心,4.1,2,綜合運動中心,台北市萬華區西寧南路6-1號,25.0474576,121.5068673
台北運動健身中心 長安店,4.9,1,健身室,台北市中山區長安東路一段21號B1,25.0497094,121.5233055
推動力運動空間,4.5,11,健身俱樂部,台北市大安區和平東路二段163號1樓,25.0253299,121.5415586
臺北市大同運動中心,4,1,綜合運動中心,台北市大同區大龍街51號,25.065371,121.5161993
臺北市中山運動中心,4,2,健身室,台北市中山區中山北路二段44巷2號,25.0548433,121.5213449
臺北市內湖運動中心 Taipei Neihu Sports Center,4,884,健身室,台北市內湖區洲子街12號,25.0781567,121.5747649
台北運動健身中心,4.9,1,健身室,"B1, No. 29號民生東路一段中山區台北市104",25.0581828,121.5251264
臺北市極限運動訓練中心,4.3,398,滑板公園,台北市南港區忠孝東路七段382號,25.0518704,121.6073623
舞動陽光-博愛國小運動中心,4.2,181,體育館,台北市信義區松仁路95巷20號,25.0363244,121.5709566
伊格運動,5,143,教育顧問,台北市松山區南京東路四段130號B1,25.0513946,121.555723
臺北市體育總會,3.7,6,綜合運動中心,台北市松山區敦化北路3號168室,25.0487102,121.55107
舞動陽光-師大附中運動中心,4,100,綜合運動中心,台北市大安區信義路三段111巷143號,25.0360864,121.5400628
臺北市北投運動中心,4.1,2,綜合運動中心,台北市北投區石牌路一段39巷100號,25.1165007,121.5098316
台北市青年公園運動園區,4.3,9,綜合運動中心,台北市萬華區水源路199號,25.0233641,121.5069217
Artemis 一休運動基地,4.8,54,健身室,台北市大安區仁愛路三段9號1 樓,25.0384602,121.5336058
Waypoint 作伙CrossFit（WP ZouHui CrossFit）,4.6,146,健身室,台北市大安區和平東路二段46巷11號,25.0250194,121.5383874
美力適能客製化運動教室Melody Fitness,4.8,19,健身室,台北市大安區信義路四段151號7號樓之三,25.0334487,121.5500708
PB Sport 健身房,4.8,76,健身室,台北市大安區金山南路二段33號金山停車場側邊巷子B1,25.0328991,121.5274606
台北壁球中心TaipeiSquashCenter,4.4,46,健身室,台北市松山區民生東路五段171號海 華 大廈號 B2,25.0598526,121.5645828
59FITNESS 客制化運動空間,4.5,69,健身室,台北市大安區敦化南路二段59號1F~B1,25.0312022,121.5492787
HiFIT 運動空間,4.9,29,健身室,"f, No. 125號復興南路一段大安區台北市106",25.0433357,121.5440383
博嘉運動公園,4.2,476,綜合運動中心,台北市文山區木柵路四段159巷16號,25.0007616,121.5754092
體育客和平店,4.4,882,健身室,台北市信義區和平東路三段333號,25.021042,121.5563714
FitMania健身狂潮- 信義世貿館,4.6,202,健身室,台北市信義區信義路四段456號B1,25.0328535,121.5581869
展望運動建安國小藝術教學大樓,4.1,23,綜合運動中心,台北市大安區大安路二段99號,25.0293539,121.5461699
臺北社企館 / 陽光活力中心八德館,4.9,74,綜合運動中心,台北市中山區八德路二段174巷28號6樓,25.0453041,121.5381856
唯爾運動 WellSpace,5,301,健身室,台北市松山區南京東路四段137號號7樓,25.0518323,121.5553266
超越心動力體適能運動空間,4.7,36,健身室,台北市松山區八德路三段36號5樓,25.0480564,121.5521328
體線運動,4.7,26,教育中心,台北市松山區南京東路四段186號六樓之9,25.0513182,121.5576489
運動皮質區 體適能訓練所 Motor Cortex,5,20,健身室,台北市大安區和平東路一段274之1號4樓,25.0259277,121.533975
舞動陽光-華江高中運動中心,4,95,綜合運動中心,台北市萬華區西藏路213號,25.0285424,121.4963425
新創智慧健身,4.3,121,健身室,台北市大安區復興南路二段157號號 b1,25.0281715,121.5437164
士林運動中心,4.2,2,綜合運動中心,台北市士林區士商路1號,25.0894226,121.5215623
Curves 台大公館店 | 女性30分鐘環狀運動,4.4,83,健身室,台北市中正區羅斯福路四段64號4樓,25.0145761,121.53419
健身計畫 Project Fit｜分鐘計費｜自由教練教學免場租費｜悠遊卡/一卡通刷卡進出場,3.8,216,健身室,台北市大安區復興南路二段27號B2,25.0318129,121.5438808
妮飛大安健身空間,4.8,189,健身室,台北市大安區復興南路二段130之2號3樓,25.0291708,121.5433037
成德國中運動中心,4.2,345,綜合運動中心,台北市南港區東新街108巷23號,25.0446219,121.5878964
Fun Fitness 運動旅程公館館,4.8,441,健身室,台北市中正區羅斯福路三段272號7樓,25.0167533,121.5319406
DR.GYM 運動醫療訓練中心,4.8,58,健身室,台北市大安區新生南路一段155號,25.0351496,121.5330041
好習慣運動教室,4.9,178,健身俱樂部,台北市松山區復興北路217號,25.0566486,121.5444333
TMMA台北格鬥運動館 古亭館,5,304,拳擊館,台北市大安區金山南路二段222號B1,25.0275294,121.5258961
World Gym世界健身俱樂部 台北光復店Sport,4.6,1,健身室,台北市大安區忠孝東路四段330號B1,25.0410878,121.5575167
Top Gym運動空間-和平店 (台北 六張犁),5,4,健身室,台北市大安區和平東路三段122號,25.0242504,121.5518625
好習慣運動教室 北車京站店,5,112,健身室,台北市大同區長安西路152號號1樓,25.0508968,121.5165903
TMMA台北格鬥運動館 忠孝館,5,1,泰拳拳擊館,台北市大安區仁愛路四段27巷22號B1,25.0402419,121.5451037
平衡運動空間 PH Fitness,5,11,健身室,台北市信義區忠孝東路五段201號2樓,25.0411955,121.5696775
GYMEFIT Ninja,4.9,121,健身室,台北市信義區基隆路一段25號,25.048408,121.569123
內湖運動公園,4.2,1,公園,台北市內湖區舊宗路二段2號,25.067763,121.573841
BeeFit蜂運動古亭教室|運動教室|健身房|健身團課|健身一對一教練,4.9,14,健身室,台北市大安區羅斯福路二段35巷13號,25.027983,121.5227768
Pulse Gym 建國店,4.6,335,健身室,台北市中山區建國北路一段96號,25.0504118,121.5360961
陪你健身預約制運動空間,5,18,健身室,台北市中正區水源路91號1樓,25.0212387,121.5192452
臺北體育館,4.3,2,體育館,台北市松山區南京東路四段10號,25.0513025,121.5520716
BALANCE FITNESS運動空間,4.6,38,健身室,台北市中正區福州街11-7號,25.0292653,121.5191848
Force Fitness 運動空間 - 中正店,4.6,141,健身俱樂部,台北市中正區南昌路一段123號 2號樓之2,25.0299438,121.5183082
好時光女生運動樂園 The GTFP Ohana (大安),4.9,161,健身室,台北市大安區復興南路一段249號4樓,25.0368504,121.5438413
W.T運動空間南門店,5,3,健身室,台北市中正區羅斯福路一段61號4樓,25.0316586,121.5193834
World Gym世界健身俱樂部 台北大直店Sport,4.6,1,健身室,台北市中山區堤頂大道二段588號,25.0843794,121.55968
Beyond Fitness Enhanced 信義安和店,4.9,393,健身室,台北市大安區安和路二段81號B1,25.0301277,121.5522728
臺北市網球中心,4.2,1,健身室,台北市內湖區民權東路六段208號,25.0675708,121.596956
森運動健身工作室Naturfitness,5,38,健身室,台北市信義區基隆路二段23號B1,25.0317389,121.559118
運動學 FITOLOGY,4.7,140,健身俱樂部,台北市文山區興隆路二段252號B 1,25.0006593,121.5542299
潤潤運動空間 Runi field,5,50,瑜伽練習室,"樓, No. 417之2號光復南路信義區台北市110",25.0367518,121.5577286
虹約健康企業社 虹約健康專業核心運動訓練中心,4.9,19,普拉提中心,台北市大安區羅斯福路二段41號6F-1,25.027636,121.522293
BMF動空間-MMA/體適能,5,30,拳擊館,台北市信義區松仁路89號Crossfit Matrix內B2,25.0370308,121.5692542
訓強跆拳道舘/台北跆拳道/台北才藝課程/台北跆拳道推薦/台北中山區跆拳道/台北運動健身/台北孩童才藝推薦,4.9,42,跆拳道學校,台北市中山區龍江路65巷8號,25.0504318,121.5408776
PFC肌力與體能訓練,5,9,健身室,台北市大安區忠孝東路四段250號2號樓之4,25.041203,121.554191
忠駝擊劍運動訓練中心,4.6,8,綜合運動中心,台北市信義區基隆路一段364巷22號,25.0348235,121.5595015
LEADERKids 兒童運動學校,0,0,健身室,台北市松山區南京東路四段2號,25.051228,121.5497826
台北健身院,4.4,114,健身室,台北市大安區新生南路三段58號B1樓,25.0203475,121.5338217
運筋骨(松山店)｜台北運動訓練｜體態平衡 徒手調理 骨盆按摩,5,33,綜合運動中心,台北市松山區南京東路五段280之1號2樓,25.051089,121.567066
Core Space 健身房,4.7,145,健身室,台北市大安區復興南路二段27號,25.0318138,121.5438349
breakpoint-創極運動股份有限公司(台北市分部),4.8,5,網球教練,台北市大安區敦化南路二段77號７樓-4,25.0301045,121.5491675
超越健身工坊,4.9,80,健身室,台北市大安區仁愛路四段341號2樓,25.0381336,121.5539244
台北健身院(八德店),4.4,145,健身室,台北市松山區八德路四段656號,25.0498443,121.5754339
多加運動美體 Dorcas Fitness,5,53,健身室,台北市中山區龍江路120巷9號,25.0535831,121.5398936
Force Fitness 健身運動空間-小巨蛋店,4.8,125,健身室,台北市松山區八德路三段120號,25.0480269,121.554054
台北聯新運醫中心,4.8,55,綜合運動中心,台北市大安區仁愛路四段79號3樓,25.0382213,121.5472742
Switch ON 妳的運動空間,4.9,219,健身室,台北市信義區忠孝東路五段625號,25.041791,121.579242
Focus Training專注訓練運動空間,5,191,健身室,台北市松山區南京東路五段208號2樓,25.0511615,121.5649583
維度運動 WeDo Sports,4.8,18,補習社,wedosports.net,24.6498294,121.2338514
Purpose Space,5,29,健身室,台北市大安區忠孝東路四段250號3F之5,25.0411499,121.554327
好時光女生運動樂園 The GTFP House (古亭),4.9,319,健身室,台北市中正區南昌路二段53號1F,25.027664,121.520242
胖恐龍Sports 運動選品舖,5,5,健身室,台北市信義區福德街84巷9號,25.0382505,121.5808736
我的樂活生活館 台北敦南會館,5,37,健身俱樂部,台北市大安區敦化南路1段216號4樓,25.0412474,121.5484784
內湖運動中心攀岩館,4.4,129,主場,台北市內湖區洲子街12號,25.0779565,121.5749343
Total Gym Taiwan(台北合作場地 全預約制),5,109,健身室,台北市松山區南京東路四段130號B1,25.0513946,121.555723
JUST WELL脊姿維運動物理治療所｜脊椎側彎、疼痛處理、運動傷害、皮拉提斯、震波、超磁波、扁平足長短腳骨盆矯正、坐骨神經痛、椎間盤突出、關節退化肌少症｜Just Well Balance Body Center｜台北仁愛東門推薦復健物理治療所,4.9,458,健身室,台北市中正區金山南路一段67巷10號1樓,25.0376894,121.5288221
世界健身俱樂部 台北大安店,3.9,781,健身室,台北市大安區信義路四段6號3F,25.0329634,121.5453367
勁能健身俱樂部,4.5,208,健身室,台北市松山區八德路四段465號2樓,25.0500683,121.5709089
臺北大巨蛋,4.4,666,綜合運動中心,台北市信義區忠孝東路四段345號,25.0424367,121.5595066
World Gym世界健身俱樂部 台北統領店,4.7,2,健身室,台北市大安區忠孝東路四段201號3F,25.041721,121.551463
Ready芮宜運動醫學中高齡肌力訓練中心(東門館) 中高齡健身房 銀髮族運動 肌力訓練 預防退化 強化體能,4.6,10,健身室,台北市大安區信義路二段104號8樓,25.0338325,121.527538
臺北市松山運動中心游泳池,3.8,196,公眾泳池,台北市松山區敦化北路1號,25.0495211,121.5505043
KLINE,4.8,18,健身室,台北市大安區信義路二段222號8樓,25.033409,121.531367
Tricking Taiwan 台灣極限武術,5,2,健身室,台北市大同區承德路三段287-2號,25.074204,121.520209
J&R兒童體能操運動學苑民生店,4.6,19,體操中心,台北市松山區光復北路230巷15號1樓,25.0560303,121.5547089
Craftzy Sports Club 卡夫契運動俱樂部,5,134,運動協會,台北市內湖區內湖路一段120巷21號1F,25.082001,121.562265
b-monster 新光三越信義A9-台北信義有氧拳擊體驗 運動教學課程 諮詢費用推薦 體態雕塑 增肌減脂瘦身 小班制 健身房 PTT Dcard,5,1,健身室,台北市信義區松壽路9號,25.0363104,121.5668588
萬華運動中心足球場,4.5,41,足球場,台北市萬華區西寧南路6-1號,25.0473256,121.5071428
長興極限空間,4.8,53,武術學校,台北市大同區重慶北路二段162號,25.0589686,121.513476
國立臺北教育大學泳健館-恆動力,4.4,466,游泳池,台北市大安區和平東路二段134號,25.0222416,121.5441904
衡享動作訓練空間,5,77,普拉提中心,台北市信義區光復南路563號3樓,25.0309348,121.557591
"健癮學 信義區健身工作室 ｜大安區健身｜一對一留美教練｜免費諮詢｜體態雕塑｜飲食控管｜歐美師資｜Yoga 課程｜Trilingual instructor (English, Japanese, Chinese )",5,68,健身室,台北市信義區Guangfu S Rd64號106 TW 台北市 大安區 台北市信義區嘉興街 7FNo. 567號,25.0311088,121.5579758
武甲總合武術運動館 古亭館,4.6,245,健身室,台北市大安區羅斯福路二段93號,25.0251183,121.5241787
Curves可爾姿 和平科技店,4.9,154,健身室,台北市大安區和平東路二段257號3 樓,25.0250097,121.543831
臺北小巨蛋冰上樂園,4.1,2,溜冰場,台北市松山區南京東路四段2號2樓,25.0510986,121.5504786
健身魂 大安店,4.4,963,健身室,"台北市大安區信義路三段109號B1, No",25.0337006,121.5392338
排球場,4.6,61,排球場,台北市大安區基隆路四段43號,25.0143115,121.542834
排球場,3.7,3,排球場,台北市中山區,25.0845868,121.5446878
北醫排球場,4.6,24,排球場,台北市信義區110,25.0245732,121.5615176
排球場,5,1,大學,台北市大安區,25.0231632,121.5450421
排球場,0,0,體育設施,台北市中山區,25.0673543,121.5204293
網排球場,0,0,體育設施,台北市中山區民生東路三段67號,25.0584206,121.5426201
美堤河濱公園排球場,4.2,46,排球場,台北市中山區,25.0767918,121.5521361
瑠公國中排球場,5,2,排球場,台北市信義區福德街221巷15號,25.0369539,121.5866477
排球&籃球場,0,0,體育館,台北市內湖區環山路二段100號S201 室,25.0846779,121.5776343
政大五期排球場,0,0,排球場,台北市文山區指南路三段64號,24.9814229,121.5777166
建國中學排球場,0,0,排球場,台北市中正區和平西路二段57號,25.0301575,121.5132298
排球場,5,1,排球場,台北市北投區文林北路75巷77號,25.1038661,121.5150433
實踐大學體育館,4.4,332,綜合運動中心,台北市中山區大直街70號,25.0845161,121.544842
國立臺北科技大學 學生運動場,4.1,173,田徑場,台北市大安區建國南路一段105號,25.042458,121.537521
中華民國排球協會,1,1,協會或機構,台北市中山區朱崙街20號,25.0497791,121.539721
政治大學四期排球場,0,0,排球場,台北市文山區環山二道35-1號,24.9816514,121.5781667
國立陽明交通大學陽明校區山頂排球場,3.8,12,排球場,台北市北投區,25.1252111,121.5136579
台科體育館,4.3,130,體育館,台北市大安區基隆路四段43號,25.0142001,121.5432237
舞動陽光有限公司,2.9,27,健身室,台北市大同區大龍街51號,25.0648806,121.5161576
勝利桌球,4.4,36,乒乓球設施,台北市中正區福州街1號台灣 號 2 樓,25.0298293,121.5201094
乒乒乓乓桌球旗艦館（兒童桌球＆成人桌球團體班）,4.9,258,乒乓球設施,台北市松山區南京東路五段272號2樓,25.0511477,121.5668481
國榮桌球 古亭館,4.5,26,乒乓球設施,台北市中正區和平西路一段34號,25.0265352,121.5203973
i-SPORTS乒乓客桌球教室,4.9,23,乒乓球設施,台北市中山區北安路588巷30弄18號B1,25.080465,121.550573
國榮桌球 信義館,4.7,41,乒乓球設施,台北市大安區光復南路432號2樓,25.0361878,121.5572735
天生好手桌球訓練中心,5,16,乒乓球會,台北市大安區復興南路二段151巷1號B1樓,25.0285068,121.5438243
大安桌球教室-全民桌訓,4.8,71,乒乓球設施,台北市大安區延吉街95號B1,25.0433884,121.554082
延吉桌球,4.6,61,主場,台北市大安區延吉街131巷1弄30號號,25.0435074,121.5545685
獅子王桌球(南京館),4.9,161,乒乓球設施,台北市松山區南京東路三段346號 4號樓之5,25.0515477,121.5480404
古亭桌球練功坊 (原華強桌訓）,4.5,102,乒乓球設施,台北市中正區羅斯福路二段12號B1,25.028739,121.520855
士東桌球,4.4,41,乒乓球設施,台北市士林區德行東路109巷31號,25.1085896,121.528276
SUPER PING PONG 乒乓球教室,5,6,乒乓球會,台北市中正區廈門街113巷6號1 樓,25.0232927,121.5178412
JSI就是愛桌球,4.6,20,乒乓球設施,台北市內湖區內湖路一段629巷40弄4號,25.0816372,121.5747691
大臺北桌球會館,4.6,31,乒乓球設施,台北市松山區南京東路五段46號B1,25.0512896,121.5598367
ISON愛上乒乓,5,184,乒乓球設施,台北市中山區農安街43號四樓之二,25.0649896,121.5265029
巨榮桌球,0,0,乒乓球設施,台北市大安區106忠孝東路四段293號4樓,25.041628,121.554882
Raiders奇兵桌球,5,23,乒乓球會,台北市內湖區康寧路一段282號B1,25.0784279,121.5974901
國榮桌球 大安館,4.8,20,主場,台北市大安區和平東路二段49-1號號 B1,25.0257142,121.5382306
獅子王桌球(內湖館),5,226,乒乓球設施,台北市內湖區康寧路三段54-9號B1,25.0712162,121.6098829
五常桌球教室,0,0,乒乓球設施,台北市中山區龍江路429巷10號4樓,25.0666534,121.5416919
仁愛桌球教室_莊敬校,4.9,17,健身室,"B1, No. 334號莊敬路信義區台北市110",25.0278188,121.56376
和信桌球訓練中心,4.7,71,乒乓球會,台灣松山區南京東路四段45號,25.0519582,121.5507778
小蜜蜂乒乓,5,11,乒乓球設施,台北市信義區忠孝東路五段509號三樓,25.041586,121.578741
南港桌球教室,4.9,54,乒乓球設施,台北市南港區成福路26巷1弄4號,25.0451224,121.5857889
內湖焚化爐附設桌球室,4.3,29,乒乓球設施,台北市內湖區安康路290號,25.0623571,121.6044568
穜欣桌球 Seed Table Tennis,4,41,乒乓球設施,台北市士林區天母西路13巷9號,25.1191963,121.5277724
小王子桌球教室,4.8,30,乒乓球會,台北市信義區永吉路179號2樓,25.0457853,121.5717073
Dino乒乓綜合學院,4.8,41,乒乓球設施,台北市士林區中山北路六段776巷82號b1,25.1141784,121.5298708
好球乒乓Nice Ball Ping-Pong,4.9,18,乒乓球會,台北市松山區三民路107巷7號,25.0576448,121.563172
松育桌球-行天宮桌球/台北桌球教室/台北桌球教學/台北兒童桌球/中山區桌球教室/中山區桌球教學,4.9,16,主場,台北市中山區民權東路二段148號4樓,25.0622375,121.5343974
松育桌球-景美桌球/台北桌球教室/台北桌球教學/台北兒童桌球/文山區桌球教室/文山區桌球教學,5,6,主場,台北市文山區景華街113號B1,24.995891,121.546876
立達可桌球訓練中心,4.8,13,培訓中心,台北市內湖區港華街51巷10號,25.0836904,121.575583
樂活桌球景美館,4.5,8,公司辦公室,台北市文山區景文街42號五樓,24.9917526,121.5412069
大榮桌球,5,9,乒乓球設施,台北市中山區明水路397巷19弄26號B1,25.0785278,121.549413
太空人桌球教室（行天宮/松江南京站）/成人桌球教學/兒童桌球教學,5,45,乒乓球設施,台北市中山區吉林路154巷15號B1,25.0565671,121.5292441
晴乒乓-台北松山桌球/乒乓球課程 兒童/國中/高中/團體/一對一/夏令營 體驗課教學 哈達瑜珈 PTT Dcard,5,88,乒乓球設施,"B1, No. 331號南京東路三段松山區台北市105",25.0520702,121.547338
台北圓山飯店聯誼會 桌球室,4,6,健身室,台北市中山區中山北路四段1巷1弄1號2樓,25.0798862,121.5283675
臺北市南港運動中心 Taipei Nangang Sports Center,4,2,乒乓球設施,台北市南港區玉成街69號,25.0487933,121.581875
士勛桌球室,0,0,乒乓球設施,台北市中山區民生東路二段119號,25.0581194,121.5317929
臺北市內湖運動中心 Taipei Neihu Sports Center,4,884,乒乓球設施,台北市內湖區洲子街12號,25.0781567,121.5747649
西門桌球學苑 com100.org,0,0,乒乓球會,"八樓, No. 163-1號民生東路五段松山區台北市105065",25.0594724,121.5627777
日浪桌訓,0,0,健身室,台北市內湖區成功路二段426巷20弄1號,25.070665,121.5891893
中華民國網球協會,1.1,132,協會或機構,台北市中山區朱崙街20號7樓,25.0496867,121.5394824
(整修中/將於4月開館)臺北市文山運動中心,4.2,2,健身室,台北市文山區興隆路三段222號,24.9970144,121.5594549
社子棒球場,4.1,617,棒球場,台北市士林區通河西街二段,25.0942022,121.5069819
臺大棒球場,4,49,棒球場,台北市大安區羅斯福路四段1號,25.0204818,121.5356557
臺北大巨蛋,4.4,666,棒球場,台北市信義區忠孝東路四段345號,25.0424367,121.5595066
新生公園棒球場,4.2,162,棒球場,台北市中山區新生北路三段105號,25.0692803,121.53241
彩虹少棒場,4.9,8,少年棒球場,台北市內湖區114,25.0565594,121.5730139
迪化壘球場,3.7,27,壘球場,台北市大同區,25.0741149,121.509582
迎風河濱公園棒球場F場地,4.5,20,棒球場,台北市松山區105 台北市松山區塔悠疏散門(基六號水門)進入,25.0726575,121.5684594
青年公園棒球場,4.3,592,棒球場,台北市萬華區水源路199號,25.0234239,121.5035669
中華民國學生棒球運動聯盟,4.3,4,協會或機構,台北市中山區南京東路二段58號10樓,25.0517783,121.5298191
台北市立天母棒球場,4.4,2,棒球場,台北市士林區忠誠路二段77號,25.1132352,121.532986
社子島棒球場B場,4.7,6,棒球場,台北市士林區,25.0943134,121.505501
迎風G棒球場,4.6,19,棒球場,台北市松山區,25.0720421,121.5668079
道南河濱棒球場,4.4,60,棒球場,台北市文山區,24.9846559,121.5727973
社子島棒球場C場地,4.4,10,棒球場,台北市士林區,25.0937495,121.5084739
台大棒球場打擊網屋(鳥籠),5,1,棒球場,台北市大安區新生南路三段37號,25.0205416,121.5345255
華江棒球場(D),4.2,308,棒球場,台北市萬華區堤外便道,25.0343416,121.4876921
迎風河濱公園棒球場D場地,4.4,275,棒球場,台北市松山區,25.0734272,121.5692659
福和壘球場,4.1,200,壘球場,"棒球場, 溪洲街文山區台北市116",25.0019667,121.5350294
觀山棒球場D球場,4.3,9,棒球場,台北市松山區觀山棒球場號,25.0734328,121.5692568
大聯盟棒壘球打擊場,4.1,787,打擊練習場,台北市萬華區峨眉街52號8樓,25.0437855,121.5054084
華江棒球場(C),4.5,4,棒球場,台北市萬華區,25.0343478,121.486698
台灣原住民族棒球運動發展協會（產業聚落發展計畫辦公室）,3,1,協會或機構,台北市南港區南港路二段60巷16號1 樓,25.0544566,121.603882
迎風河濱公園棒球場E場地,4.7,3,棒球場,台北市松山區觀山棒球場號,25.0722611,121.5697702
彩虹壘球場,4.4,214,健身室,台北市內湖區,25.06393,121.5715225
臺大新生籃球場,4.1,43,籃球場,台北市大安區羅斯福路四段一號體育室,25.0191973,121.5359528
美堤壘球 B 場,4.6,5,壘球場,台北市中山區,25.0754242,121.5646633
民權公園壘球場,4.8,8,壘球場,台北市松山區新中街51號,25.0615439,121.5601253
迎風壘球場C,3.7,6,壘球場,台北市中山區,25.074955,121.549581
臺北和平籃球館,4.4,2,籃球場,台北市大安區敦南街76巷28號,25.0215212,121.5453433
台大壘球場(小場),0,0,壘球場,沒有地址,25.0210684,121.5346922
雙園網球場,4.2,38,網球場,台北市萬華區,25.0341126,121.4883192
成美A壘球場,4.5,91,壘球場,台北市內湖區潭美街287號號,25.0574393,121.5885097
迎風足球場,4.5,215,足球場,台北市中山區,25.0739694,121.5520246
71 Sports 投打學苑（內湖科學園區館）,4.5,83,棒球場,台北市內湖區新明路380巷9弄14號對面,25.0558787,121.5806815
臺大中央籃球場,4.4,63,籃球場,"號, No. 38-1羅斯福路四段中正區台北市100",25.020218,121.5364746
臺灣師大體育館,4.4,418,體育館,台北市大安區和平東路一段162號,25.0258941,121.5265655
台師大公館校區網球場,4,1,網球場,台北市文山區,25.0087516,121.53691
中華民國棒球協會,1.4,59,協會或機構,台北市內湖區安康路22巷33號4樓,25.0613527,121.5941919
溜冰場,4.8,4,溜冰場,台北市士林區,25.0937826,121.5047993
大魯閣Roller186滑輪場 小巨蛋館,4.8,1,滾軸溜冰場,台北市松山區南京東路四段2號1樓,25.0510696,121.5497293
古亭河濱公園溜冰場,4,3,滾軸溜冰場,台北市中正區,25.0201139,121.5220328
大安森林公園溜冰場,4.1,172,滾軸溜冰場,台北市大安區新生南路二段1號,25.0324632,121.53588
溜冰場,5,1,滾軸溜冰場,台北市文山區興隆路四段46巷78號,24.9874671,121.5588266
圓山河濱公園溜冰場,4.3,62,溜冰場,台北市中山區,25.0746457,121.5271773
青年公園滑輪場,4.2,53,滾軸溜冰場,台北市萬華區水源路199號,25.0207203,121.5044646
獵鷹溜冰隊,4.7,3,運動協會,台北市中山區民權東路三段段榮星花園,25.0634068,121.5388882
天母運動公園滑輪場,4.6,17,滾軸溜冰場,台北市士林區忠誠路二段77號,25.1148573,121.5334177
滑輪場,4,1,滾軸溜冰場,台北市士林區,25.1009512,121.5360504
輪式溜冰場,4,1,滾軸溜冰場,台北市士林區111,25.0991427,121.5207723
迎風滑輪場,4.5,63,滾軸溜冰場,台北市中山區,25.074353,121.548499
極光冰場 Aurora Ice Rink,4.6,371,溜冰場,台北市中山區樂群三路200號6樓,25.0823004,121.5566758
北投公園溜冰場,4.3,12,溜冰場,台北市北投區中山路3-1號,25.1370805,121.5057293
成美右岸河濱公園 -溜冰場,3.8,30,公園,台北市內湖區114,25.0595073,121.591445
直排輪教學台北-王者溜冰隊｜一對一、團體課、包班上課、小班制｜大安森林公園直排輪免費試溜,5,46,運動協會,台北市大安區新生南路二段2號,25.0333274,121.5325299
黑蝙蝠溜冰隊-總部,5,17,滾軸溜冰會,台北市南港區東明街5號,25.056043,121.605404
立農公園輪式溜冰場,0,0,滾軸溜冰場,台北市北投區,25.1193464,121.5037562
社子公園溜冰場,0,0,滾軸溜冰場,台北市士林區,25.0908917,121.5061228
四號公園溜冰場,0,0,滾軸溜冰場,台北市內湖區康樂街110巷16弄22號,25.0702934,121.6180575
美堤極限公園,4.1,74,公園,台北市中山區樂群一路16號,25.076543,121.554819
天和公園輪式溜冰場,0,0,滾軸溜冰場,台北市士林區,25.1197065,121.534257
百齡左岸溜冰場（社子岸）,4.3,121,主場,台北市士林區通河東街一段1段百齡橋下基隆河兩岸,25.0854227,121.513134
大安森林公園籃球場,4.2,111,籃球場,台北市大安區新生南路二段1號,25.0316568,121.5359766
景美運動公園籃球場,4.5,2,籃球場,台北市文山區景豐街48巷11弄106-1號,25.0028353,121.5445858
臺北市和平國小暨籃球運動館,4.3,15,學校,台北市大安區辛亥路三段49號,25.020939,121.545461
籃球場,5,1,籃球場,台北市文山區,25.0047688,121.5342563
新生公園籃球場,4.3,269,籃球場,台北市中山區民族東路240號,25.0685674,121.5326822
民權運動公園籃球場,3,1,籃球場,台北市富錦街359巷2弄與號新中街口,25.0619067,121.5591854
天母運動公園籃球場,4,35,籃球場,台北市士林區士東路228號,25.11364,121.5346328
籃球場,3.3,7,籃球場,台北市中山區,25.0493746,121.5417893
臺北市大安區和平實驗國民小學附屬籃球館暖身球場,4.6,143,籃球場,台北市大安區,25.0217101,121.546059
籃球場,0,0,籃球場,台北市文山區,25.0093304,121.5366525
心樂網 Happinet | 幼兒網球 · 幼兒籃球 · 空中瑜珈 · 地板瑜珈,5,6,綜合運動中心,台北市大同區大龍街110號2 樓,25.0667683,121.5158865
洲美快速道路下籃球場,4.2,46,籃球場,台北市北投區承德路七段401巷175號,25.1148763,121.4995021
地震中心前籃球場,3.7,31,籃球場,台北市大安區基隆路三段83-85號,25.0184555,121.5465865
美堤籃球場,4.5,85,籃球場,台北市中山區,25.0767447,121.5527025
建成公園籃球場,4.4,15,籃球場,台北市大同區,25.0545159,121.5188504
籃球場,4.4,8,籃球場,台北市中山區南京東路一段,25.0525967,121.526843
籃球場,4.3,16,籃球場,台北市士林區,25.1008033,121.5364249
寧安公園籃球場,3.9,9,籃球場,台北市松山區,25.0503432,121.5548879
延平籃球場,4.2,64,籃球場,台北市大同區市民大道,25.0538717,121.5064619
中正河濱籃球場,4.8,9,籃球場,台北市中正區,25.0234728,121.5137311
單框籃球場,5,2,籃球場,台北市士林區,25.1011118,121.534665
古亭河濱公園籃球場,4.3,455,籃球場,台北市中正區水源路9-3號,25.0144935,121.5256417
實踐大學籃球場,3.9,16,籃球場,台北市中山區,25.0845868,121.5446878
台灣籃球名人堂,0,0,籃球場,台北市中山區南京東路三段201號九樓,25.0521498,121.5426043
河神籃球場,4.3,6,籃球場,台北市文山區水源快速道路,24.999007,121.53483
登峰造極系列賽 (籃球、排球、啦啦隊),5,3,籃球場,台北市大安區敦化南路1段205號1603,25.0420039,121.549308
新生高架橋籃球場,4.2,312,籃球場,台北市中正區新生高架道路129號,25.0450857,121.5304331
WCDB籃球訓練教室,0,0,籃球場,台北市士林區承德路四段218號,25.088212,121.5216968
潭美籃球場,3.6,21,籃球場,台北市內湖區,25.053482,121.5746209
百齡籃球場,4.1,65,籃球場,台北市士林區通河東街一段125號,25.0865121,121.5151037
台大醫學院籃球場,5,5,籃球場,台北市中正區,25.0398378,121.5216594
青年公園籃球場,4.4,272,籃球場,台北市萬華區水源路199號,25.0210599,121.5051044
北安休閒運動中心,4,148,籃球場,台北市中山區北安路400巷1弄12號,25.0791984,121.5424698
北二高 老泉 籃球場,3.8,60,籃球場,台北市文山區,24.9761116,121.5585633
市民林森路口籃球場,4.1,53,籃球場,台北市中山區林森北路37巷59號,25.0481207,121.5246437
籃球場,4,4,籃球場,台北市士林區,25.0847031,121.5131683
二座全場籃球場,1,1,籃球場,台北市士林區,25.0811898,121.5169014
古亭河濱籃球場,4.3,15,籃球場,台北市中正區,25.019862,121.5214038
社子公園籃球場,4.2,10,籃球場,台北市士林區永平街46巷3弄15號,25.0911642,121.5062143
斯科特運動團隊,4.9,183,運動協會,lin.ee,24.6498294,121.2338514
三腳渡籃球場,4.8,27,籃球場,台北市士林區通河東街一段7號,25.0810816,121.5170146
美堤河濱公園籃球場,5,1,籃球場,台北市中山區金泰里、10491,25.0742014,121.5627772
美崙公園籃球場,4.3,30,籃球場,台北市士林區美崙街152巷16號,25.0974338,121.5187503
單框籃球場,3.8,6,籃球場,台北市士林區,25.1010146,121.5323385
延平籃球場1,4,1,籃球場,台北市大同區,25.0522659,121.5061588
景華公園籃球場,4,7,籃球場,台北市文山區景興路46巷2號,24.9959003,121.5436434
天母公園籃球場,3.5,4,籃球場,台北市士林區中山北路七段141巷天母公園,25.1255165,121.5303798
圓山育樂中心(保齡球館)-台北士林圓山保齡球/Jackpot/飛鏢機/撞球/籃球機 運動休閒/室內景點活動/下雨景點去處/親子/網美 劍潭捷運站附近 價格人氣推薦 PTT Dcard,2.7,122,保齡球場,台北市士林區中山北路五段6號,25.0821811,121.5259278
玉成河濱籃球場,4.2,9,籃球場,台北市南港區,25.0526568,121.5815312
南港公園籃球場,4.3,58,籃球場,台北市南港區東新街170號,25.0447479,121.5918581
雙園籃球場,4.6,99,籃球場,台北市萬華區環河南北快速道路325號,25.0335693,121.4880176
麥帥一橋籃球場,4.1,167,籃球場,台北市內湖區,25.0531713,121.5740623
道南4籃球場,4.3,3,籃球場,台北市文山區116,24.9863103,121.5718362
中油中崙球場,4.2,114,籃球場,"台北 市 中山 區 八 德 路 二 段 218 巷 1 號 ；No. 1 Lane 218 Section 2 Bade Rd, 中山區台北市10491",25.0459772,121.540138
彩虹籃球場,4.4,39,籃球場,台北市內湖區Unnamed Road,25.0549184,121.5730508
社子大橋下籃球場,4.3,266,籃球場,"大橋北側自行車引道, 2OO弄1O_1号, 社子大穚新提防，直下走就籃球場景地, 延平北路八段2巷士林區台北市111",25.1108573,121.4948996
大倫籃球場,2.8,5,籃球場,"號, No. 9凱旋路61巷4弄士林區台北市111",25.1349866,121.5400589
臺灣神學院籃球場,4.1,14,籃球場,台北市士林區仰德大道二段2巷20號,25.100973,121.5408807
臺北市內湖運動中心 Taipei Neihu Sports Center,4,884,籃球場,台北市內湖區洲子街12號,25.0781567,121.5747649
天壽公園籃球場,4.5,11,籃球場,台北市士林區,25.1169387,121.5246345
臺北市南港運動中心 Taipei Nangang Sports Center,4,2,籃球場,台北市南港區玉成街69號,25.0487933,121.581875
道南5籃球場,5,1,籃球場,台北市文山區,24.983408,121.571086
立農公園籃球場,1.8,4,籃球場,台北市北投區承德路七段378號,25.1184222,121.5034765
Urspor 活力射手籃球營,5,3,活動管理公司,台北市文山區羅斯福路五段35號,25.0075628,121.5387752
東陽公園籃球場,3,1,籃球場,台北市南港區重陽路187巷6號,25.0580399,121.597833
榮華公園籃球場,4.7,22,籃球場,台北市北投區明德路150巷11-17號,25.110256,121.5215113
百齡左岸籃球場C.D,0,0,籃球場,台北市士林區通河西街一段76號,25.0844405,121.5132496
百齡左岸籃球場,5,6,籃球場,台北市士林區,25.0918245,121.5111591
南湖左岸河濱公園籃球場,4.5,4,籃球場,台北市南港區115,25.0593618,121.5950627
觀山籃球場,4.6,16,籃球場,台北市松山區105,25.0703029,121.5695677
玉成公園籃球場,4.3,132,籃球場,台北市南港區,25.0419558,121.5868276
百齡左岸籃球場2,5,1,籃球場,台北市士林區,25.0922195,121.510958
成美左岸河濱籃球場,5,3,籃球場,台北市南港區115,25.0576207,121.59138
永安國小風雨籃球場,5,8,籃球場,台北市中山區,25.079769,121.5491439
師大附中體育館,4.3,69,體育館,台北市大安區信義路三段143號,25.0341596,121.5396717
政大六期籃球場,0,0,籃球場,台北市文山區環山二道35-1號,24.9804756,121.5785332
洲尾庄興安宮籃球場,0,0,籃球場,台北市內湖區潭美街183號,25.0549348,121.5839918
國立陽明交通大學陽明校區山頂籃球場,3.5,4,籃球場,台北市北投區,25.1248314,121.513665
政大五期籃球場,5,2,籃球場,台北市文山區環山二道35-1號,24.9810147,121.5780216
大湖山莊籃球場,4.1,35,籃球場,台北市內湖區大湖山莊街,25.0862769,121.6050556
安康公園籃球場,3,1,籃球場,台北市內湖區康寧路三段220號,25.06688,121.6127275
南湖右岸河濱籃球場,0,0,籃球場,台北市內湖區潭美街399號,25.0604148,121.592883
承德橋下籃球場,3.7,11,籃球場,台北市大同區,25.077175,121.5203951
百齡右岸河濱公園籃球場一,0,0,籃球場,台北市士林區,25.086742,121.515431
石潭公園籃球場,0,0,籃球場,台北市成功路二段石潭公園,25.0636244,121.5928589
古亭河濱公園羽球場,4.5,38,羽毛球場,台北市中正區,25.0202073,121.5215287
圓環羽球場,4.1,161,羽毛球場,"樓, No. 163號南京西路大同區台北市103",25.0542221,121.5132232
華江羽球館,4,23,羽毛球場,台北市萬華區西藏路213號,25.0285426,121.4963415
羽球場,4.5,59,羽毛球場,台北市萬華區水源路199號,25.0211835,121.5048036
Yonex Badminton (no tennis equipment),4.8,13,羽毛球會,台北市信義區松山路314號,25.042447,121.577619
臺北市大安運動中心,4.2,5,綜合運動中心,台北市大安區辛亥路三段55號,25.020739,121.545757
羽球場,1,1,網球場,台北市文山區116,24.9865847,121.5718909
中華民國羽球協會,1.8,41,協會或機構,"樓810室, No. 20號朱崙街中山區台北市10491",25.0498459,121.5393858
臺北市南港運動中心 Taipei Nangang Sports Center,4,2,綜合運動中心,台北市南港區玉成街69號,25.0487933,121.581875
臺北市網球中心,4.2,1,網球場,台北市內湖區民權東路六段208號,25.0675708,121.596956
北士羽球館,4.5,162,羽球館,台北市北投區承德路七段1巷1號,25.1107568,121.5105478
成功高中運動中心,4,577,體育館,台北市中正區林森南路。青島東路口,25.0432149,121.5230202
社子公園羽球場,4.1,33,羽毛球場,台北市士林區永平街20巷37弄10號,25.0906019,121.50662
九龍羽球場,5,2,羽毛球場,台北市中山區劍潭山親山步道,25.0812888,121.5267709
圓山自強羽毛球場,0,0,羽毛球場,台北市中山區中山北路四段1巷1弄3號之一,25.0816253,121.5287567
展望運動中山國中星耀樓,4.1,138,體育館,台北市松山區民權東路三段106巷3弄2號,25.0613514,121.5456185
圓山和友羽球場,4.8,13,羽毛球場,台北市中山區,25.0808208,121.5296598
臺北市中山運動中心,4,2,綜合運動中心,台北市中山區中山北路二段44巷2號,25.0548433,121.5213449
環宇羽球館,3.3,47,健身室,新北市中和區錦和路140號,24.9976486,121.4892629
羽球場,4,5,體育設施,台北市中山區,25.0845869,121.5446867
北安休閒運動中心,4,148,泳池,台北市中山區北安路400巷1弄12號,25.0791984,121.5424698
吉豐羽球館,4.4,241,羽毛球場,台北市內湖區內湖路三段348巷7號,25.090459,121.58269
雙溪右岸河濱公園二座羽毛球場,4.5,2,羽毛球場,台北市士林區雙溪街32號,25.1001578,121.5300932
臺北市內湖運動中心 Taipei Neihu Sports Center,4,884,綜合運動中心,台北市內湖區洲子街12號,25.0781567,121.5747649
唯羽生活 Only Batminton Life,5,125,羽毛球會,台北市北投區西安街一段361號,25.1143055,121.5152628
新北市三重國民運動中心,4,1,綜合運動中心,新北市三重區集美街55號,25.0546254,121.4878983
圓山中央羽球場,4,3,羽毛球場,台北市中山區,25.0823711,121.529458
立農公園羽球場,4.1,7,羽毛球場,台北市北投區,25.1187551,121.5040348
健康羽球館,4.6,156,羽毛球場,新北市土城區承天路71巷3號,24.963355,121.440182
永春活力館,4.6,67,綜合運動中心,台北市信義區松山路342巷13號1樓,25.041454,121.577122
