brand,name,star,comment,class,address,latitude,longitude
COCO,CoCo都可 南四店,4.0,184,冰品飲料店,台北市松山區南京東路四段133巷4弄2號,25.0523357,121.555043
COCO,CoCo都可 合宜店,3.5,67,冰品飲料店,新北市板橋區合宜路81號1樓,24.9977744,121.4473831
COCO,CoCo都可 亞東店,4.3,127,冰品飲料店,新北市板橋區四川路二段47巷2-1號,24.9950823,121.4539569
COCO,CoCo都可 三芝店,4.4,464,冰品飲料店,新北市三芝區中正路一段53號,25.2580262,121.5033625
COCO,Coco都可中和建一店,5.0,164,冰品飲料店,新北市中和區建一路157號,24.9992619,121.4883202
COCO,CoCo都可 自立店,3.8,256,冰品飲料店,新北市中和區自立路24號,24.9931955,121.5223744
COCO,CoCo都可 內湖店,3.8,156,冰品飲料店,台北市內湖區內湖路一段285巷29號,25.0835223,121.5669879
COCO,CoCo都可 南昌店,3.7,284,冰品飲料店,台北市中正區寧波西街83-2號,25.0302637,121.5165912
COCO,CoCo都可 遠雄汐止店,4.4,453,珍珠奶茶,新北市汐止區新台五路一段99號,25.0624689,121.6500815
COCO,CoCo都可 樹林保安店,4.1,171,珍珠奶茶,新北市樹林區保安街一段73號,24.995012,121.4228013
COCO,CoCo都可 新店北新店,4.5,780,冰品飲料店,新北市新店區北新路一段209號,24.9652159,121.540266
COCO,CoCo都可 忠順店,4.6,583,冰品飲料店,台北市文山區興隆路四段68號,24.984748,121.5614273
COCO,CoCo都可 (松山壹號),3.1,22,冰品飲料店,台北市信義區11號 Citylink商場一樓松山,25.0494488,121.5789137
COCO,CoCo都可 永和中正店,3.8,172,冰品飲料店,新北市永和區中正路184號,24.9968977,121.5154481
COCO,CoCo都可 三民店,4.2,148,冰品飲料店,新北市三重區三民街89號,25.063173,121.4855933
COCO,CoCo都可 土城廣福店,3.8,298,冰品飲料店,新北市土城區學府路一段146號,24.9871727,121.4549296
COCO,CoCo都可 台北民生店,4.1,181,冰品飲料店,台北市大同區民生西路159號,25.0573897,121.5176077
COCO,CoCo都可 南京五店,4.1,238,冰品飲料店,台北市松山區南京東路五段66巷15號,25.0506381,121.5608704
COCO,CoCo都可 景文店,4.3,413,冰品飲料店,台北市文山區景文街95號,24.9909743,121.5413486
COCO,CoCo都可 三峽北大店,4.1,192,冰品飲料店,新北市三峽區大學路143號,24.9437545,121.3741646
COCO,CoCo都可 台北建國店,4.4,369,冰品飲料店,台北市大安區建國南路二段17號,25.0327087,121.5381435
COCO,CoCo都可 康寧店,4.2,128,冰品飲料店,台北市內湖區康寧路三段165巷6號,25.0707191,121.6116478
COCO,CoCo都可 萬華寶興店,3.9,155,珍珠奶茶,台北市萬華區寶興街70號,25.0263413,121.4941005
COCO,CoCo都可 土城立德店,4.1,196,珍珠奶茶,新北市土城區立德路40號,24.9873428,121.46357
COCO,CoCo都可 新店寶橋店,4.3,248,珍珠奶茶,新北市新店區寶橋路25號,24.9742051,121.5439525
COCO,coco都可明志2店,0.0,0,冰品飲料店,新北市泰山區明志路三段88號,25.041448,121.4248943
COCO,CoCo都可 華齡店,4.0,191,冰品飲料店,台北市士林區華齡街16號,25.0830366,121.5195641
COCO,CoCo都可 南華店,4.1,335,冰品飲料店,新北市中和區南山路167號,24.9952731,121.5028889
COCO,CoCo都可 板橋重慶店,4.0,218,冰品飲料店,新北市板橋區重慶路179號,25.0024608,121.4627732
COCO,CoCo都可(關渡店),4.0,173,冰品飲料店,台北市北投區知行路301號,25.1220973,121.4671994
COCO,CoCo都可龍江2店,3.7,153,冰品飲料店,台北市中山區龍江路350號,25.0657739,121.5408219
COCO,CoCo都可 深坑店,4.0,253,冰品飲料店,新北市深坑區埔新街92號,25.0023804,121.6190507
COCO,CoCo都可 吳興店,4.0,257,冰品飲料店,台北市信義區吳興街229號,25.0276672,121.5633137
COCO,CoCo都可 大南店,4.5,287,冰品飲料店,台北市士林區大南路309號,25.0888204,121.5183858
COCO,CoCo都可 南港同德店,4.2,179,冰品飲料店,台北市南港區同德路25號,25.0452936,121.5839565
COCO,CoCo都可 興隆店,4.3,543,冰品飲料店,台北市文山區興隆路三段54-2號,25.000017,121.5557301
COCO,CoCo都可 永和仁愛店,3.7,236,珍珠奶茶,新北市永和區仁愛路101號1樓,25.0130296,121.512465
COCO,CoCo都可~永和文化,3.7,40,冰品飲料店,新北市永和區文化路80號,25.0153147,121.5141447
COCO,CoCo都可 板橋漢東店,4.1,328,珍珠奶茶,新北市板橋區漢生東路303號,25.0082737,121.4717679
COCO,CoCo都可 尊賢店,4.1,224,冰品飲料店,台北市北投區尊賢街253號,25.1181247,121.5066212
COCO,coco都可茶飲（內湖金龍）,4.8,108,無酒精飲料店,台北市內湖區金龍路56號一樓,25.0848207,121.5932313
COCO,CoCo都可 板橋莊敬店,4.4,261,珍珠奶茶,新北市板橋區莊敬路100號,25.024399,121.471128
COCO,CoCo都可(台北南京店),4.5,13,冰品飲料店,台北市松山區南京東路三段285號,25.0520908,121.5456188
COCO,CoCo都可 汐止忠孝店,4.1,261,冰品飲料店,新北市汐止區忠孝東路235號,25.0673191,121.6626816
COCO,CoCo都可 德光店,4.2,242,冰品飲料店,新北市中和區德光路93號,25.0034848,121.4689887
COCO,CoCo都可 板橋金門店,4.1,291,珍珠奶茶,新北市板橋區金門街312號,24.98522,121.42872
COCO,CoCo都可 西門町店,4.1,624,冰品飲料店,台北市萬華區武昌街二段4號,25.044313,121.5084253
COCO,CoCo都可 新店民族店,4.2,391,冰品飲料店,新北市新店區民族路243號,24.9753788,121.5365676
COCO,Coco,2.5,6,冰品飲料店,新北市林口區中山路87號,25.0786961,121.3899546
COCO,CoCo都可 新莊中和店,4.2,426,冰品飲料店,新北市新莊區中和街178號,25.0494009,121.4474534
COCO,CoCo都可 東湖二店,4.0,168,珍珠奶茶,台北市內湖區東湖路37號,25.0689056,121.6138171
COCO,CoCo都可 樹林站前店,4.5,291,冰品飲料店,新北市樹林區博愛一街19號,24.9911186,121.4255396
COCO,CoCo都可 永和得和店,4.1,164,冰品飲料店,新北市永和區得和路398號,24.9990806,121.5254804
COCO,CoCo都可（北投中央北店）,3.6,194,冰品飲料店,台北市北投區中央北路二段31號,25.1366269,121.49561
COCO,CoCo都可 竹圍店,4.5,378,冰品飲料店,新北市淡水區民族路31-21號,25.1362144,121.4617793
COCO,CoCo都可 北投中和店,4.0,241,冰品飲料店,台北市北投區中和街280號,25.140376,121.5004799
COCO,CoCo都可（興華店）,4.1,148,冰品飲料店,台北市南港區興華路105號,25.0563922,121.6058825
COCO,CoCo都可 宜安店,3.9,133,冰品飲料店,新北市中和區宜安路160號,24.9988892,121.5091343
COCO,CoCo都可 集美店,3.8,258,冰品飲料店,新北市三重區集美街208號,25.054221,121.491145
COCO,CoCo都可 蘆洲光華店,4.4,407,珍珠奶茶,新北市蘆洲區光華路173號,25.0818993,121.4649385
COCO,CoCo都可 林森北店,3.9,306,冰品飲料店,台北市中山區林森北路438號,25.0604506,121.5254191
COCO,CoCo都可 安居店,3.7,254,冰品飲料店,台北市大安區安居街18號,25.0210595,121.5548108
COCO,CoCo都可 安康店,3.9,257,冰品飲料店,新北市新店區安康路二段62號,24.9637777,121.5148646
COCO,CoCo都可 內湖成功店,4.1,173,珍珠奶茶,台北市內湖區成功路四段59-1號,25.0818584,121.5923491
COCO,CoCo都可 天母德行店,3.9,210,冰品飲料店,台北市士林區德行東路107號,25.1077411,121.5281844
COCO,CoCo都可 林口家樂福店,4.3,61,冰品飲料店,新北市林口區文化二路一段559號B1,25.0776976,121.3750387
COCO,CoCo都可 士林中正店,3.9,386,冰品飲料店,台北市士林區中正路342號,25.0946395,121.5219698
COCO,CoCo都可(石牌商城店),4.4,103,冰品飲料店,台北市北投區石牌路二段62-1號,25.1161823,121.5162096
COCO,CoCo都可 社子店,4.5,571,冰品飲料店,台北市士林區延平北路六段91號,25.0885845,121.5085242
COCO,CoCo都可 (捷運北車2)M3出口,3.9,21,冰品飲料店,台北市中正區忠孝西路一段49號台北車站M3出口B1,25.0464324,121.5177619
COCO,CoCo都可 (忠孝復興),3.5,50,冰品飲料店,台北市大安區忠孝東路四段52號B1,25.0415022,121.5450822
COCO,CoCo都可 新莊化成店,4.1,134,冰品飲料店,新北市新莊區化成路618號,25.0548579,121.4661376
COCO,CoCo都可 新北金山店,4.5,415,冰品飲料店,新北市金山區中山路193號,25.2211096,121.6379824
COCO,CoCo都可 新埔店,4.4,194,冰品飲料店,新北市淡水區淡金路四段560號,25.2275834,121.4518849
COCO,CoCo都可 新莊昌隆店,4.0,166,珍珠奶茶,新北市新莊區昌隆街54號,25.050679,121.4546648
COCO,CoCo都可~新莊??幸福,3.7,85,冰品飲料店,新北市新莊區幸福路534號,25.0494705,121.4556666
COCO,CoCo都可 北市南機場店,4.0,160,冰品飲料店,台北市中正區中華路二段307巷18號,25.028998,121.5058426
COCO,CoCo都可 三重自強店,4.1,136,冰品飲料店,新北市三重區自強路一段250號,25.067316,121.492584
COCO,CoCo都可 新莊富國店,4.4,260,珍珠奶茶,新北市新莊區富國路131號,25.0244919,121.424701
COCO,CoCo都可 成泰店,4.3,234,冰品飲料店,新北市五股區成泰路二段184號,25.0845768,121.4386643
COCO,CoCo都可 凌雲店,4.5,226,珍珠奶茶,新北市五股區凌雲路一段99號,25.1014864,121.4504107
COCO,CoCo都可 林口中正店,4.3,222,冰品飲料店,新北市林口區中正路98號,25.0773541,121.3940508
COCO,Coco都可新莊輔大,4.9,77,冰品飲料店,新北市新莊區建國一路66號,25.0306977,121.4341709
COCO,CoCo都可 新莊中港店,3.9,195,冰品飲料店,新北市新莊區中港路323號,25.0449396,121.4524031
COCO,CoCo都可 沙崙店,4.5,255,冰品飲料店,新北市淡水區沙崙路170號,25.1834341,121.4242487
COCO,CoCo都可 土城中央店,3.6,206,冰品飲料店,新北市土城區中央路二段217號,24.9740238,121.44117
COCO,CoCo都可 中和興南店,3.7,250,珍珠奶茶,新北市中和區興南路一段99號,24.9883376,121.5095326
COCO,CoCo都可 三重龍門店,4.4,49,冰品飲料店,新北市三重區龍門路46號,25.0725913,121.4963774
COCO,CoCo都可 鶯歌中正店,4.4,99,冰品飲料店,新北市鶯歌區中正三路139號,24.9402929,121.3370336
COCO,CoCo都可 (蘆洲永平店),4.9,95,冰品飲料店,新北市蘆洲區永平街24號,25.090829,121.4590987
COCO,CoCo都可 長安二店,4.5,329,冰品飲料店,新北市蘆洲區長安街359號,25.0872793,121.4571818
COCO,CoCo都可 蘆洲民族1店,4.4,325,珍珠奶茶,新北市蘆洲區民族路89號,25.0862229,121.4794359
COCO,CoCo都可 水碓店,4.4,314,冰品飲料店,新北市淡水區中山北路一段156-4號,25.1777663,121.4438431
COCO,CoCo都可 瑞芳店,4.5,183,珍珠奶茶,新北市瑞芳區民生街13號,25.1078075,121.8060429
COCO,CoCo都可 新莊龍安店,4.5,375,珍珠奶茶,新北市新莊區龍安路262號,25.0193656,121.42159
COCO,CoCo都可 淡水店,4.4,470,冰品飲料店,新北市淡水區清水街14號,25.1704957,121.4452917
COCO,CoCo都可 板橋中正店,4.0,161,珍珠奶茶,新北市板橋區中正路168號,25.0170948,121.4565778
COCO,CoCo都可 延平店,3.7,207,冰品飲料店,台北市大同區延平北路三段38號,25.064535,121.511022
COCO,CoCo都可 八里2店,4.5,248,冰品飲料店,新北市八里區龍米路一段152號,25.125918,121.4528468
COCO,CoCo都可 民安店,4.7,167,冰品飲料店,新北市新莊區民安西路142號1樓,25.0167376,121.4261352
COCO,CoCo都可 八里店,4.2,271,珍珠奶茶,新北市八里區中山路二段397號,25.1467001,121.3981084
COCO,CoCo都可 泰山明志店,4.4,332,冰品飲料店,新北市泰山區明志路一段304號,25.0595915,121.431685
COCO,CoCo都可 汐止福德店,4.0,282,珍珠奶茶,新北市汐止區福德一路214號,25.0653233,121.6345632
COCO,CoCo都可 三重中正北店,4.2,206,冰品飲料店,新北市三重區中正北路362號,25.0694624,121.4771702
COCO,CoCo都可 板橋民治店,3.7,145,冰品飲料店,新北市板橋區民治街115號,25.0311357,121.4784372
COCO,CoCo都可 新莊五權店,4.5,170,冰品飲料店,新北市新莊區五權一路38號,25.0654939,121.4575901
COCO,CoCo都可 鶯歌建國店,4.1,371,冰品飲料店,新北市鶯歌區建國路243號,24.9533937,121.3482489
COCO,CoCo都可 三峽和平店,4.0,232,冰品飲料店,新北市三峽區和平街40號,24.9373577,121.37032
COCO,CoCo都可 樹林中華店,4.0,164,珍珠奶茶,新北市樹林區中華路92號,24.9810898,121.4187728
COCO,CoCo都可 汐止樟樹店,4.1,268,冰品飲料店,新北市汐止區樟樹一路137巷2號,25.0659282,121.642137
COCO,CoCo都可 中和福美店,4.4,123,冰品飲料店,新北市中和區福美路240號,25.0053067,121.4987831
COCO,CoCo都可 北宜店,4.8,181,冰品飲料店,新北市新店區北宜路二段255號,24.9535978,121.5541927
COCO,Coco,3.8,112,冰品飲料店,新北市新莊區豐年街15號,25.032706,121.446614
COCO,COCO都可茶飲 新民店,4.1,24,冰品飲料店,新北市淡水區新民街176號,25.178846,121.4369131
COCO,CoCo都可 板橋凱旋店,4.3,50,珍珠奶茶,新北市板橋區中山路二段90巷15號,25.0158725,121.4757046
COCO,CoCo都可 中和員山店,4.2,285,冰品飲料店,新北市中和區員山路339號,25.001604,121.481177
COCO,COCOBOLO 可可菠蘿花藝 /夏季刨冰冷飲,5.0,30,冰品飲料店,台北市信義區吳興街284巷8之2號,25.0246537,121.5637461
COCO,CoCo都可 景安店,3.7,187,冰品飲料店,新北市中和區景安路154號,24.9930879,121.5047158
COCO,CoCo都可 永安市場店,3.5,236,冰品飲料店,新北市永和區中和路523號,25.0028456,121.5110729
COCO,CoCo都可 中和連勝店,3.8,114,冰品飲料店,新北市中和區連勝街9號,24.9984281,121.499
COCO,CoCo 都可 (板橋宏國),4.5,45,冰品飲料店,新北市板橋區宏國路76號,25.0320229,121.4695131
COCO,CoCo都可 捷運北車店,3.1,128,冰品飲料店,台北市中正區忠孝西路一段49號捷運北車10號店舖號B3,25.0481638,121.5184466
COCO,CoCo都可 三峽大雅店,4.3,219,冰品飲料店,新北市樹林區大雅路280號,24.9472177,121.3798771
COCO,CoCo民生社區,3.8,4,冰品飲料店,台北市松山區民生東路五段129號,25.058867,121.561161
