brand,name,star,comment,class,address,latitude,longitude
五十嵐,50嵐 信陽店,3.6,163,冰品飲料店,台北市中正區信陽街13號,25.044775,121.516427
五十嵐,50嵐 重慶酒泉店,3.5,224,冰品飲料店,台北市大同區重慶北路三段251號,25.071468,121.514019
五十嵐,50嵐 晴光店,3.1,291,冰品飲料店,台北市中山區農安街22號,25.0648279,121.525104
五十嵐,50嵐 木新店,3.1,149,冰品飲料店,台北市文山區木新路三段158號,24.9819812,121.5612012
五十嵐,50嵐 世貿店,3.7,245,冰品飲料店,台北市信義區吳興街15號,25.0315835,121.5596595
五十嵐,50嵐 奇岩店,3.9,143,冰品飲料店,台北市北投區崇仁路一段70號,25.1265759,121.5013712
五十嵐,50嵐 泰山明志店,3.4,247,冰品飲料店,新北市泰山區明志路一段287號,25.0597187,121.4319575
五十嵐,50嵐 耕莘店,3.8,156,冰品飲料店,新北市新店區中正路351-3號,24.9759937,121.5350987
五十嵐,50嵐 北投店,3.3,203,珍珠奶茶,台北市北投區光明路21號,25.1326535,121.4991827
五十嵐,50嵐 寧夏店,2.7,236,珍珠奶茶,台北市大同區寧夏路47號,25.0573193,121.5155735
五十嵐,50嵐 莊敬店,3.1,375,冰品飲料店,台北市信義區莊敬路392號,25.0273449,121.56552
五十嵐,50嵐 德行店,3.8,287,冰品飲料店,台北市士林區德行西路60號,25.105171,121.522829
五十嵐,50嵐 士林文林店,3.9,466,冰品飲料店,台北市士林區文林路191號,25.0896857,121.5268826
五十嵐,50嵐 伊通店,4.1,364,冰品飲料店,台北市中山區伊通街66-2號,25.0526938,121.5346672
五十嵐,50嵐 文德店,3.8,237,冰品飲料店,台北市內湖區文德路20號,25.0783845,121.5794696
五十嵐,50嵐 開封店,3.5,258,冰品飲料店,台北市中正區開封街一段9號,25.0461185,121.5138822
五十嵐,50嵐 SOGO店,3.7,241,冰品飲料店,台北市大安區復興南路一段107巷23-3號,25.0436356,121.5454585
五十嵐,50嵐 永康店,3.6,534,冰品飲料店,台北市大安區永康街14巷2號,25.0312691,121.52938
五十嵐,50嵐 重新店,3.8,204,冰品飲料店,新北市三重區重新路三段5號,25.0616888,121.4953704
五十嵐,50嵐 明志科大店,4.1,234,冰品飲料店,新北市泰山區明志路三段121號,25.0407295,121.4251078
五十嵐,50嵐 市府店,3.1,138,冰品飲料店,台北市信義區忠孝東路五段2號捷運4號出口b1商鋪,25.0412591,121.567093
五十嵐,50嵐 雙連店,3.9,410,冰品飲料店,台北市中山區錦西街14號,25.0602912,121.5214967
五十嵐,50嵐 萬隆店,3.8,273,冰品飲料店,台北市文山區羅斯福路五段217號,25.0021686,121.5391303
五十嵐,50嵐 永吉店,4.6,33,冰品飲料店,台北市信義區永吉路30巷106號,25.0433834,121.5686001
五十嵐,50嵐 新泰店,3.9,342,冰品飲料店,新北市新莊區新泰路311號,25.0411932,121.4452201
五十嵐,50嵐 昌吉店,4.0,234,冰品飲料店,台北市大同區昌吉街35號1樓,25.0659901,121.516675
五十嵐,50嵐 汐止大同店,3.9,187,冰品飲料店,新北市汐止區大同路二段222號,25.0653792,121.6538028
五十嵐,50嵐 汐止忠孝店,4.0,265,冰品飲料店,新北市汐止區忠孝東路263號,25.0678622,121.6631379
五十嵐,50嵐 木柵店,3.6,138,冰品飲料店,台北市文山區保儀路69號,24.9870824,121.5686668
五十嵐,50嵐 承德店,4.0,297,冰品飲料店,台北市大同區承德路一段20號,25.050411,121.516677
五十嵐,50嵐 重慶店,4.0,243,冰品飲料店,台北市大同區重慶北路一段84號,25.052535,121.5139255
五十嵐,50嵐 亞東店,3.8,386,冰品飲料店,新北市板橋區四川路二段41號,24.9952617,121.4541546
五十嵐,50嵐 新店中正店,4.0,256,冰品飲料店,新北市新店區中正路55號,24.9698147,121.5445114
五十嵐,50嵐 南西店,3.7,238,冰品飲料店,台北市中山區南京西路12巷3號,25.0520224,121.5214972
五十嵐,50嵐 市政府站店,2.3,42,珍珠奶茶,台北市信義區忠孝東路五段63號B1,25.0412888,121.5667246
五十嵐,50嵐 劍潭店,3.5,188,冰品飲料店,台北市士林區承德路四段35號,25.0808735,121.5228134
五十嵐,50嵐寶橋店,4.1,108,冰品飲料店,新北市新店區寶橋路224號,24.9785937,121.5513474
五十嵐,50嵐 德安店,3.9,199,冰品飲料店,台北市內湖區康寧路一段66號,25.0800432,121.5922544
五十嵐,50嵐 通化店,3.0,240,冰品飲料店,台北市大安區通化街119號,25.029368,121.5540879
五十嵐,50嵐 新店民權店,4.1,274,冰品飲料店,新北市新店區民權路123號,24.9826947,121.5357238
五十嵐,50嵐 土城日月光店,3.3,203,珍珠奶茶,新北市土城區中央路二段61巷37號,24.9783373,121.4446902
五十嵐,50嵐 士林捷運店,3.6,280,冰品飲料店,台北市士林區中正路235巷38號,25.0942551,121.5260872
五十嵐,50嵐 新東店,3.9,150,冰品飲料店,台北市松山區民生東路五段197-1號,25.0592075,121.5661594
五十嵐,50嵐 政大店,3.6,102,冰品飲料店,台北市文山區指南路二段63號,24.9879412,121.5747287
五十嵐,50嵐 大直北安店,3.7,310,冰品飲料店,台北市中山區北安路571-3號,25.0811707,121.5484051
五十嵐,50嵐 內湖園區店,3.2,251,冰品飲料店,台北市內湖區內湖路一段425號1F,25.0815336,121.5714672
五十嵐,50嵐 長春店,3.6,270,冰品飲料店,台北市松山區長春路476號,25.054378,121.5464934
五十嵐,50嵐 三峽北大店,4.3,101,冰品飲料店,新北市三峽區大學路129號1樓,24.9436023,121.3745389
五十嵐,50嵐 興隆店,4.2,429,冰品飲料店,台北市文山區興隆路二段349號,25.0009852,121.5545048
五十嵐,50嵐 士東店,3.9,105,冰品飲料店,台北市士林區士東路99號,25.1122931,121.5295353
五十嵐,50嵐 天母店,4.2,153,冰品飲料店,台北市士林區天母北路3號,25.1189617,121.5264108
五十嵐,50嵐 捷運善導寺店,4.2,340,冰品飲料店,台北市中正區忠孝東路一段11-1號,25.0449151,121.5238661
五十嵐,50嵐 復興店,3.4,384,珍珠奶茶,台北市大安區復興南路二段182號,25.0272958,121.5432742
五十嵐,50嵐 小南門店,4.3,164,珍珠奶茶,台北市中正區延平南路234號,25.033863,121.5073356
五十嵐,50嵐 民生店,3.5,324,冰品飲料店,台北市松山區民生東路四段104號,25.0580181,121.5542381
五十嵐,50嵐 東湖店,3.9,311,冰品飲料店,台北市內湖區康寧路三段48號,25.0718807,121.6086873
五十嵐,50嵐 寧波店,4.1,203,冰品飲料店,台北市中正區寧波西街51號,25.0309349,121.517759
五十嵐,50嵐 鶯歌鶯桃店,4.0,393,冰品飲料店,新北市鶯歌區鶯桃路二段24號,24.9723779,121.325853
五十嵐,50嵐 碧潭店,4.3,369,冰品飲料店,新北市新店區光明街3號,24.9592327,121.5382848
五十嵐,50嵐 石牌店,3.5,256,冰品飲料店,台北市北投區裕民一路23號,25.116766,121.516964
五十嵐,50嵐 忠孝延吉店,3.9,458,冰品飲料店,台北市大安區延吉街72之4號,25.0425059,121.5541424
五十嵐,50嵐 龍山寺店,2.9,186,冰品飲料店,台北市萬華區和平西路三段139號1樓,25.035454,121.4990366
五十嵐,50嵐 樹林中山店,3.8,315,冰品飲料店,新北市樹林區中山路一段150號,24.9902881,121.4221136
五十嵐,50嵐 饒河店,4.1,236,冰品飲料店,台北市松山區八德路四段777號,25.0512463,121.5782476
五十嵐,50嵐 昆陽遠東店,3.7,172,冰品飲料店,台北市南港區南港路三段1號,25.054024,121.59221
五十嵐,50嵐 西門店,3.9,462,珍珠奶茶,台北市中正區漢中街136號,25.041821,121.507082
五十嵐,50嵐 四川店,4.0,316,冰品飲料店,新北市板橋區四川路一段202號,25.0024064,121.4595252
五十嵐,50嵐 瑞光店,3.3,246,冰品飲料店,台北市內湖區民權東路六段94號,25.06877,121.5862405
五十嵐,50嵐 得和店,4.0,156,冰品飲料店,新北市永和區得和路396號,24.9991073,121.5253668
五十嵐,50嵐 實踐店,3.8,166,冰品飲料店,台北市中山區大直街51號,25.083095,121.5464509
五十嵐,50嵐 遼寧店,3.5,197,冰品飲料店,台北市中山區遼寧街28號,25.0479328,121.542051
五十嵐,50嵐 北車店,3.3,415,冰品飲料店,台北市中正區忠孝西路一段49號,25.0465322,121.517644
五十嵐,50嵐 板橋雙十店,4.1,236,冰品飲料店,新北市板橋區雙十路二段189號,25.0286794,121.4736771
五十嵐,50嵐 南港園區店,3.6,268,冰品飲料店,台北市南港區南港路一段116號1樓,25.0554834,121.61369
五十嵐,50嵐 板橋中正店,3.9,325,冰品飲料店,新北市板橋區中正路229號,25.0178183,121.4558818
五十嵐,50嵐 板橋文化店,3.9,385,冰品飲料店,新北市板橋區文化路一段379號,25.0216767,121.4669911
五十嵐,50嵐 板橋莒光店,4.0,453,冰品飲料店,新北市板橋區莒光路14號,25.0247222,121.4697222
五十嵐,50嵐 蘆洲民族店,4.5,271,冰品飲料店,新北市蘆洲區民族路176號,25.0866903,121.4799506
五十嵐,50嵐 合江店,3.4,400,冰品飲料店,台北市中山區合江街111號,25.0600205,121.5393154
五十嵐,50嵐 新生店,3.5,360,冰品飲料店,台北市中正區新生南路一段52之3號,25.0413767,121.5325741
五十嵐,50嵐 新莊中和店,4.2,344,冰品飲料店,新北市新莊區中和街196號,25.0502506,121.4476853
五十嵐,50嵐 西寧店,3.9,723,珍珠奶茶,台北市萬華區西寧南路48-4號,25.0443979,121.5062992
五十嵐,50嵐淡水老街店,2.5,2,冰品飲料店,新北市淡水區中正路145號,25.1706238,121.4389768
五十嵐,50嵐 金山店,4.1,45,冰品飲料店,新北市金山區中山路231號,25.2217127,121.6373827
五十嵐,50嵐 淡水英專店,3.6,229,冰品飲料店,新北市淡水區清水街1-10號,25.1703376,121.4453166
五十嵐,50嵐 淡水中山店,3.5,443,冰品飲料店,新北市淡水區水碓街5號,25.1771276,121.4431158
五十嵐,50嵐 三峽光明店,4.8,116,冰品飲料店,新北市三峽區光明路100-3號,24.9281327,121.3760502
五十嵐,50嵐 三和店,4.0,459,冰品飲料店,新北市三重區三和路四段205號,25.0794716,121.4819867
五十嵐,50嵐 南機場店,3.9,191,冰品飲料店,台北市中正區中華路二段309巷5號,25.028717,121.5057135
五十嵐,50嵐 五股成泰店,3.5,301,冰品飲料店,新北市五股區成泰路二段168號,25.0842649,121.4384693
五十嵐,50嵐三重文化店,3.5,177,冰品飲料店,新北市三重區文化北路61-3號,25.0664063,121.4986898
五十嵐,50嵐 蘆洲中華店,4.4,88,冰品飲料店,新北市蘆洲區中華街16號,25.0815268,121.4629887
五十嵐,50嵐 福壽店,3.9,109,珍珠奶茶,新北市新莊區福壽街65號,25.0492786,121.4581521
五十嵐,50嵐輔大店,3.4,181,冰品飲料店,新北市新莊區建國一路30號,25.0315905,121.4337618
五十嵐,50嵐 土城明德店,2.9,374,冰品飲料店,新北市土城區明德路一段57號,24.9845773,121.4653748
五十嵐,50嵐 樹林保安店,3.7,143,冰品飲料店,新北市樹林區保安街一段239號,24.9964436,121.4200792
五十嵐,50嵐 正義店,3.7,243,冰品飲料店,新北市三重區正義北路251號,25.0696346,121.4958072
五十嵐,50嵐 林口中山店,3.9,299,冰品飲料店,新北市林口區中山路8號,25.0783785,121.3965619
五十嵐,50嵐新莊中港店,3.9,117,冰品飲料店,新北市新莊區中港路335號1樓,25.0453491,121.4522404
五十嵐,50嵐 中和遠東店,3.2,155,冰品飲料店,新北市中和區連城路395號,24.9960596,121.4863919
五十嵐,50嵐 南勢角店,3.1,264,冰品飲料店,新北市中和區景新街396號,24.9895527,121.5125042
五十嵐,50嵐 中和園區店,2.9,177,冰品飲料店,新北市中和區連城路336號,24.9958673,121.4830317
五十嵐,50嵐 瑞芳店,4.0,252,冰品飲料店,新北市瑞芳區明燈路三段53號,25.1080485,121.8062521
五十嵐,50嵐 捷運永寧店,2.6,231,冰品飲料店,新北市土城區中央路三段56-1號,24.9676956,121.4368127
五十嵐,50嵐 安康店,4.2,291,冰品飲料店,新北市新店區安康路二段169號,24.9592295,121.5098632
五十嵐,50嵐 富國店,3.5,351,冰品飲料店,新北市新莊區富國路37號,25.0264857,121.4190257
五十嵐,50嵐 八里店,4.1,337,冰品飲料店,新北市八里區中山路二段341號,25.1472493,121.3994188
五十嵐,50嵐 土城頂埔店,3.0,146,珍珠奶茶,新北市土城區中央路四段284號,24.9564607,121.4143336
五十嵐,50嵐 汐止中興店,3.7,209,冰品飲料店,新北市汐止區中興路198號,25.0659322,121.6314045
五十嵐,50嵐 民安店,3.6,256,冰品飲料店,新北市新莊區民安西路4號,25.0217675,121.4263629
五十嵐,50嵐 中和環球店,3.7,334,冰品飲料店,新北市中和區中山路三段113號,25.0058966,121.4747283
五十嵐,50嵐 裕民店,2.7,248,冰品飲料店,新北市土城區裕民路89號,24.9872445,121.4503231
五十嵐,50嵐 五工店,3.9,186,無酒精飲料店,新北市新莊區五權一路80號,25.0668314,121.4589671
五十嵐,50嵐 蘆洲中正店,3.2,415,冰品飲料店,新北市蘆洲區中正路101號,25.0840862,121.4697072
五十嵐,50嵐 鶯歌建國店,3.5,224,冰品飲料店,新北市鶯歌區建國路219號,24.9534028,121.3488788
五十嵐,50嵐 中正北店,3.9,433,冰品飲料店,新北市三重區中正北路157號,25.0676882,121.482372
五十嵐,50嵐連城店,3.2,275,珍珠奶茶,新北市中和區連城路13號,25.0021107,121.4990866
五十嵐,50嵐 三峽文化店,3.9,491,冰品飲料店,新北市三峽區文化路26號,24.9360019,121.3732319
五十嵐,50嵐 樹林中華店,3.8,234,冰品飲料店,新北市樹林區中華路84號,24.9811434,121.4189495
五十嵐,50嵐 北深店,4.1,156,冰品飲料店,新北市深坑區北深路三段190號,25.0037649,121.6016696
五十嵐,50嵐 寶興店,3.7,280,冰品飲料店,台北市萬華區寶興街64號,25.0265055,121.493984
五十嵐,50嵐 中和員山店,3.4,82,冰品飲料店,新北市中和區員山路325-2號,25.0009211,121.4811009
五十嵐,50嵐 吉林店,3.7,247,冰品飲料店,台北市中山區吉林路185號,25.0596898,121.5303953
五十嵐,50嵐 林森店,3.9,183,冰品飲料店,台北市中山區林森北路93號,25.0499989,121.5249618
五十嵐,50嵐 台北縣總店,3.6,257,冰品飲料店,新北市板橋區中山路二段159號,25.0167415,121.4757522
五十嵐,50嵐 東湖二店,4.1,208,冰品飲料店,台北市內湖區東湖路149號,25.068158,121.61728
五十嵐,50嵐 樂華店,3.0,412,冰品飲料店,新北市永和區永和路一段144號,25.0082443,121.5142108
五十嵐,50嵐 景安店,3.2,48,冰品飲料店,新北市中和區景安路181號,24.9932398,121.5050186
五十嵐,50嵐 松山店,3.8,389,冰品飲料店,台北市信義區松山路557號,25.037122,121.578397
五十嵐,50嵐 福和店,3.7,334,冰品飲料店,新北市永和區福和路239號,25.0073483,121.5183179
五十嵐,50嵐 同安店,4.1,369,冰品飲料店,台北市中正區同安街32號,25.0243088,121.5217755
五十嵐,50嵐 南京三民店,3.6,114,冰品飲料店,台北市松山區南京東路五段123巷37號,25.0531024,121.560708
五十嵐,50嵐 頭前店,4.2,310,冰品飲料店,新北市新莊區化成路209-2號,25.051575,121.465991
五十嵐,50嵐 北寧店,3.6,216,冰品飲料店,台北市松山區北寧路26號,25.049026,121.552769
五十嵐,50嵐 板橋中山二店,3.8,355,冰品飲料店,新北市板橋區中山路一段135號,25.0105744,121.4624245
