brand,name,star,comment,class,address,latitude,longitude
清心福全,清心福全長春二店,4.1,56,冰品飲料店,台北市中山區長春路120號,25.0547518,121.5303141
清心福全,清心福全金山南店-珍珠奶茶手搖飲料專賣店,4.1,29,無酒精飲料店,台北市中正區信義路一段9-1號石園新城大廈號,25.0331232,121.5273794
清心福全,清心福全南港經貿店 珍珠奶茶手搖飲料專賣店,3.1,102,無酒精飲料店,台北市南港區南港路一段154號一樓,25.0554553,121.6122101
清心福全,清心福全信義松仁店,4.0,218,冰品飲料店,台北市信義區松仁路198號,25.0274166,121.5682613
清心福全,清心福全北投石牌店－珍珠奶茶手搖飲料專賣店,3.9,141,冰品飲料店,台北市北投區石牌路二段99巷57號,25.118424,121.516777
清心福全,清心福全樹林柑園店-珍珠奶茶手搖飲料專賣店,3.9,63,冰品飲料店,新北市樹林區柑園街一段371號,24.9558213,121.3886362
清心福全,清心福全大同迪化店-珍珠奶茶手搖飲料專賣店,3.1,55,無酒精飲料店,台北市大同區南京西路233巷17號,25.0543079,121.510539
清心福全,清心福全土城學府店-珍珠奶茶手搖飲料專賣店,2.7,47,無酒精飲料店,新北市土城區學府路一段144巷2號,24.9873563,121.4550279
清心福全,清心福全信義世貿店-珍珠奶茶手搖飲料專賣店,3.9,165,無酒精飲料店,台北市信義區吳興街152號,25.0293305,121.5616994
清心福全,清心福全五分埔店-珍珠奶茶手搖飲料專賣店,3.6,157,無酒精飲料店,台北市信義區松山路158-1號,25.0464089,121.5775929
清心福全,清心福全 內湖碧湖店,3.9,85,無酒精飲料店,台北市內湖區內湖路二段369號,25.0837928,121.5923383
清心福全,清心福全台北開封店-珍珠奶茶手搖飲專賣店,3.7,76,珍珠奶茶,台北市中正區開封街一段64號,25.045903,121.51164
清心福全,清心福全新莊中港店-珍珠奶茶手搖飲料專賣店,3.5,206,珍珠奶茶,新北市新莊區中港路302號,25.04498,121.4527936
清心福全,清心福全圓通店-珍珠奶茶手搖飲料專賣店,2.7,119,冰品飲料店,新北市中和區圓通路256號,24.9910197,121.4933546
清心福全,清心福全鶯歌鶯桃店珍珠奶茶手搖飲料專賣店,3.4,65,冰品飲料店,新北市鶯歌區鶯桃路636號,24.9689996,121.3294975
清心福全,清心福全承德店珍,2.8,62,無酒精飲料店,台北市士林區承德路四段40巷125號,25.0817849,121.520418
清心福全,清心福全中和連城店-珍珠奶茶手搖飲料專賣店,3.5,75,冰品飲料店,新北市中和區連城路315之1號1 樓,24.996105,121.4894075
清心福全,清心福全汐止連興店-珍珠奶茶手搖飲料專賣店,2.7,82,無酒精飲料店,新北市汐止區連興街131號1樓,25.0618645,121.6540435
清心福全,清心福全世新店-珍珠奶茶手搖飲料專賣店,4.3,164,無酒精飲料店,台北市文山區木柵路一段165號,24.9877317,121.5506749
清心福全,清心福全士林文大店-珍珠奶茶手搖飲料專賣店,3.7,64,無酒精飲料店,台北市士林區光華路26巷4之2號,25.137478,121.5418989
清心福全,清心福全三重集美店-珍珠奶茶手搖飲料專賣店,3.8,89,珍珠奶茶,新北市三重區集美街136號,25.0532024,121.489421
清心福全,清心福全長江店-珍珠奶茶手搖飲料專賣店,3.9,145,冰品飲料店,新北市板橋區長江路二段8號1樓,25.0313315,121.4647249
清心福全,清心福全,2.4,117,冰品飲料店,新北市中和區德光路95號,25.0032914,121.4685527
清心福全,清心福全樹林鎮前店珍珠奶茶手搖飲料專賣店,3.8,93,飲料,新北市樹林區鎮前街62號,24.9923869,121.425493
清心福全,清心福全大同大龍店-珍珠奶茶手搖飲料專賣店,3.8,226,無酒精飲料店,台北市大同區大龍街267號1樓,25.0717145,121.5159337
清心福全,清心福全新店北新店-珍珠奶茶手搖飲料專賣店,3.9,90,冰品飲料店,新北市新店區北新路三段62號,24.9802729,121.5421777
清心福全,清心福全中和南工店-珍珠奶茶手搖飲料專賣店,3.0,121,無酒精飲料店,新北市中和區中和路198號,24.9996831,121.5053344
清心福全,清心福全中正泉州店-珍珠奶茶手搖飲料專賣店,3.9,103,無酒精飲料店,台北市中正區泉州街14號,25.0272508,121.5143601
清心福全,清心福全 信義忠孝東,3.8,124,冰品飲料店,台北市信義區忠孝東路五段743巷5號一樓,25.043455,121.5810282
清心福全,清心福全板橋（漢生東路）中正店-珍珠奶茶手搖飲料專賣店,4.0,206,冰品飲料店,新北市板橋區漢生東路179號,25.012007,121.469633
清心福全,清心福全北投自強店-珍珠奶茶手搖飲料專賣店,4.5,58,珍珠奶茶,台北市北投區自強街115號,25.1109429,121.5155346
清心福全,清心福全中原店-珍珠奶茶手搖飲料專賣店,3.4,160,冰品飲料店,新北市新莊區中原路337號,25.054291,121.4454664
清心福全,清心福全新店碧潭店-珍珠奶茶手搖飲料專賣店,3.2,198,珍珠奶茶,新北市新店區北新路一段67號,24.960115,121.5382019
清心福全,清心福全大安店-珍珠奶茶手搖飲料專賣店,4.2,156,冰品飲料店,台北市大安區大安路一段229號1樓,25.0344367,121.5461059
清心福全,清心福全淡水真理店-珍珠奶茶手搖飲料專賣店,3.4,60,冰品飲料店,新北市淡水區新民街138號,25.1779038,121.4375719
清心福全,清心福全三重光明店-珍珠奶茶手搖飲專賣店,4.0,145,珍珠奶茶,新北市三重區光明路67-1號,25.0574059,121.4916414
清心福全,清心福全中山林森北店,4.3,95,冰品飲料店,台北市中山區長安東路一段53巷19號1樓,25.0501119,121.5268261
清心福全,清心福全土城員福店-珍珠奶茶手搖飲料專賣店,3.2,172,無酒精飲料店,新北市土城區學府路二段18號,24.9819514,121.4490659
清心福全,清心福全 板橋四維店,4.0,109,冰品飲料店,新北市板橋區四維路157號,25.0256597,121.4647896
清心福全,清心福全萬華寶興店-珍珠奶茶手搖飲料專賣店,3.5,79,無酒精飲料店,台北市萬華區寶興街94號1樓,25.0258429,121.4943126
清心福全,清心福全蘆洲復興店-珍珠奶茶手搖飲料專賣店,4.5,220,冰品飲料店,新北市蘆洲區復興路114號,25.0872251,121.476327
清心福全,清心福全汐止大同店,3.5,37,珍珠奶茶,新北市汐止區大同路二段342號1樓,25.0669725,121.6566215
清心福全,清心福全樹林育英店-珍珠奶茶手搖飲料專賣店,4.0,100,無酒精飲料店,新北市樹林區育英街42號,24.9892522,121.4216189
清心福全,清心福全冷飲站中和自立店,2.7,118,冰品飲料店,新北市中和區自立路187號,24.9913939,121.5239644
清心福全,清心福全永和竹林店-珍珠奶茶-手搖飲料-台灣茶,3.5,165,冰品飲料店,新北市永和區竹林路38號,25.0143728,121.5174391
清心福全,清心福全北投中和店 珍珠奶茶手搖飲專賣店,3.2,90,珍珠奶茶,台北市北投區中和街331號,25.1409172,121.4997178
清心福全,清心福全廣明店-珍珠奶茶手搖飲料專賣店,4.0,107,無酒精飲料店,新北市板橋區四川路二段47巷2弄1號,24.9947541,121.4541089
清心福全,清心福全新店五峰店-珍珠奶茶手搖店飲料專賣店,2.1,41,冰品飲料店,新北市新店區中正路11號1樓,24.9693503,121.5454174
清心福全,清心福全北投致遠店-珍珠奶茶手搖飲料專賣店,4.1,133,珍珠奶茶,台北市北投區尊賢街211號,25.1154066,121.5079717
清心福全,清心福全萬隆店-珍珠奶茶手搖飲料專賣店,3.0,177,珍珠奶茶,台北市文山區羅斯福路五段190號,25.0038687,121.5384798
清心福全,清心福全 雙城店 珍珠奶茶手搖飲料專賣店,3.6,110,珍珠奶茶,台北市中山區雙城街13巷26號,25.0640418,121.5253388
清心福全,清心福全成功店-珍珠奶茶手搖飲料專賣店,3.5,145,冰品飲料店,台北市大安區復興南路二段151巷49號,25.0283799,121.5457522
清心福全,清心福全新莊幸福店-珍珠奶茶手搖飲料專賣店,3.2,61,冰品飲料店,新北市新莊區幸福路786號號1樓,25.0492228,121.4467652
清心福全,清心福全中正信陽店 珍珠奶茶手搖飲料專賣店,3.0,173,珍珠奶茶,台北市中正區信陽街6之1號,25.0445796,121.5163278
清心福全,清心福全新莊化成店-珍珠奶茶手搖飲料專賣店,4.1,101,冰品飲料店,"號之3, No. 488號之3化成路新莊區新北市24252",25.0517897,121.4663945
清心福全,清心福全和平東店-珍珠奶茶手搖飲料專賣店,3.5,137,無酒精飲料店,台北市大安區和平東路三段294號,25.020718,121.556174
清心福全,清心福全中和景新店,5.0,4,無酒精飲料店,新北市中和區景新街382號,24.9898841,121.5123513
清心福全,清心福全安民店-珍珠奶茶手搖飲料專賣店,3.2,36,珍珠奶茶,新北市新店區安民街189-6號,24.9710719,121.5169127
清心福全,清心福全峨眉店-珍珠奶茶手搖飲專賣店,2.3,72,珍珠奶茶,台北市萬華區峨眉街49號,25.043643,121.506818
清心福全,清心福全仁愛店-珍珠奶茶手搖飲料專賣店,3.5,85,珍珠奶茶,新北市林口區仁愛路二段15號,25.0761108,121.3858401
清心福全,清心福全安康店-珍珠奶茶手搖飲料專賣店,3.1,94,無酒精飲料店,新北市新店區安康路二段146號之一,24.9615574,121.5122943
清心福全,清心福全永和永福店-珍珠奶茶手搖飲料專賣店,3.7,114,冰品飲料店,新北市永和區福和路124號 號,25.0080419,121.5220644
清心福全,清心福全木新店-珍珠奶茶手搖飲料專賣店,4.1,167,無酒精飲料店,台北市文山區木新路三段143號,24.9817803,121.5615574
清心福全,清心福全淡水大忠店-珍珠奶茶手搖飲料專賣店,3.4,129,冰品飲料店,新北市淡水區中山北路二段177號,25.184703,121.4441096
清心福全,清心福全港墘店,3.0,245,無酒精飲料店,台北市內湖區內湖路一段737巷56號,25.0807176,121.5790163
清心福全,清心福全三峽大學店（來電外送26731238免外送費）,4.8,144,冰品飲料店,新北市三峽區國際一街36號,24.9426896,121.3734502
清心福全,清心福全大直店,3.0,149,冰品飲料店,台北市中山區北安路528號,25.079704,121.546447
清心福全,清心福全新莊新泰店-珍珠奶茶手搖飲料專賣店,4.1,83,珍珠奶茶,新北市新莊區新泰路323號,25.0415338,121.445068
清心福全,清心福全泰山明志店-珍珠奶茶手搖飲料專賣店,4.0,105,無酒精飲料店,新北市泰山區明志路三段178號,25.0390001,121.4241943
清心福全,清心福全新莊新豐店“位於新莊廟街旁”,4.2,99,無酒精飲料店,新北市新莊區新泰路79號,25.0344346,121.4492836
清心福全,清心福全北投光明店-珍珠奶茶手搖飲料專賣店,3.3,145,無酒精飲料店,台北市北投區光明路148號,25.1342966,121.5024377
清心福全,清心福全永和得和店-珍珠奶茶手搖飲料專賣店,2.8,74,無酒精飲料店,新北市永和區成功路二段97號,24.9991098,121.5269065
清心福全,清心福全松山東興店-珍珠奶茶手搖飲料專賣店,4.1,110,無酒精飲料店,台北市松山區南京東路五段234號-2號,25.0509857,121.5659878
清心福全,清心福全中山松江店（錦州）-珍珠奶茶手搖飲料專賣店,4.0,150,無酒精飲料店,台北市中山區錦州街247-1號,25.0604633,121.5340317
清心福全,清心福全林口三井店,3.9,433,冰品飲料店,新北市林口區文化二路一段66號1樓,25.0687982,121.3657599
清心福全,清心福全信義永吉店-珍珠奶茶手搖飲料專賣店,3.9,136,珍珠奶茶,台北市信義區永吉路30巷73之2號73之2號,25.0441828,121.5688604
清心福全,清心福全 大同站前店,3.6,214,冰品飲料店,台北市中山區長安西路52-1號,25.0486177,121.5190306
清心福全,清心福全（青島東店）珍珠奶茶手搖飲料店,3.6,156,無酒精飲料店,台北市中正區杭州南路一段10號,25.04309,121.5264659
清心福全,清心福全大安市民店-珍珠奶茶手搖飲料專賣店,3.6,89,冰品飲料店,台北市大安區市民大道三段136號,25.044714,121.5349565
清心福全,清心福全林口忠孝店 珍珠奶茶手搖飲料專賣店,3.5,283,冰品飲料店,新北市林口區忠孝路292號玄泰文華,25.0728059,121.3674303
清心福全,清心福全汐止忠孝東店-珍珠奶茶手搖飲料專賣店,3.6,123,珍珠奶茶,新北市汐止區忠孝東路394號,25.0704587,121.6658733
清心福全,清心福全萬華昆明店-珍珠奶茶手搖飲料專賣店,3.2,191,茶葉店,台北市萬華區昆明街132號,25.0432649,121.5047849
清心福全,清心福全冷飲店(松柏店),3.7,169,冰品飲料店,新北市板橋區松柏街4號,25.0293786,121.4740664
清心福全,清心福全 北投知行店,2.6,99,冰品飲料店,台北市北投區知行路287號,25.1216429,121.467244
清心福全,清心福全新莊建中店-珍珠奶茶手搖飲料專賣店,4.2,105,冰品飲料店,新北市新莊區建中街49號,25.0370671,121.4482062
清心福全,清心福全永和樂華店-珍珠奶茶手搖飲料專賣店,3.9,113,冰品飲料店,新北市永和區永和路一段149號,25.009155,121.513978
清心福全,清心福全蘆洲永樂,3.5,241,冰品飲料店,新北市蘆洲區永樂街43之1號,25.0883298,121.4576475
清心福全,清心福全三芝店-珍珠奶茶手搖飲料專賣店,3.7,101,冰品飲料店,新北市三芝區淡金路二段14號,25.2595481,121.5024722
清心福全,清心福全淡水淡大店-珍珠奶茶手搖飲料專賣店,3.3,90,冰品飲料店,新北市淡水區北新路182巷28號1樓,25.1779399,121.4490194
清心福全,清心福全西湖店 珍珠奶茶手搖飲料專賣店,3.6,93,無酒精飲料店,台北市內湖區內湖路一段285巷3號No,25.0824753,121.5669929
清心福全,清心福全延平北店-珍珠奶茶手搖飲專賣店,2.9,99,無酒精飲料店,台北市大同區延平北路三段25-1號,25.0643799,121.511289
清心福全,清心福全萬華成都店-珍珠奶茶手搖飲料專賣店,3.3,175,無酒精飲料店,台北市萬華區成都路30號,25.042504,121.506627
清心福全,清心福全淡水紅樹林店-珍珠奶茶手搖飲料專賣店,4.1,92,冰品飲料店,新北市淡水區中正東路二段35號,25.1563676,121.4594018
清心福全,清心福全南港店-珍珠奶茶手搖飲料專賣店,3.3,179,無酒精飲料店,台北市南港區南港路三段20號,25.0543845,121.5925894
清心福全,清心福全永和永貞店-珍珠奶茶手搖飲料專賣店,2.7,156,珍珠奶茶,新北市永和區永貞路392號,25.0074579,121.5094159
清心福全,清心福全中和景安店-珍珠奶茶手搖飲料專賣店,2.9,140,珍珠奶茶,新北市中和區景安路199號,24.9927479,121.5049181
清心福全,清心福全士林文昌店,3.6,105,珍珠奶茶,台北市士林區文昌路16號,25.095002,121.521806
清心福全,清心福全士林福華店- 珍珠奶茶手搖飲料專賣店,3.5,96,無酒精飲料店,台北市士林區福華路142號,25.1033041,121.5227905
清心福全,清心福全師大店-珍珠奶茶手搖飲料專賣店,3.5,109,冰品飲料店,台北市大安區師大路108號,25.0220463,121.5281649
清心福全,清心福全北深新店-珍珠奶茶手搖飲料專賣店,4.0,87,珍珠奶茶,新北市深坑區北深路三段171號,25.0035084,121.6017081
清心福全,清心福全蘆洲仁愛店-珍珠奶茶手搖飲料專賣店,4.7,243,冰品飲料店,新北市蘆洲區民族路470號,25.0917881,121.4716146
清心福全,清心福全泰山明志二店-珍珠奶茶手搖飲料專賣店,4.5,226,無酒精飲料店,新北市泰山區明志路二段63號,25.0525625,121.4291442
清心福全,清心福全新莊中正店-珍珠奶茶手搖飲料專賣店,4.7,259,無酒精飲料店,新北市新莊區中正路891-46號,25.0226529,121.413744
清心福全,清心福全 文山辛亥店,3.6,245,冰品飲料店,台北市文山區辛亥路四段247號,25.0010494,121.5549008
清心福全,清心福全三重大同北店-珍珠奶茶手搖飲料專賣店,3.5,64,冰品飲料店,新北市三重區大同北路53號,25.0632336,121.495293
清心福全,清心福全 景文店,2.4,196,冰品飲料店,台北市文山區景文街129號,24.9902166,121.5411819
清心福全,清心福全湳雅店-珍珠奶茶手搖飲料專賣店,3.4,122,冰品飲料店,新北市板橋區南雅南路一段81號,25.0055175,121.4557262
清心福全,清心福全中山店-珍珠奶茶手搖飲料專賣店,3.7,199,無酒精飲料店,新北市板橋區中山路二段183號,25.0169839,121.476228
清心福全,清心福全龍山店- 珍珠奶茶手搖飲料專賣店,3.5,198,無酒精飲料店,台北市萬華區廣州街217號,25.0368006,121.499096
清心福全,清心福全康定店-珍珠奶茶手搖飲料專賣店,3.5,117,無酒精飲料店,台北市萬華區康定路322號,25.0357596,121.501215
清心福全,清心福全蘆洲民義店-珍珠奶茶手搖飲料專賣店,3.5,86,冰品飲料店,新北市蘆洲區民義街119號,25.0912551,121.4741335
清心福全,清心福全金山中山店-珍珠奶茶手搖飲料專賣店,3.2,155,無酒精飲料店,新北市金山區中山路127號,25.2198227,121.6391871
清心福全,清心福全淡水中山店-珍珠奶茶手搖專賣店,3.7,104,珍珠奶茶,新北市淡水區中山路166號,25.173809,121.4412687
清心福全,清心福全樹林太元店,3.9,85,冰品飲料店,新北市樹林區太元街59號,24.978776,121.419032
清心福全,清心福全新莊雙鳳店-珍珠奶茶手搖飲料專賣店,4.2,250,冰品飲料店,新北市新莊區雙鳳路24號,25.0270927,121.4167274
清心福全,清心福全土城延吉店-珍珠奶茶手搖飲料專賣店,4.2,137,冰品飲料店,新北市土城區延吉街90號,24.9865475,121.4707408
清心福全,清心福全圭柔山店-珍珠奶茶手搖飲料專賣店,3.6,53,冰品飲料店,新北市淡水區淡金路三段258號,25.2064595,121.449039
清心福全,清心福全昌隆店-珍珠奶茶手搖飲料專賣店,2.9,75,冰品飲料店,新北市新莊區昌隆街24號,25.0506911,121.4539023
清心福全,清心福全三重三和店-珍珠奶茶手搖飲料專賣店,4.0,190,珍珠奶茶,新北市三重區三和路四段197號,25.0793421,121.4822075
清心福全,清心福全淡水淡金店-珍珠奶茶手搖飲料專賣店,3.8,94,冰品飲料店,新北市淡水區淡金路四段536號,25.2268011,121.4520085
清心福全,清心福全中正中華店-珍珠奶茶手搖飲料專賣店,3.4,79,無酒精飲料店,台北市中正區中華路二段307巷6號,25.0287771,121.5055345
清心福全,清心福全三重自強店-珍珠奶茶手搖飲料專賣店,3.8,90,冰品飲料店,新北市三重區自強路一段314號,25.0684778,121.4910977
清心福全,清心福全泰林店-珍珠奶茶手搖飲料專賣店,4.1,149,無酒精飲料店,新北市泰山區泰林路二段195號1樓,25.061229,121.4332803
清心福全,清心福全八里中山店--珍珠奶茶手搖飲專賣店,3.5,164,珍珠奶茶,新北市八里區中山路二段181號,25.150269,121.4050177
清心福全,清心福全新莊四維店-珍珠奶茶手搖飲料專賣店,4.1,59,珍珠奶茶,新北市新莊區龍安路238號,25.0197073,121.4206647
清心福全,清心福全新莊輔大店-珍珠奶茶手搖飲料專賣店,4.3,78,珍珠奶茶,新北市新莊區中正路516-36號,25.03226,121.432601
清心福全,清心福全珍珠奶茶手搖飲料五股工商店,3.5,175,冰品飲料店,新北市五股區工商路96號,25.0854839,121.437804
清心福全,清心福全淡水英專店-珍珠奶茶手搖飲料專賣店,3.6,130,無酒精飲料店,新北市淡水區英專路50號,25.1706405,121.4457449
清心福全,清心福全板橋僑中店-珍珠奶茶手搖飲料專賣店,3.7,214,冰品飲料店,新北市板橋區僑中一街124巷1弄1號,25.0120488,121.4457591
清心福全,清心福全中央店-珍珠奶茶手搖飲料專賣店,3.4,63,無酒精飲料店,新北市土城區慶安街107號,24.9719879,121.4404738
清心福全,清心福全三重五華店-珍珠奶茶手搖飲料專賣店,3.9,144,珍珠奶茶,新北市三重區五華街136之1號,25.0837371,121.4915329
清心福全,清心福全淡水水源店-珍珠奶茶手搖飲料專賣店,3.9,114,冰品飲料店,新北市淡水區水源街二段64號,25.1740587,121.4510639
清心福全,清心福全工六店-珍珠奶茶手搖飲料專賣店,4.0,129,冰品飲料店,新北市林口區中正路10號,25.0775077,121.3962964
清心福全,清心福全-碇坪店 珍珠奶茶手 搖飲料專賣店,3.8,22,無酒精飲料店,新北市石碇區碇坪路一段12號,25.0060057,121.6514252
清心福全,清心福全蘆洲中華店-珍珠奶茶手搖飲料專賣店,4.4,686,冰品飲料店,新北市蘆洲區中華街25-1號,25.0815014,121.4634896
清心福全,清心福全新莊福壽店,3.4,252,冰品飲料店,新北市新莊區福壽街8號,25.0475971,121.4578921
清心福全,清心福全樹林大保店-珍珠奶茶手搖飲料專賣店,3.8,53,無酒精飲料店,新北市樹林區保安街一段263號1樓,24.9968662,121.4194791
清心福全,清心福全新莊富國店-珍珠奶茶手搖飲料專賣店,3.9,600,冰品飲料店,新北市新莊區富國路76號,25.025901,121.419927
清心福全,清心福全土城安和店-珍珠奶茶手搖飲料專賣店,3.4,96,無酒精飲料店,新北市土城區延和路35號,24.9893342,121.4658901
清心福全,清心福全鶯歌建國店-珍珠奶茶手搖飲料專賣店,3.3,43,無酒精飲料店,新北市鶯歌區光明街113號1樓,24.955663,121.3448667
清心福全,清心福全三重力行店-珍珠奶茶手搖飲料專賣店,4.1,93,冰品飲料店,新北市三重區力行路二段119號,25.0764585,121.4829458
清心福全,清心福全建安店-珍珠奶茶手搖飲料專賣店,3.0,56,無酒精飲料店,新北市新莊區建安街36號,25.0251185,121.4278737
清心福全,清心福全 淡水沙崙店-珍珠奶茶及各式茶飲專賣店,4.0,173,珍珠奶茶,新北市淡水區沙崙路120號,25.1826769,121.4233029
清心福全,清心福全三重正義北-珍珠奶茶手搖飲料專賣店,3.3,121,無酒精飲料店,新北市三重區正義北路219號,25.0688097,121.4961032
清心福全,清心福全樹林俊英店-珍珠奶茶手搖飲料專賣店,4.0,86,珍珠奶茶,新北市樹林區俊英街137號1樓,25.0116482,121.4242026
清心福全,清心福全鶯歌中正店,3.7,72,無酒精飲料店,新北市鶯歌區中正三路83號,24.9410339,121.3385677
清心福全,清心福全 三重龍門店,4.4,132,冰品飲料店,新北市三重區龍門路93號,25.0724946,121.4973719
清心福全,清心福全淡水新市店-珍珠奶茶手搖專賣店,4.2,29,珍珠奶茶,新北市淡水區新市一路一段95號,25.1869655,121.4308343
清心福全,清心福全溪尾店-珍珠奶茶手搖飲料專賣店,3.0,109,冰品飲料店,新北市三重區溪尾街243號,25.0814781,121.4881421
清心福全,清心福全三峽中華店-珍珠奶茶手搖飲料專賣店,3.7,73,珍珠奶茶,新北市三峽區中華路21號1樓,24.9317207,121.3733697
清心福全,清心福全蘆洲民族店,4.2,149,冰品飲料店,新北市蘆洲區民族路208號,25.0875471,121.4798379
清心福全,清心福全板橋龍興店-珍珠奶茶手搖飲料專賣店,4.1,322,冰品飲料店,新北市板橋區龍興街9號,24.9996165,121.4426336
清心福全,清心福全五股凌雲店-珍珠奶茶手搖飲料專賣店,3.8,66,冰品飲料店,新北市五股區成泰路三段482號,25.1013654,121.4519126
清心福全,清心福全明燈店-珍珠奶茶手搖飲料專賣店,2.8,47,珍珠奶茶,新北市瑞芳區明燈路三段45號,25.1079477,121.806643
清心福全,清心福全八德店-珍珠奶茶手搖飲料專賣店,3.8,28,無酒精飲料店,新北市新莊區八德街94號,25.0215763,121.4242996
清心福全,清心福全八里龍米店--珍珠奶茶手搖飲專賣店,3.6,80,珍珠奶茶,新北市八里區龍米路一段206號,25.128137,121.4520271
清心福全,清心福全蘆洲三民店珍珠奶茶手搖飲料專賣店,4.0,95,冰品飲料店,新北市蘆洲區中山一路115號,25.0815111,121.4762405
清心福全,清心福全 板橋金華店,4.0,161,冰品飲料店,新北市板橋區中正路291號,25.0193364,121.4552958
清心福全,清心福全(中和華新店),2.7,151,冰品飲料店,新北市中和區華新街117號,24.9820071,121.5070271
清心福全,清心福全新莊民安西店-珍珠奶茶手搖飲料專賣店,3.7,90,珍珠奶茶,新北市新莊區民安西路120號1F,25.0185023,121.426718
清心福全,清心福全蘆洲得勝店-珍珠奶茶手搖飲料專賣店,4.0,196,珍珠奶茶,新北市蘆洲區得勝街123號,25.0833234,121.4722856
清心福全,清心福全三重重陽店-珍珠奶茶手搖飲料專賣店,3.3,134,冰品飲料店,新北市三重區重陽路一段71號,25.058788,121.486902
清心福全,清心福全汐止福德店,3.7,192,珍珠奶茶,新北市汐止區同興路272號,25.0654961,121.634061
清心福全,清心福全土城頂埔店,4.1,183,無酒精飲料店,新北市土城區中央路四段89號,24.9580054,121.4170157
清心福全,清心福全三重中興店-珍珠奶茶手搖飲料專賣店,4.0,114,無酒精飲料店,新北市三重區中正北路413號,25.0723767,121.4709021
清心福全,清心福全土城裕生店-珍珠奶茶手搖飲料專賣店,3.1,155,冰品飲料店,新北市土城區裕民路97號,24.9870499,121.4507526
清心福全,清心福全士林社子店-珍珠奶茶手搖飲料專賣店,3.4,199,無酒精飲料店,台北市士林區延平北路六段129號,25.0888325,121.5080202
清心福全,清心福全新店中正店-珍珠奶茶手搖飲料專賣店,2.0,182,無酒精飲料店,新北市新店區中正路503號,24.9840924,121.5334865
清心福全,清心福全三重中華店-珍珠奶茶手搖飲料專賣店,4.2,84,珍珠奶茶,新北市三重區中華路71號,25.0624797,121.4837536
清心福全,清心福全板橋篤行店珍珠奶茶手搖專賣店,3.6,111,冰品飲料店,新北市板橋區篤行路二段145號,24.988152,121.429957
清心福全,清心福全 漢生西店,3.1,192,飲料,新北市板橋區漢生西路84號,25.0193984,121.4628306
清心福全,清心福全板橋重慶店-珍珠奶茶手搖飲料專買店,4.3,220,珍珠奶茶,新北市板橋區重慶路232號,25.0015663,121.4627321
清心福全,清心福全新莊五權店-珍珠奶茶手搖飲料專賣店,3.4,96,冰品飲料店,新北市新莊區五權一路68號,25.066418,121.458542
清心福全,清心福全新莊民樂店_珍珠奶茶手搖專賣店,3.9,96,冰品飲料店,新北市新莊區民樂街95號,25.0436241,121.4578082
清心福全,清心福全鶯歌南雅店-珍珠奶茶手搖飲料專賣店,3.6,114,無酒精飲料店,新北市鶯歌區南雅路41號1樓,24.9542328,121.3486288
清心福全,清心福全三重光復店-珍珠奶茶手搖飲料專賣店,3.9,41,無酒精飲料店,新北市三重區光復路一段68巷42號1樓,25.0491563,121.4703554
清心福全,清心福全明峰店,3.8,74,珍珠奶茶,新北市汐止區明峰街180號,25.0701631,121.6285961
清心福全,清心福全三峽文化店-珍珠奶茶手搖飲料專賣店,3.6,58,冰品飲料店,新北市三峽區文化路16號,24.9358682,121.3733162
清心福全,清心福全(光華店)-珍珠奶茶手搖專賣店,4.4,71,冰品飲料店,新北市蘆洲區光華路85號,25.08252,121.467741
清心福全,清心福全汐止樟樹店,3.7,108,珍珠奶茶,新北市汐止區樟?一路139巷2號,25.0661441,121.642223
清心福全,清心福全冷飲站 板橋三民店-珍珠奶茶手搖飲料專賣店,3.4,114,冰品飲料店,新北市板橋區三民路二段102巷1號,25.0167249,121.478995
清心福全,清心福全福美店,4.6,62,無酒精飲料店,新北市中和區福美路247號,25.0050458,121.4990173
清心福全,清心福全板橋民治店-珍珠奶茶手搖飲料專賣店,3.5,138,無酒精飲料店,新北市板橋區民治街130號,25.0309118,121.4778262
清心福全,清心福全 永和宜安店-珍珠奶茶手搖飲料專賣店,4.1,133,冰品飲料店,新北市永和區中正路15號,24.9956694,121.5140024
清心福全,清心福全中和漢生店-珍珠奶茶手搖飲料專賣店,2.4,37,珍珠奶茶,新北市中和區中山路三段194號,25.0066545,121.4720803
清心福全,清心福全板橋莒光店-珍珠奶茶手搖飲料專賣店,4.0,237,冰品飲料店,新北市板橋區莒光路31號,25.0247075,121.4703327
清心福全,清心福全（土城清水店）,3.4,85,冰品飲料店,新北市土城區清水路168號,24.9814641,121.4599689
清心福全,清心福全松山饒河店-珍珠奶茶手搖飲料專賣店,3.6,127,無酒精飲料店,台北市松山區八德路四段779號,25.0512701,121.5783241
清心福全,清心福全內湖瑞光店,4.3,32,無酒精飲料店,台北市內湖區瑞光路11號,25.069492,121.5838412
清心福全,清心福全北投中央北店-珍珠奶茶手搖飲料專賣店,4.2,105,無酒精飲料店,台北市北投區中央北路四段511號,25.1281728,121.4685537
清心福全,清心福全冷飲站秀朗二店,2.8,102,冰品飲料店,新北市永和區得和路107號,25.000321,121.5182942
清心福全,清心福全內湖東湖店,4.3,88,冰品飲料店,台北市內湖區東湖路146號,25.0679338,121.6170446
清心福全,清心福全士林陽明店珍珠奶茶手搖飲料專賣店,3.7,211,珍珠奶茶,台北市士林區文林路22號,25.0865855,121.5256277
清心福全,清心福全-新松山店,4.1,87,珍珠奶茶,台北市信義區松山路590號,25.0366729,121.578274
清心福全,清心福全松山民生東店-珍珠奶茶手搖飲料專賣店,2.9,176,冰品飲料店,台北市中山區遼寧街43號,25.048702,121.542248
清心福全,清心福全公館店-珍珠奶茶手搖飲料專賣店,3.6,145,珍珠奶茶,台北市中正區羅斯福路三段316巷1-6號,25.0158903,121.5325063
清心福全,清心福全中和橋和店-珍珠奶茶手搖飲料專賣店,3.4,357,冰品飲料店,新北市中和區橋和路105號1樓,25.0056998,121.4909111
清心福全,清心福全三峽大義店,3.5,107,珍珠奶茶,新北市三峽區大義路11號,24.9437014,121.3788895
清心福全,清心福全士林天母店-珍珠奶茶手搖飲料專賣店,4.1,65,無酒精飲料店,台北市士林區天母西路44號,25.1183745,121.5256429
清心福全,清心福全杭州南店-珍珠奶茶手搖飲料專賣店,3.4,86,無酒精飲料店,台北市中正區羅斯福路二段10號,25.0288449,121.5208147
